POLYGON ((0 1.5, 0.0848305933051696 1.4952000048096143, 0.1696611866103392 1.4904096288480673, 0.2544917799155088 1.4856288721153585, 0.3393223732206783 1.4808577346114882, 0.4241529665258479 1.4760962163364566, 0.5089835598310175 1.4713443172902634, 0.593814153136187 1.4666020374729083, 0.6786447464413566 1.461869376884392, 0.7634753397465263 1.4571463355247138, 0.8483059330516958 1.4524329133938743, 0.9331365263568654 1.4477291104918733, 1.017967119662035 1.4430349268187106, 1.1027977129672046 1.4383503623743863, 1.187628306272374 1.4336754171589008, 1.2724588995775437 1.4290100911722534, 1.3572894928827133 1.4243543844144446, 1.442120086187883 1.4197082968854742, 1.5269506794930525 1.415071828585342, 1.611781272798222 1.4104449795140486, 1.6966118661033915 1.4058277496715934, 1.7814424594085612 1.4012201390579768, 1.8662730527137308 1.3966221476731986, 1.9511036460189004 1.3920337755172592, 2.03593423932407 1.3874550225901578, 2.1207648326292396 1.382885888891895, 2.2055954259344093 1.3783263744224705, 2.2904260192395784 1.3737764791818845, 2.375256612544748 1.369236203170137, 2.4600872058499177 1.364705546387228, 2.5449177991550873 1.3601845088331574, 2.629748392460257 1.3556730905079253, 2.7145789857654266 1.3511712914115317, 2.799409579070596 1.3466791115439765, 2.884240172375766 1.3421965509052596, 2.9690707656809354 1.3377236094953813, 3.053901358986105 1.3332602873143413, 3.1387319522912747 1.32880658436214, 3.223562545596444 1.324362500638777, 3.3083931389016135 1.3199280361442522, 3.393223732206783 1.3155031908785662, 3.4780543255119527 1.3110879648417186, 3.5628849188171223 1.3066823580337095, 3.647715512122292 1.3022863704545387, 3.7325461054274616 1.2979000021042064, 3.817376698732631 1.2935232529827125, 3.902207292037801 1.289156123090057, 3.9870378853429704 1.28479861242624, 4.07186847864814 1.2804507209912614, 4.15669907195331 1.2761124487851214, 4.241529665258479 1.27178379580782, 4.326360258563649 1.2674647620593564, 4.4111908518688185 1.263155347539732, 4.496021445173988 1.2588555522489457, 4.580852038479157 1.2545653761869977, 4.6656826317843265 1.2502848193538885, 4.750513225089496 1.2460138817496174, 4.835343818394666 1.2417525633741848, 4.920174411699835 1.2375008642275909, 5.005005005005005 1.2332587843098355, 5.089835598310175 1.2290263236209182, 5.174666191615344 1.2248034821608396, 5.259496784920514 1.2205902599295992, 5.3443273782256835 1.2163866569271975, 5.429157971530853 1.212192673153634, 5.513988564836023 1.208008308608909, 5.598819158141192 1.2038335632930226, 5.683649751446362 1.1996684372059747, 5.768480344751532 1.1955129303477652, 5.853310938056701 1.191367042718394, 5.938141531361871 1.1872307743178614, 6.0229721246670405 1.1831041251461671, 6.10780271797221 1.1789870952033115, 6.19263331127738 1.1748796844892941, 6.277463904582549 1.1707818930041152, 6.362294497887718 1.166693720747775, 6.447125091192888 1.1626151677202727, 6.531955684498057 1.1585462339216095, 6.616786277803227 1.1544869193517844, 6.7016168711083965 1.1504372240107976, 6.786447464413566 1.1463971478986494, 6.871278057718736 1.1423666910153396, 6.956108651023905 1.1383458533608684, 7.040939244329075 1.1343346349352355, 7.125769837634245 1.1303330357384411, 7.210600430939414 1.1263410557704852, 7.295431024244584 1.1223586950313678, 7.3802616175497535 1.1183859535210885, 7.465092210854923 1.114422831239648, 7.549922804160093 1.110469328187046, 7.634753397465262 1.1065254443632822, 7.719583990770432 1.102591179768357, 7.804414584075602 1.0986665344022701, 7.889245177380771 1.0947515082650217, 7.974075770685941 1.0908461013566118, 8.05890636399111 1.0869503136770404, 8.14373695729628 1.0830641452263072, 8.228567550601449 1.0791875960044128, 8.31339814390662 1.0753206660113568, 8.398228737211788 1.071463355247139, 8.483059330516959 1.0676156637117598, 8.567889923822127 1.063777591405219, 8.652720517127298 1.0599491383275166, 8.737551110432467 1.0561303044786527, 8.822381703737637 1.0523210898586273, 8.907212297042806 1.0485214944674404, 8.992042890347976 1.0447315183050918, 9.076873483653145 1.0409511613715818, 9.161704076958314 1.0371804236669102, 9.246534670263484 1.033419305191077, 9.331365263568653 1.0296678059440822, 9.416195856873824 1.025925925925926, 9.501026450178992 1.0221936651366081, 9.585857043484163 1.0184710235761287, 9.670687636789332 1.0147580012444877, 9.755518230094502 1.0110545981416852, 9.84034882339967 1.0073608142677213, 9.925179416704841 1.0036766496225955, 10.01001001001001 1.0000021042063083, 10.09484060331518 0.9963371780188597, 10.17967119662035 0.9926818710602495, 10.26450178992552 0.9890361833304775, 10.349332383230688 0.9854001148295443, 10.434162976535859 0.9817736655574494, 10.518993569841028 0.9781568355141929, 10.603824163146198 0.9745496246997748, 10.688654756451367 0.9709520331141953, 10.773485349756537 0.9673640607574542, 10.858315943061706 0.9637857076295514, 10.943146536366875 0.9602169737304873, 11.027977129672045 0.9566578590602615, 11.112807722977214 0.9531083636188741, 11.197638316282385 0.9495684874063253, 11.282468909587553 0.9460382304226148, 11.367299502892724 0.9425175926677427, 11.452130096197893 0.9390065741417093, 11.536960689503063 0.9355051748445142, 11.621791282808232 0.9320133947761575, 11.706621876113402 0.9285312339366393, 11.791452469418571 0.9250586923259596, 11.876283062723742 0.9215957699441183, 11.96111365602891 0.9181424667911154, 12.045944249334081 0.914698782866951, 12.13077484263925 0.9112647181716251, 12.21560543594442 0.9078402727051375, 12.300436029249589 0.9044254464674885, 12.38526662255476 0.9010202394586779, 12.470097215859928 0.8976246516787056, 12.554927809165099 0.8942386831275719, 12.639758402470267 0.8908623338052768, 12.724588995775436 0.88749560371182, 12.809419589080607 0.8841384928472015, 12.894250182385775 0.8807910012114216, 12.979080775690946 0.8774531288044802, 13.063911368996115 0.8741248756263771, 13.148741962301285 0.8708062416771125, 13.233572555606454 0.8674972269566865, 13.318403148911624 0.8641978314650987, 13.403233742216793 0.8609080552023495, 13.488064335521964 0.8576278981684387, 13.572894928827132 0.8543573603633664, 13.657725522132303 0.8510964417871324, 13.742556115437472 0.8478451424397371, 13.827386708742642 0.84460346232118, 13.91221730204781 0.8413714014314615, 13.997047895352981 0.8381489597705813, 14.08187848865815 0.8349361373385398, 14.16670908196332 0.8317329341353364, 14.25153967526849 0.8285393501609718, 14.33637026857366 0.8253553854154454, 14.421200861878829 0.8221810398987577, 14.506031455183997 0.8190163136109082, 14.590862048489168 0.8158612065518973, 14.675692641794337 0.8127157187217249, 14.760523235099507 0.8095798501203906, 14.845353828404676 0.8064536007478951, 14.930184421709846 0.8033369706042379, 15.015015015015015 0.8002299596894191, 15.099845608320186 0.7971325680034389, 15.184676201625354 0.794044795546297, 15.269506794930525 0.7909666423179937, 15.354337388235693 0.7878981083185288, 15.439167981540864 0.7848391935479022, 15.523998574846033 0.7817898980061143, 15.608829168151203 0.7787502216931645, 15.693659761456372 0.7757201646090535, 15.778490354761542 0.7726997267537808, 15.863320948066711 0.7696889081273466, 15.948151541371882 0.7666877087297508, 16.032982134677052 0.7636961285609934, 16.11781272798222 0.7607141676210746, 16.20264332128739 0.7577418259099941, 16.28747391459256 0.754779103427752, 16.372304507897727 0.7518260001743485, 16.457135101202898 0.7488825161497834, 16.541965694508068 0.7459486513540567, 16.62679628781324 0.7430244057871686, 16.711626881118406 0.7401097794491188, 16.796457474423576 0.7372047723399076, 16.881288067728747 0.7343093844595346, 16.966118661033917 0.7314236158080003, 17.050949254339084 0.7285474663853042, 17.135779847644255 0.7256809361914468, 17.220610440949425 0.7228240252264277, 17.305441034254596 0.7199767334902469, 17.390271627559763 0.7171390609829049, 17.475102220864933 0.7143110077044011, 17.559932814170104 0.7114925736547357, 17.644763407475274 0.708683758833909, 17.72959400078044 0.7058845632419206, 17.81442459408561 0.7030949868787706, 17.899255187390782 0.7003150297444591, 17.984085780695953 0.6975446918389862, 18.06891637400112 0.6947839731623516, 18.15374696730629 0.6920328737145556, 18.23857756061146 0.6892913934955975, 18.323408153916628 0.6865595325054785, 18.408238747221798 0.6838372907441976, 18.49306934052697 0.6811246682117553, 18.57789993383214 0.6784216649081514, 18.662730527137306 0.6757282808333861, 18.747561120442477 0.6730445159874591, 18.832391713747647 0.6703703703703703, 18.917222307052818 0.6677058439821202, 19.002052900357985 0.6650509368227087, 19.086883493663155 0.6624056488921355, 19.171714086968326 0.6597699801904007, 19.256544680273496 0.6571439307175044, 19.341375273578663 0.6545275004734463, 19.426205866883834 0.651920689458227, 19.511036460189004 0.649323497671846, 19.595867053494175 0.6467359251143034, 19.68069764679934 0.6441579717855995, 19.765528240104512 0.6415896376857338, 19.850358833409683 0.6390309228147066, 19.93518942671485 0.6364818271725179, 20.02002002002002 0.6339423507591675, 20.10485061332519 0.6314124935746558, 20.18968120663036 0.6288922556189823, 20.274511799935528 0.6263816368921475, 20.3593423932407 0.623880637394151, 20.44417298654587 0.621389257124993, 20.52900357985104 0.6189074960846732, 20.613834173156206 0.6164353542731922, 20.698664766461377 0.6139728316905495, 20.783495359766547 0.6115199283367452, 20.868325953071718 0.6090766442117794, 20.953156546376885 0.6066429793156523, 21.037987139682055 0.604218933648363, 21.122817732987226 0.6018045072099125, 21.207648326292396 0.5993997000003006, 21.292478919597563 0.5970045120195271, 21.377309512902734 0.594618943267592, 21.462140106207904 0.5922429937444953, 21.546970699513075 0.589876663450237, 21.631801292818242 0.5875199523848172, 21.716631886123412 0.5851728605482359, 21.801462479428583 0.582835387940493, 21.88629307273375 0.5805075345615888, 21.97112366603892 0.5781893004115228, 22.05595425934409 0.5758806854902951, 22.14078485264926 0.5735816897979062, 22.22561544595443 0.5712923133343555, 22.3104460392596 0.5690125560996433, 22.39527663256477 0.5667424180937695, 22.48010722586994 0.5644818993167342, 22.564937819175107 0.5622309997685375, 22.649768412480277 0.5599897194491791, 22.734599005785448 0.5577580583586589, 22.81942959909062 0.5555360164969775, 22.904260192395785 0.5533235938641345, 22.989090785700956 0.5511207904601299, 23.073921379006126 0.5489276062849637, 23.158751972311297 0.5467440413386361, 23.243582565616464 0.5445700956211467, 23.328413158921634 0.5424057691324959, 23.413243752226805 0.5402510618726835, 23.498074345531975 0.5381059738417096, 23.582904938837142 0.5359705050395742, 23.667735532142313 0.5338446554662772, 23.752566125447483 0.5317284251218186, 23.83739671875265 0.5296218140061983, 23.92222731205782 0.5275248221194168, 24.00705790536299 0.5254374494614735, 24.091888498668162 0.5233596960323688, 24.17671909197333 0.5212915618321026, 24.2615496852785 0.5192330468606747, 24.34638027858367 0.5171841511180851, 24.43121087188884 0.515144874604334, 24.516041465194007 0.5131152173194214, 24.600872058499178 0.5110951792633475, 24.68570265180435 0.5090847604361117, 24.77053324510952 0.5070839608377146, 24.855363838414686 0.5050927804681559, 24.940194431719856 0.5031112193274355, 25.025025025025027 0.5011392774155535, 25.109855618330197 0.4991769547325103, 25.194686211635364 0.4972242512783054, 25.279516804940535 0.4952811670529389, 25.364347398245705 0.4933477020564109, 25.449177991550872 0.4914238562887214, 25.534008584856043 0.48950962974987, 25.618839178161213 0.4876050224398573, 25.703669771466384 0.485710034358683, 25.78850036477155 0.4838246655063473, 25.87333095807672 0.4819489158828499, 25.95816155138189 0.4800827854881911, 26.042992144687062 0.4782262743223706, 26.12782273799223 0.4763793823853884, 26.2126533312974 0.4745421096772448, 26.29748392460257 0.4727144561979397, 26.38231451790774 0.470896421947473, 26.467145111212908 0.4690880069258449, 26.551975704518078 0.4672892111330552, 26.63680629782325 0.4655000345691036, 26.72163689112842 0.4637204772339907, 26.806467484433586 0.4619505391277164, 26.891298077738757 0.4601902202502804, 26.976128671043927 0.4584395206016829, 27.060959264349098 0.4566984401819237, 27.145789857654265 0.4549669789910032, 27.230620450959435 0.4532451370289208, 27.315451044264606 0.451532914295677, 27.400281637569773 0.4498303107912718, 27.485112230874943 0.448137326515705, 27.569942824180114 0.4464539614689766, 27.654773417485284 0.4447802156510867, 27.73960401079045 0.4431160890620351, 27.82443460409562 0.441461581701822, 27.909265197400792 0.4398166935704473, 27.994095790705963 0.4381814246679111, 28.07892638401113 0.4365557749942136, 28.1637569773163 0.4349397445493542, 28.24858757062147 0.4333333333333335, 28.33341816392664 0.4317365413461509, 28.418248757231808 0.4301493685878071, 28.50307935053698 0.4285718150583016, 28.58790994384215 0.4270038807576345, 28.67274053714732 0.4254455656858059, 28.757571130452487 0.4238968698428159, 28.842401723757657 0.4223577932286643, 28.927232317062828 0.4208283358433508, 29.012062910367995 0.4193084976868762, 29.096893503673165 0.4177982787592398, 29.181724096978336 0.4162976790604419, 29.266554690283506 0.4148066985904825, 29.351385283588673 0.4133253373493616, 29.436215876893844 0.4118535953370788, 29.521046470199014 0.4103914725536347, 29.605877063504185 0.408938968999029, 29.69070765680935 0.4074960846732619, 29.775538250114522 0.4060628195763332, 29.860368843419693 0.4046391737082429, 29.945199436724863 0.403225147068991, 30.03003003003003 0.4018207396585774, 30.1148606233352 0.4004259514770026, 30.19969121664037 0.399040782524266, 30.28452180994554 0.3976652328003679, 30.36935240325071 0.3962993023053084, 30.45418299655588 0.3949429910390872, 30.53901358986105 0.3935962990017046, 30.62384418316622 0.3922592261931601, 30.708674776471387 0.3909317726134544, 30.793505369776558 0.389613938262587, 30.878335963081728 0.388305723140558, 30.963166556386895 0.3870071272473676, 31.047997149692065 0.3857181505830156, 31.132827742997236 0.3844387931475018, 31.217658336302406 0.3831690549408268, 31.302488929607573 0.3819089359629901, 31.387319522912744 0.3806584362139919, 31.472150116217914 0.3794175556938321, 31.556980709523085 0.3781862944025107, 31.641811302828252 0.3769646523400276, 31.726641896133422 0.3757526295063832, 31.811472489438593 0.3745502259015773, 31.896303082743763 0.3733574415256097, 31.98113367604893 0.3721742763784807, 32.065964269354104 0.3710007304601901, 32.15079486265927 0.3698368037707379, 32.23562545596444 0.3686824963101241, 32.32045604926961 0.3675378080783486, 32.40528664257478 0.3664027390754118, 32.49011723587995 0.3652772893013134, 32.57494782918512 0.3641614587560534, 32.65977842249029 0.363055247439632, 32.744609015795454 0.3619586553520487, 32.829439609100625 0.3608716824933042, 32.914270202405795 0.359794328863398, 32.999100795710966 0.3587265944623303, 33.083931389016136 0.357668479290101, 33.16876198232131 0.3566199833467101, 33.25359257562648 0.3555811066321578, 33.33842316893165 0.3545518491464438, 33.42325376223681 0.3535322108895683, 33.50808435554198 0.3525221918615313, 33.59291494884715 0.3515217920623326, 33.67774554215232 0.3505310114919726, 33.76257613545749 0.3495498501504509, 33.847406728762664 0.3485783080377677, 33.932237322067834 0.347616385153923, 34.017067915373005 0.3466640814989163, 34.10189850867817 0.3457213970727485, 34.18672910198334 0.344788331875419, 34.27155969528851 0.3438648859069282, 34.35639028859368 0.3429510591672756, 34.44122088189885 0.3420468516564615, 34.52605147520402 0.3411522633744856, 34.61088206850919 0.3402672943213484, 34.695712661814355 0.3393919444970497, 34.780543255119525 0.3385262139015894, 34.865373848424696 0.3376701025349676, 34.950204441729866 0.3368236103971842, 35.03503503503504 0.335986737488239, 35.11986562834021 0.3351594838081325, 35.20469622164538 0.3343418493568644, 35.28952681495055 0.3335338341344348, 35.37435740825571 0.3327354381408437, 35.45918800156088 0.3319466613760908, 35.54401859486605 0.3311675038401767, 35.62884918817122 0.3303979655331007, 35.713679781476394 0.3296380464548636, 35.798510374781564 0.3288877466054644, 35.883340968086735 0.3281470659849041, 35.968171561391905 0.3274160045931819, 36.05300215469707 0.3266945624302982, 36.13783274800224 0.3259827394962533, 36.22266334130741 0.3252805357910463, 36.30749393461258 0.3245879513146784, 36.39232452791775 0.3239049860671483, 36.47715512122292 0.3232316400484567, 36.56198571452809 0.3225679132586041, 36.646816307833255 0.3219138056975895, 36.731646901138426 0.3212693173654138, 36.816477494443596 0.320634448262076, 36.90130808774877 0.3200091983875771, 36.98613868105394 0.3193935677419162, 37.07096927435911 0.3187875563250938, 37.15579986766428 0.3181911641371101, 37.24063046096945 0.3176043911779647, 37.32546105427461 0.3170272374476582, 37.41029164757978 0.3164597029461895, 37.49512224088495 0.3159017876735598, 37.579952834190124 0.315353491629768, 37.664783427495294 0.3148148148148148, 37.749614020800465 0.3142857572287003, 37.834444614105635 0.313766318871424, 37.919275207410806 0.3132564997429865, 38.00410580071597 0.312756299843387, 38.08893639402114 0.3122657191726259, 38.17376698732631 0.3117847577307038, 38.25859758063148 0.3113134155176197, 38.34342817393665 0.3108516925333744, 38.42825876724182 0.3103995887779671, 38.51308936054699 0.3099571042513989, 38.597919953852156 0.3095242389536684, 38.682750547157326 0.3091009928847766, 38.7675811404625 0.3086873660447236, 38.85241173376767 0.3082833584335087, 38.93724232707284 0.3078889700511325, 39.02207292037801 0.3075042008975943, 39.10690351368318 0.307129050972895, 39.19173410698835 0.3067635202770338, 39.27656470029351 0.3064076088100112, 39.36139529359868 0.3060613165718273, 39.446225886903854 0.3057246435624814, 39.531056480209024 0.3053975897819743, 39.615887073514195 0.3050801552303055, 39.700717666819365 0.3047723399074753, 39.785548260124536 0.3044741438134833, 39.8703788534297 0.3041855669483298, 39.95520944673487 0.3039066093120151, 40.04004004004004 0.3036372709045381, 40.12487063334521 0.3033775517259003, 40.20970122665038 0.3031274517761006, 40.29453181995555 0.3028869710551396, 40.37936241326072 0.3026561095630164, 40.46419300656589 0.3024348672997321, 40.549023599871056 0.3022232442652865, 40.63385419317623 0.3020212404596789, 40.7186847864814 0.3018288558829102, 40.80351537978657 0.3016460905349795, 40.88834597309174 0.3014729444158876, 40.97317656639691 0.3013094175256338, 41.05800715970208 0.3011555098642184, 41.14283775300725 0.301011221431642, 41.22766834631241 0.3008765522279035, 41.31249893961758 0.3007515022530042, 41.397329532922754 0.3006360715069424, 41.482160126227924 0.3005302599897192, 41.566990719533095 0.3004340677013352, 41.651821312838265 0.300347494641789, 41.736651906143436 0.3002705408110817, 41.8214824994486 0.3002032062092123, 41.90631309275377 0.300145490836182, 41.99114368605894 0.3000973946919893, 42.07597427936411 0.3000589177766355, 42.16080487266928 0.3000300600901204, 42.24563546597445 0.3000108216324432, 42.33046605927962 0.3000012024036051, 42.41529665258479 0.3000012024036048, 42.500127245889956 0.3000108216324432, 42.58495783919513 0.3000300600901201, 42.6697884325003 0.3000589177766355, 42.75461902580547 0.3000973946919893, 42.83944961911064 0.3001454908361815, 42.92428021241581 0.3002032062092122, 43.00911080572098 0.3002705408110813, 43.09394139902615 0.300347494641789, 43.17877199233131 0.300434067701335, 43.263602585636484 0.3005302599897194, 43.348433178941654 0.3006360715069424, 43.433263772246825 0.3007515022530037, 43.518094365551995 0.3008765522279036, 43.602924958857166 0.3010112214316418, 43.687755552162336 0.3011555098642186, 43.7725861454675 0.3013094175256337, 43.85741673877267 0.3014729444158874, 43.94224733207784 0.3016460905349794, 44.02707792538301 0.3018288558829099, 44.11190851868818 0.3020212404596789, 44.19673911199335 0.3022232442652863, 44.28156970529852 0.3024348672997322, 44.36640029860369 0.3026561095630165, 44.45123089190886 0.3028869710551392, 44.53606148521403 0.3031274517761004, 44.6208920785192 0.3033775517259, 44.70572267182437 0.3036372709045381, 44.79055326512954 0.3039066093120147, 44.87538385843471 0.3041855669483297, 44.96021445173988 0.3044741438134831, 45.04504504504505 0.304772339907475, 45.129875638350214 0.3050801552303054, 45.214706231655384 0.3053975897819741, 45.299536824960555 0.3057246435624814, 45.384367418265725 0.3060613165718271, 45.469198011570896 0.3064076088100112, 45.554028604876066 0.3067635202770338, 45.63885919818124 0.3071290509728948, 45.7236897914864 0.3075042008975942, 45.80852038479157 0.3078889700511322, 45.89335097809674 0.3082833584335086, 45.97818157140191 0.3086873660447234, 46.06301216470708 0.3091009928847767, 46.14784275801225 0.3095242389536684, 46.23267335131742 0.3099571042513986, 46.317503944622594 0.3103995887779671, 46.40233453792776 0.3108516925333742, 46.48716513123293 0.3113134155176198, 46.5719957245381 0.3117847577307037, 46.65682631784327 0.3122657191726261, 46.74165691114844 0.312756299843387, 46.82648750445361 0.3132564997429862, 46.91131809775878 0.313766318871424, 46.99614869106395 0.3142857572287002, 47.080979284369114 0.3148148148148148, 47.165809877674285 0.315353491629768, 47.250640470979455 0.3159017876735595, 47.335471064284626 0.3164597029461895, 47.420301657589796 0.3170272374476579, 47.50513225089497 0.3176043911779648, 47.58996284420014 0.3181911641371101, 47.6747934375053 0.3187875563250939, 47.75962403081047 0.3193935677419161, 47.84445462411564 0.3200091983875768, 47.92928521742081 0.3206344482620759, 48.01411581072598 0.3212693173654135, 48.09894640403115 0.3219138056975895, 48.183776997336324 0.322567913258604, 48.268607590641494 0.3232316400484569, 48.35343818394666 0.3239049860671482, 48.43826877725183 0.324587951314678, 48.523099370557 0.3252805357910463, 48.60792996386217 0.325982739496253, 48.69276055716734 0.3266945624302982, 48.77759115047251 0.3274160045931818, 48.86242174377768 0.3281470659849038, 48.947252337082844 0.3288877466054643, 49.032082930388015 0.3296380464548633, 49.116913523693185 0.3303979655331007, 49.201744116998356 0.3311675038401765, 49.286574710303526 0.3319466613760908, 49.3714053036087 0.3327354381408436, 49.45623589691387 0.3335338341344348, 49.54106649021904 0.3343418493568644, 49.6258970835242 0.3351594838081324, 49.71072767682937 0.335986737488239, 49.79555827013454 0.336823610397184, 49.88038886343971 0.3376701025349674, 49.96521945674488 0.3385262139015893, 50.050050050050054 0.3393919444970496, 50.134880643355224 0.3402672943213484, 50.219711236660395 0.3411522633744856, 50.30454182996556 0.3420468516564613, 50.38937242327073 0.3429510591672754, 50.4742030165759 0.3438648859069279, 50.55903360988107 0.344788331875419, 50.64386420318624 0.3457213970727485, 50.72869479649141 0.3466640814989164, 50.81352538979658 0.3476163851539227, 50.898355983101744 0.3485783080377675, 50.983186576406915 0.3495498501504507, 51.068017169712085 0.3505310114919725, 51.152847763017256 0.3515217920623326, 51.23767835632243 0.3525221918615312, 51.3225089496276 0.3535322108895683, 51.40733954293277 0.3545518491464438, 51.49217013623794 0.3555811066321577, 51.5770007295431 0.35661998334671, 51.66183132284827 0.3576684792901009, 51.74666191615344 0.3587265944623302, 51.83149250945861 0.3597943288633979, 51.91632310276378 0.3608716824933042, 52.001153696068954 0.3619586553520487, 52.085984289374125 0.3630552474396319, 52.170814882679295 0.3641614587560534, 52.25564547598446 0.3652772893013133, 52.34047606928963 0.3664027390754117, 52.4253066625948 0.3675378080783486, 52.51013725589997 0.368682496310124, 52.59496784920514 0.3698368037707377, 52.67979844251031 0.3710007304601899, 52.76462903581548 0.3721742763784806, 52.849459629120645 0.3733574415256097, 52.934290222425815 0.3745502259015772, 53.019120815730986 0.3757526295063832, 53.103951409036156 0.3769646523400277, 53.18878200234133 0.3781862944025106, 53.2736125956465 0.379417555693832, 53.35844318895167 0.3806584362139918, 53.44327378225684 0.3819089359629901, 53.528104375562 0.3831690549408266, 53.61293496886717 0.3844387931475018, 53.69776556217234 0.3857181505830154, 53.78259615547751 0.3870071272473675, 53.867426748782684 0.388305723140558, 53.952257342087854 0.389613938262587, 54.037087935393025 0.3909317726134544, 54.121918528698195 0.3922592261931602, 54.20674912200336 0.3935962990017043, 54.29157971530853 0.3949429910390871, 54.3764103086137 0.3962993023053084, 54.46124090191887 0.397665232800368, 54.54607149522404 0.3990407825242661, 54.63090208852921 0.4004259514770026, 54.71573268183438 0.4018207396585776, 54.800563275139545 0.4032251470689909, 54.885393868444716 0.4046391737082428, 54.970224461749886 0.4060628195763331, 55.05505505505506 0.4074960846732619, 55.13988564836023 0.4089389689990291, 55.2247162416654 0.4103914725536348, 55.30954683497057 0.4118535953370789, 55.39437742827574 0.4133253373493615, 55.4792080215809 0.4148066985904824, 55.56403861488607 0.4162976790604418, 55.64886920819124 0.4177982787592398, 55.733699801496414 0.4193084976868761, 55.818530394801584 0.4208283358433509, 55.903360988106755 0.4223577932286642, 55.988191581411925 0.4238968698428159, 56.073022174717096 0.425445565685806, 56.15785276802226 0.4270038807576345, 56.24268336132743 0.4285718150583016, 56.3275139546326 0.4301493685878071, 56.41234454793777 0.431736541346151, 56.49717514124294 0.4333333333333334, 56.58200573454811 0.4349397445493542, 56.66683632785328 0.4365557749942135, 56.751666921158446 0.4381814246679111, 56.836497514463616 0.4398166935704473, 56.92132810776879 0.4414615817018219, 57.00615870107396 0.443116089062035, 57.09098929437913 0.4447802156510866, 57.1758198876843 0.4464539614689765, 57.26065048098947 0.448137326515705, 57.34548107429464 0.4498303107912719, 57.4303116675998 0.451532914295677, 57.51514226090497 0.4532451370289208, 57.599972854210144 0.454966978991003, 57.684803447515314 0.4566984401819237, 57.769634040820485 0.4584395206016828, 57.854464634125655 0.4601902202502803, 57.939295227430826 0.4619505391277164, 58.02412582073599 0.4637204772339907, 58.10895641404116 0.4655000345691036, 58.19378700734633 0.467289211133055, 58.2786176006515 0.4690880069258448, 58.36344819395667 0.470896421947473, 58.44827878726184 0.4727144561979397, 58.53310938056701 0.4745421096772449, 58.61793997387218 0.4763793823853885, 58.702770567177346 0.4782262743223704, 58.78760116048252 0.4800827854881908, 58.87243175378769 0.4819489158828498, 58.95726234709286 0.4838246655063472, 59.04209294039803 0.485710034358683, 59.1269235337032 0.4876050224398574, 59.21175412700837 0.4895096297498701, 59.29658472031354 0.4914238562887213, 59.3814153136187 0.4933477020564108, 59.466245906923874 0.4952811670529388, 59.551076500229044 0.4972242512783054, 59.635907093534215 0.4991769547325103, 59.720737686839385 0.5011392774155538, 59.805568280144556 0.5031112193274356, 59.890398873449726 0.505092780468156, 59.97522946675489 0.5070839608377145, 60.06006006006006 0.5090847604361117, 60.14489065336523 0.5110951792633474, 60.2297212466704 0.5131152173194216, 60.31455183997557 0.5151448746043341, 60.39938243328074 0.517184151118085, 60.48421302658591 0.5192330468606745, 60.56904361989108 0.5212915618321025, 60.65387421319625 0.5233596960323686, 60.73870480650142 0.5254374494614734, 60.82353539980659 0.5275248221194166, 60.90836599311176 0.5296218140061983, 60.99319658641693 0.5317284251218186, 61.0780271797221 0.5338446554662771, 61.16285777302727 0.5359705050395742, 61.24768836633244 0.5381059738417097, 61.3325189596376 0.5402510618726835, 61.417349552942774 0.5424057691324958, 61.502180146247944 0.5445700956211467, 61.587010739553115 0.546744041338636, 61.671841332858286 0.5489276062849637, 61.756671926163456 0.5511207904601299, 61.84150251946863 0.5533235938641345, 61.92633311277379 0.5555360164969774, 62.01116370607896 0.5577580583586589, 62.09599429938413 0.559989719449179, 62.1808248926893 0.5622309997685373, 62.26565548599447 0.5644818993167342, 62.35048607929964 0.5667424180937695, 62.43531667260481 0.5690125560996433, 62.52014726590998 0.5712923133343555, 62.60497785921515 0.573581689797906, 62.68980845252032 0.5758806854902951, 62.77463904582549 0.5781893004115226, 62.85946963913066 0.5805075345615887, 62.94430023243583 0.582835387940493, 63.029130825741 0.585172860548236, 63.11396141904617 0.5875199523848174, 63.19879201235134 0.5898766634502373, 63.283622605656504 0.5922429937444953, 63.368453198961674 0.5946189432675919, 63.453283792266845 0.5970045120195271, 63.538114385572015 0.5993997000003006, 63.622944978877186 0.6018045072099127, 63.707775572182356 0.6042189336483632, 63.79260616548753 0.606642979315652, 63.87743675879269 0.6090766442117793, 63.96226735209786 0.6115199283367452, 64.04709794540304 0.6139728316905496, 64.13192853870821 0.6164353542731924, 64.21675913201337 0.6189074960846731, 64.30158972531854 0.6213892571249927, 64.3864203186237 0.6238806373941508, 64.47125091192888 0.6263816368921473, 64.55608150523405 0.6288922556189823, 64.64091209853922 0.6314124935746557, 64.72574269184439 0.6339423507591675, 64.81057328514956 0.6364818271725179, 64.89540387845473 0.6390309228147066, 64.9802344717599 0.6415896376857338, 65.06506506506507 0.6441579717855995, 65.14989565837024 0.6467359251143037, 65.23472625167541 0.6493234976718463, 65.31955684498058 0.6519206894582272, 65.40438743828575 0.6545275004734467, 65.48921803159091 0.6571439307175041, 65.57404862489608 0.6597699801904005, 65.65887921820125 0.6624056488921353, 65.74370981150642 0.6650509368227084, 65.82854040481159 0.6677058439821202, 65.91337099811676 0.6703703703703703, 65.99820159142193 0.673044515987459, 66.0830321847271 0.675728280833386, 66.16786277803227 0.6784216649081515, 66.25269337133744 0.6811246682117553, 66.33752396464261 0.6838372907441977, 66.42235455794778 0.6865595325054786, 66.50718515125295 0.6892913934955979, 66.59201574455813 0.6920328737145556, 66.6768463378633 0.6947839731623517, 66.76167693116847 0.6975446918389864, 66.84650752447362 0.7003150297444589, 66.9313381177788 0.7030949868787705, 67.01616871108396 0.7058845632419203, 67.10099930438913 0.7086837588339089, 67.1858298976943 0.7114925736547356, 67.27066049099948 0.7143110077044009, 67.35549108430465 0.7171390609829048, 67.44032167760982 0.7199767334902468, 67.52515227091499 0.7228240252264276, 67.60998286422016 0.7256809361914467, 67.69481345752533 0.7285474663853043, 67.7796440508305 0.7314236158080002, 67.86447464413567 0.7343093844595346, 67.94930523744084 0.7372047723399077, 68.03413583074601 0.7401097794491189, 68.11896642405117 0.7430244057871682, 68.20379701735634 0.7459486513540564, 68.28862761066151 0.7488825161497832, 68.37345820396668 0.7518260001743483, 68.45828879727185 0.7547791034277519, 68.54311939057702 0.757741825909994, 68.62794998388219 0.7607141676210744, 68.71278057718736 0.7636961285609933, 68.79761117049253 0.7666877087297507, 68.8824417637977 0.7696889081273466, 68.96727235710287 0.7726997267537808, 69.05210295040804 0.7757201646090536, 69.13693354371321 0.7787502216931647, 69.22176413701838 0.7817898980061143, 69.30659473032355 0.7848391935479023, 69.39142532362871 0.7878981083185285, 69.47625591693388 0.7909666423179934, 69.56108651023905 0.7940447955462967, 69.64591710354422 0.7971325680034386, 69.73074769684939 0.8002299596894189, 69.81557829015456 0.8033369706042377, 69.90040888345973 0.8064536007478948, 69.9852394767649 0.8095798501203906, 70.07007007007007 0.8127157187217247, 70.15490066337524 0.8158612065518972, 70.23973125668041 0.8190163136109082, 70.32456184998559 0.8221810398987577, 70.40939244329076 0.8253553854154455, 70.49422303659593 0.828539350160972, 70.5790536299011 0.8317329341353367, 70.66388422320625 0.8349361373385394, 70.74871481651142 0.838148959770581, 70.8335454098166 0.8413714014314612, 70.91837600312176 0.8446034623211799, 71.00320659642693 0.8478451424397367, 71.0880371897321 0.8510964417871324, 71.17286778303728 0.8543573603633662, 71.25769837634245 0.8576278981684385, 71.34252896964762 0.8609080552023495, 71.42735956295279 0.8641978314650988, 71.51219015625796 0.8674972269566864, 71.59702074956313 0.8708062416771126, 71.6818513428683 0.8741248756263772, 71.76668193617347 0.8774531288044803, 71.85151252947864 0.8807910012114218, 71.93634312278381 0.8841384928472017, 72.02117371608897 0.8874956037118197, 72.10600430939414 0.8908623338052765, 72.19083490269931 0.8942386831275718, 72.27566549600448 0.8976246516787055, 72.36049608930965 0.9010202394586776, 72.44532668261482 0.9044254464674885, 72.53015727591999 0.9078402727051375, 72.61498786922516 0.911264718171625, 72.69981846253033 0.9146987828669509, 72.7846490558355 0.9181424667911154, 72.86947964914067 0.9215957699441183, 72.95431024244584 0.9250586923259597, 73.03914083575101 0.9285312339366395, 73.12397142905618 0.9320133947761576, 73.20880202236135 0.9355051748445143, 73.29363261566651 0.939006574141709, 73.37846320897168 0.9425175926677424, 73.46329380227685 0.9460382304226146, 73.54812439558202 0.9495684874063249, 73.63295498888719 0.9531083636188739, 73.71778558219236 0.9566578590602614, 73.80261617549753 0.960216973730487, 73.8874467688027 0.9637857076295514, 73.97227736210787 0.9673640607574542, 74.05710795541304 0.9709520331141953, 74.14193854871822 0.9745496246997748, 74.22676914202339 0.9781568355141929, 74.31159973532856 0.9817736655574495, 74.39643032863373 0.9854001148295445, 74.4812609219389 0.9890361833304778, 74.56609151524405 0.9926818710602491, 74.65092210854922 0.9963371780188593, 74.7357527018544 1.000002104206308, 74.82058329515957 1.0036766496225953, 74.90541388846474 1.0073608142677208, 74.9902444817699 1.011054598141685, 75.07507507507508 1.0147580012444875, 75.15990566838025 1.0184710235761285, 75.24473626168542 1.022193665136608, 75.32956685499059 1.025925925925926, 75.41439744829576 1.029667805944082, 75.49922804160093 1.033419305191077, 75.5840586349061 1.0371804236669102, 75.66888922821127 1.0409511613715818, 75.75371982151644 1.0447315183050918, 75.83855041482161 1.0485214944674406, 75.92338100812677 1.0523210898586268, 76.00821160143194 1.0561303044786523, 76.09304219473711 1.0599491383275164, 76.17787278804228 1.0637775914052185, 76.26270338134745 1.0676156637117595, 76.34753397465262 1.0714633552471386, 76.43236456795779 1.0753206660113563, 76.51719516126296 1.0791875960044126, 76.60202575456813 1.0830641452263072, 76.6868563478733 1.0869503136770402, 76.77168694117847 1.0908461013566118, 76.85651753448364 1.0947515082650219, 76.94134812778881 1.0986665344022701, 77.02617872109398 1.102591179768357, 77.11100931439915 1.1065254443632824, 77.19583990770431 1.1104693281870455, 77.28067050100948 1.1144228312396476, 77.36550109431465 1.1183859535210883, 77.45033168761982 1.1223586950313673, 77.535162280925 1.1263410557704847, 77.61999287423016 1.130333035738441, 77.70482346753533 1.1343346349352355, 77.7896540608405 1.1383458533608681, 77.87448465414568 1.1423666910153394, 77.95931524745085 1.1463971478986492, 78.04414584075602 1.1504372240107974, 78.12897643406119 1.1544869193517842, 78.21380702736636 1.1585462339216093, 78.29863762067153 1.1626151677202727, 78.3834682139767 1.166693720747775, 78.46829880728185 1.1707818930041147, 78.55312940058703 1.1748796844892937, 78.6379599938922 1.178987095203311, 78.72279058719737 1.1831041251461667, 78.80762118050254 1.1872307743178612, 78.89245177380771 1.191367042718394, 78.97728236711288 1.195512930347765, 79.06211296041805 1.1996684372059747, 79.14694355372322 1.2038335632930226, 79.23177414702839 1.2080083086089093, 79.31660474033356 1.212192673153634, 79.40143533363873 1.2163866569271973, 79.4862659269439 1.2205902599295992, 79.57109652024907 1.2248034821608396, 79.65592711355424 1.2290263236209185, 79.7407577068594 1.2332587843098348, 79.82558830016457 1.2375008642275904, 79.91041889346974 1.2417525633741844, 79.99524948677491 1.2460138817496171, 80.08008008008008 1.2502848193538882, 80.16491067338525 1.2545653761869977, 80.24974126669042 1.2588555522489455, 80.33457185999559 1.2631553475397317, 80.41940245330076 1.2674647620593567, 80.50423304660593 1.2717837958078198, 80.5890636399111 1.2761124487851214, 80.67389423321627 1.2804507209912617, 80.75872482652144 1.28479861242624, 80.84355541982661 1.289156123090057, 80.92838601313179 1.2935232529827128, 81.01321660643696 1.2979000021042064, 81.09804719974211 1.3022863704545382, 81.18287779304728 1.3066823580337088, 81.26770838635245 1.3110879648417182, 81.35253897965762 1.315503190878566, 81.4373695729628 1.319928036144252, 81.52220016626796 1.3243625006387767, 81.60703075957314 1.3288065843621397, 81.6918613528783 1.333260287314341, 81.77669194618348 1.337723609495381, 81.86152253948865 1.3421965509052596, 81.94635313279382 1.3466791115439765, 82.03118372609899 1.3511712914115317, 82.11601431940416 1.3556730905079255, 82.20084491270933 1.3601845088331577, 82.2856755060145 1.3647055463872282, 82.37050609931966 1.3692362031701366, 82.45533669262483 1.373776479181884, 82.54016728593 1.37832637442247, 82.62499787923517 1.3828858888918945, 82.70982847254034 1.3874550225901574, 82.79465906584551 1.3920337755172587, 82.87948965915068 1.3966221476731984, 82.96432025245585 1.4012201390579766, 83.04915084576102 1.4058277496715934, 83.13398143906619 1.4104449795140483, 83.21881203237136 1.415071828585342, 83.30364262567653 1.419708296885474, 83.3884732189817 1.4243543844144444, 83.47330381228687 1.4290100911722534, 83.55813440559204 1.4336754171589008, 83.6429649988972 1.4383503623743858, 83.72779559220237 1.4430349268187102, 83.81262618550754 1.4477291104918728, 83.89745677881271 1.4524329133938738, 83.98228737211788 1.4571463355247134, 84.06711796542305 1.4618693768843916, 84.15194855872822 1.466602037472908, 84.23677915203339 1.471344317290263, 84.32160974533856 1.4760962163364564, 84.40644033864373 1.4808577346114882, 84.4912709319489 1.4856288721153585, 84.57610152525407 1.4904096288480673, 84.66093211855924 1.4952000048096143, 84.74576271186442 1.5, 84.74576271186442 -1.5, 84.74576271186442 -1.5, 84.66093211855924 -1.4952000048096143, 84.57610152525407 -1.4904096288480673, 84.4912709319489 -1.4856288721153585, 84.40644033864373 -1.4808577346114882, 84.32160974533856 -1.4760962163364564, 84.23677915203339 -1.471344317290263, 84.15194855872822 -1.466602037472908, 84.06711796542305 -1.4618693768843916, 83.98228737211788 -1.4571463355247134, 83.89745677881271 -1.4524329133938738, 83.81262618550754 -1.4477291104918728, 83.72779559220237 -1.4430349268187102, 83.6429649988972 -1.4383503623743858, 83.55813440559204 -1.4336754171589008, 83.47330381228687 -1.4290100911722534, 83.3884732189817 -1.4243543844144444, 83.30364262567653 -1.419708296885474, 83.21881203237136 -1.415071828585342, 83.13398143906619 -1.4104449795140483, 83.04915084576102 -1.4058277496715934, 82.96432025245585 -1.4012201390579766, 82.87948965915068 -1.3966221476731984, 82.79465906584551 -1.3920337755172587, 82.70982847254034 -1.3874550225901574, 82.62499787923517 -1.3828858888918945, 82.54016728593 -1.37832637442247, 82.45533669262483 -1.373776479181884, 82.37050609931966 -1.3692362031701366, 82.2856755060145 -1.3647055463872282, 82.20084491270933 -1.3601845088331577, 82.11601431940416 -1.3556730905079255, 82.03118372609899 -1.3511712914115317, 81.94635313279382 -1.3466791115439765, 81.86152253948865 -1.3421965509052596, 81.77669194618348 -1.337723609495381, 81.6918613528783 -1.333260287314341, 81.60703075957314 -1.3288065843621397, 81.52220016626796 -1.3243625006387767, 81.4373695729628 -1.319928036144252, 81.35253897965762 -1.315503190878566, 81.26770838635245 -1.3110879648417182, 81.18287779304728 -1.3066823580337088, 81.09804719974211 -1.3022863704545382, 81.01321660643696 -1.2979000021042064, 80.92838601313179 -1.2935232529827128, 80.84355541982661 -1.289156123090057, 80.75872482652144 -1.28479861242624, 80.67389423321627 -1.2804507209912617, 80.5890636399111 -1.2761124487851214, 80.50423304660593 -1.2717837958078198, 80.41940245330076 -1.2674647620593567, 80.33457185999559 -1.2631553475397317, 80.24974126669042 -1.2588555522489455, 80.16491067338525 -1.2545653761869977, 80.08008008008008 -1.2502848193538882, 79.99524948677491 -1.2460138817496171, 79.91041889346974 -1.2417525633741844, 79.82558830016457 -1.2375008642275904, 79.7407577068594 -1.2332587843098348, 79.65592711355424 -1.2290263236209185, 79.57109652024907 -1.2248034821608396, 79.4862659269439 -1.2205902599295992, 79.40143533363873 -1.2163866569271973, 79.31660474033356 -1.212192673153634, 79.23177414702839 -1.2080083086089093, 79.14694355372322 -1.2038335632930226, 79.06211296041805 -1.1996684372059747, 78.97728236711288 -1.195512930347765, 78.89245177380771 -1.191367042718394, 78.80762118050254 -1.1872307743178612, 78.72279058719737 -1.1831041251461667, 78.6379599938922 -1.178987095203311, 78.55312940058703 -1.1748796844892937, 78.46829880728185 -1.1707818930041147, 78.3834682139767 -1.166693720747775, 78.29863762067153 -1.1626151677202727, 78.21380702736636 -1.1585462339216093, 78.12897643406119 -1.1544869193517842, 78.04414584075602 -1.1504372240107974, 77.95931524745085 -1.1463971478986492, 77.87448465414568 -1.1423666910153394, 77.7896540608405 -1.1383458533608681, 77.70482346753533 -1.1343346349352355, 77.61999287423016 -1.130333035738441, 77.535162280925 -1.1263410557704847, 77.45033168761982 -1.1223586950313673, 77.36550109431465 -1.1183859535210883, 77.28067050100948 -1.1144228312396476, 77.19583990770431 -1.1104693281870455, 77.11100931439915 -1.1065254443632824, 77.02617872109398 -1.102591179768357, 76.94134812778881 -1.0986665344022701, 76.85651753448364 -1.0947515082650219, 76.77168694117847 -1.0908461013566118, 76.6868563478733 -1.0869503136770402, 76.60202575456813 -1.0830641452263072, 76.51719516126296 -1.0791875960044126, 76.43236456795779 -1.0753206660113563, 76.34753397465262 -1.0714633552471386, 76.26270338134745 -1.0676156637117595, 76.17787278804228 -1.0637775914052185, 76.09304219473711 -1.0599491383275164, 76.00821160143194 -1.0561303044786523, 75.92338100812677 -1.0523210898586268, 75.83855041482161 -1.0485214944674406, 75.75371982151644 -1.0447315183050918, 75.66888922821127 -1.0409511613715818, 75.5840586349061 -1.0371804236669102, 75.49922804160093 -1.033419305191077, 75.41439744829576 -1.029667805944082, 75.32956685499059 -1.025925925925926, 75.24473626168542 -1.022193665136608, 75.15990566838025 -1.0184710235761285, 75.07507507507508 -1.0147580012444875, 74.9902444817699 -1.011054598141685, 74.90541388846474 -1.0073608142677208, 74.82058329515957 -1.0036766496225953, 74.7357527018544 -1.000002104206308, 74.65092210854922 -0.9963371780188593, 74.56609151524405 -0.9926818710602491, 74.4812609219389 -0.9890361833304778, 74.39643032863373 -0.9854001148295445, 74.31159973532856 -0.9817736655574495, 74.22676914202339 -0.9781568355141929, 74.14193854871822 -0.9745496246997748, 74.05710795541304 -0.9709520331141953, 73.97227736210787 -0.9673640607574542, 73.8874467688027 -0.9637857076295514, 73.80261617549753 -0.960216973730487, 73.71778558219236 -0.9566578590602614, 73.63295498888719 -0.9531083636188739, 73.54812439558202 -0.9495684874063249, 73.46329380227685 -0.9460382304226146, 73.37846320897168 -0.9425175926677424, 73.29363261566651 -0.939006574141709, 73.20880202236135 -0.9355051748445143, 73.12397142905618 -0.9320133947761576, 73.03914083575101 -0.9285312339366395, 72.95431024244584 -0.9250586923259597, 72.86947964914067 -0.9215957699441183, 72.7846490558355 -0.9181424667911154, 72.69981846253033 -0.9146987828669509, 72.61498786922516 -0.911264718171625, 72.53015727591999 -0.9078402727051375, 72.44532668261482 -0.9044254464674885, 72.36049608930965 -0.9010202394586776, 72.27566549600448 -0.8976246516787055, 72.19083490269931 -0.8942386831275718, 72.10600430939414 -0.8908623338052765, 72.02117371608897 -0.8874956037118197, 71.93634312278381 -0.8841384928472017, 71.85151252947864 -0.8807910012114218, 71.76668193617347 -0.8774531288044803, 71.6818513428683 -0.8741248756263772, 71.59702074956313 -0.8708062416771126, 71.51219015625796 -0.8674972269566864, 71.42735956295279 -0.8641978314650988, 71.34252896964762 -0.8609080552023495, 71.25769837634245 -0.8576278981684385, 71.17286778303728 -0.8543573603633662, 71.0880371897321 -0.8510964417871324, 71.00320659642693 -0.8478451424397367, 70.91837600312176 -0.8446034623211799, 70.8335454098166 -0.8413714014314612, 70.74871481651142 -0.838148959770581, 70.66388422320625 -0.8349361373385394, 70.5790536299011 -0.8317329341353367, 70.49422303659593 -0.828539350160972, 70.40939244329076 -0.8253553854154455, 70.32456184998559 -0.8221810398987577, 70.23973125668041 -0.8190163136109082, 70.15490066337524 -0.8158612065518972, 70.07007007007007 -0.8127157187217247, 69.9852394767649 -0.8095798501203906, 69.90040888345973 -0.8064536007478948, 69.81557829015456 -0.8033369706042377, 69.73074769684939 -0.8002299596894189, 69.64591710354422 -0.7971325680034386, 69.56108651023905 -0.7940447955462967, 69.47625591693388 -0.7909666423179934, 69.39142532362871 -0.7878981083185285, 69.30659473032355 -0.7848391935479023, 69.22176413701838 -0.7817898980061143, 69.13693354371321 -0.7787502216931647, 69.05210295040804 -0.7757201646090536, 68.96727235710287 -0.7726997267537808, 68.8824417637977 -0.7696889081273466, 68.79761117049253 -0.7666877087297507, 68.71278057718736 -0.7636961285609933, 68.62794998388219 -0.7607141676210744, 68.54311939057702 -0.757741825909994, 68.45828879727185 -0.7547791034277519, 68.37345820396668 -0.7518260001743483, 68.28862761066151 -0.7488825161497832, 68.20379701735634 -0.7459486513540564, 68.11896642405117 -0.7430244057871682, 68.03413583074601 -0.7401097794491189, 67.94930523744084 -0.7372047723399077, 67.86447464413567 -0.7343093844595346, 67.7796440508305 -0.7314236158080002, 67.69481345752533 -0.7285474663853043, 67.60998286422016 -0.7256809361914467, 67.52515227091499 -0.7228240252264276, 67.44032167760982 -0.7199767334902468, 67.35549108430465 -0.7171390609829048, 67.27066049099948 -0.7143110077044009, 67.1858298976943 -0.7114925736547356, 67.10099930438913 -0.7086837588339089, 67.01616871108396 -0.7058845632419203, 66.9313381177788 -0.7030949868787705, 66.84650752447362 -0.7003150297444589, 66.76167693116847 -0.6975446918389864, 66.6768463378633 -0.6947839731623517, 66.59201574455813 -0.6920328737145556, 66.50718515125295 -0.6892913934955979, 66.42235455794778 -0.6865595325054786, 66.33752396464261 -0.6838372907441977, 66.25269337133744 -0.6811246682117553, 66.16786277803227 -0.6784216649081515, 66.0830321847271 -0.675728280833386, 65.99820159142193 -0.673044515987459, 65.91337099811676 -0.6703703703703703, 65.82854040481159 -0.6677058439821202, 65.74370981150642 -0.6650509368227084, 65.65887921820125 -0.6624056488921353, 65.57404862489608 -0.6597699801904005, 65.48921803159091 -0.6571439307175041, 65.40438743828575 -0.6545275004734467, 65.31955684498058 -0.6519206894582272, 65.23472625167541 -0.6493234976718463, 65.14989565837024 -0.6467359251143037, 65.06506506506507 -0.6441579717855995, 64.9802344717599 -0.6415896376857338, 64.89540387845473 -0.6390309228147066, 64.81057328514956 -0.6364818271725179, 64.72574269184439 -0.6339423507591675, 64.64091209853922 -0.6314124935746557, 64.55608150523405 -0.6288922556189823, 64.47125091192888 -0.6263816368921473, 64.3864203186237 -0.6238806373941508, 64.30158972531854 -0.6213892571249927, 64.21675913201337 -0.6189074960846731, 64.13192853870821 -0.6164353542731924, 64.04709794540304 -0.6139728316905496, 63.96226735209786 -0.6115199283367452, 63.87743675879269 -0.6090766442117793, 63.79260616548753 -0.606642979315652, 63.707775572182356 -0.6042189336483632, 63.622944978877186 -0.6018045072099127, 63.538114385572015 -0.5993997000003006, 63.453283792266845 -0.5970045120195271, 63.368453198961674 -0.5946189432675919, 63.283622605656504 -0.5922429937444953, 63.19879201235134 -0.5898766634502373, 63.11396141904617 -0.5875199523848174, 63.029130825741 -0.585172860548236, 62.94430023243583 -0.582835387940493, 62.85946963913066 -0.5805075345615887, 62.77463904582549 -0.5781893004115226, 62.68980845252032 -0.5758806854902951, 62.60497785921515 -0.573581689797906, 62.52014726590998 -0.5712923133343555, 62.43531667260481 -0.5690125560996433, 62.35048607929964 -0.5667424180937695, 62.26565548599447 -0.5644818993167342, 62.1808248926893 -0.5622309997685373, 62.09599429938413 -0.559989719449179, 62.01116370607896 -0.5577580583586589, 61.92633311277379 -0.5555360164969774, 61.84150251946863 -0.5533235938641345, 61.756671926163456 -0.5511207904601299, 61.671841332858286 -0.5489276062849637, 61.587010739553115 -0.546744041338636, 61.502180146247944 -0.5445700956211467, 61.417349552942774 -0.5424057691324958, 61.3325189596376 -0.5402510618726835, 61.24768836633244 -0.5381059738417097, 61.16285777302727 -0.5359705050395742, 61.0780271797221 -0.5338446554662771, 60.99319658641693 -0.5317284251218186, 60.90836599311176 -0.5296218140061983, 60.82353539980659 -0.5275248221194166, 60.73870480650142 -0.5254374494614734, 60.65387421319625 -0.5233596960323686, 60.56904361989108 -0.5212915618321025, 60.48421302658591 -0.5192330468606745, 60.39938243328074 -0.517184151118085, 60.31455183997557 -0.5151448746043341, 60.2297212466704 -0.5131152173194216, 60.14489065336523 -0.5110951792633474, 60.06006006006006 -0.5090847604361117, 59.97522946675489 -0.5070839608377145, 59.890398873449726 -0.505092780468156, 59.805568280144556 -0.5031112193274356, 59.720737686839385 -0.5011392774155538, 59.635907093534215 -0.4991769547325103, 59.551076500229044 -0.4972242512783054, 59.466245906923874 -0.4952811670529388, 59.3814153136187 -0.4933477020564108, 59.29658472031354 -0.4914238562887213, 59.21175412700837 -0.4895096297498701, 59.1269235337032 -0.4876050224398574, 59.04209294039803 -0.485710034358683, 58.95726234709286 -0.4838246655063472, 58.87243175378769 -0.4819489158828498, 58.78760116048252 -0.4800827854881908, 58.702770567177346 -0.4782262743223704, 58.61793997387218 -0.4763793823853885, 58.53310938056701 -0.4745421096772449, 58.44827878726184 -0.4727144561979397, 58.36344819395667 -0.470896421947473, 58.2786176006515 -0.4690880069258448, 58.19378700734633 -0.467289211133055, 58.10895641404116 -0.4655000345691036, 58.02412582073599 -0.4637204772339907, 57.939295227430826 -0.4619505391277164, 57.854464634125655 -0.4601902202502803, 57.769634040820485 -0.4584395206016828, 57.684803447515314 -0.4566984401819237, 57.599972854210144 -0.454966978991003, 57.51514226090497 -0.4532451370289208, 57.4303116675998 -0.451532914295677, 57.34548107429464 -0.4498303107912719, 57.26065048098947 -0.448137326515705, 57.1758198876843 -0.4464539614689765, 57.09098929437913 -0.4447802156510866, 57.00615870107396 -0.443116089062035, 56.92132810776879 -0.4414615817018219, 56.836497514463616 -0.4398166935704473, 56.751666921158446 -0.4381814246679111, 56.66683632785328 -0.4365557749942135, 56.58200573454811 -0.4349397445493542, 56.49717514124294 -0.4333333333333334, 56.41234454793777 -0.431736541346151, 56.3275139546326 -0.4301493685878071, 56.24268336132743 -0.4285718150583016, 56.15785276802226 -0.4270038807576345, 56.073022174717096 -0.425445565685806, 55.988191581411925 -0.4238968698428159, 55.903360988106755 -0.4223577932286642, 55.818530394801584 -0.4208283358433509, 55.733699801496414 -0.4193084976868761, 55.64886920819124 -0.4177982787592398, 55.56403861488607 -0.4162976790604418, 55.4792080215809 -0.4148066985904824, 55.39437742827574 -0.4133253373493615, 55.30954683497057 -0.4118535953370789, 55.2247162416654 -0.4103914725536348, 55.13988564836023 -0.4089389689990291, 55.05505505505506 -0.4074960846732619, 54.970224461749886 -0.4060628195763331, 54.885393868444716 -0.4046391737082428, 54.800563275139545 -0.4032251470689909, 54.71573268183438 -0.4018207396585776, 54.63090208852921 -0.4004259514770026, 54.54607149522404 -0.3990407825242661, 54.46124090191887 -0.397665232800368, 54.3764103086137 -0.3962993023053084, 54.29157971530853 -0.3949429910390871, 54.20674912200336 -0.3935962990017043, 54.121918528698195 -0.3922592261931602, 54.037087935393025 -0.3909317726134544, 53.952257342087854 -0.389613938262587, 53.867426748782684 -0.388305723140558, 53.78259615547751 -0.3870071272473675, 53.69776556217234 -0.3857181505830154, 53.61293496886717 -0.3844387931475018, 53.528104375562 -0.3831690549408266, 53.44327378225684 -0.3819089359629901, 53.35844318895167 -0.3806584362139918, 53.2736125956465 -0.379417555693832, 53.18878200234133 -0.3781862944025106, 53.103951409036156 -0.3769646523400277, 53.019120815730986 -0.3757526295063832, 52.934290222425815 -0.3745502259015772, 52.849459629120645 -0.3733574415256097, 52.76462903581548 -0.3721742763784806, 52.67979844251031 -0.3710007304601899, 52.59496784920514 -0.3698368037707377, 52.51013725589997 -0.368682496310124, 52.4253066625948 -0.3675378080783486, 52.34047606928963 -0.3664027390754117, 52.25564547598446 -0.3652772893013133, 52.170814882679295 -0.3641614587560534, 52.085984289374125 -0.3630552474396319, 52.001153696068954 -0.3619586553520487, 51.91632310276378 -0.3608716824933042, 51.83149250945861 -0.3597943288633979, 51.74666191615344 -0.3587265944623302, 51.66183132284827 -0.3576684792901009, 51.5770007295431 -0.35661998334671, 51.49217013623794 -0.3555811066321577, 51.40733954293277 -0.3545518491464438, 51.3225089496276 -0.3535322108895683, 51.23767835632243 -0.3525221918615312, 51.152847763017256 -0.3515217920623326, 51.068017169712085 -0.3505310114919725, 50.983186576406915 -0.3495498501504507, 50.898355983101744 -0.3485783080377675, 50.81352538979658 -0.3476163851539227, 50.72869479649141 -0.3466640814989164, 50.64386420318624 -0.3457213970727485, 50.55903360988107 -0.344788331875419, 50.4742030165759 -0.3438648859069279, 50.38937242327073 -0.3429510591672754, 50.30454182996556 -0.3420468516564613, 50.219711236660395 -0.3411522633744856, 50.134880643355224 -0.3402672943213484, 50.050050050050054 -0.3393919444970496, 49.96521945674488 -0.3385262139015893, 49.88038886343971 -0.3376701025349674, 49.79555827013454 -0.336823610397184, 49.71072767682937 -0.335986737488239, 49.6258970835242 -0.3351594838081324, 49.54106649021904 -0.3343418493568644, 49.45623589691387 -0.3335338341344348, 49.3714053036087 -0.3327354381408436, 49.286574710303526 -0.3319466613760908, 49.201744116998356 -0.3311675038401765, 49.116913523693185 -0.3303979655331007, 49.032082930388015 -0.3296380464548633, 48.947252337082844 -0.3288877466054643, 48.86242174377768 -0.3281470659849038, 48.77759115047251 -0.3274160045931818, 48.69276055716734 -0.3266945624302982, 48.60792996386217 -0.325982739496253, 48.523099370557 -0.3252805357910463, 48.43826877725183 -0.324587951314678, 48.35343818394666 -0.3239049860671482, 48.268607590641494 -0.3232316400484569, 48.183776997336324 -0.322567913258604, 48.09894640403115 -0.3219138056975895, 48.01411581072598 -0.3212693173654135, 47.92928521742081 -0.3206344482620759, 47.84445462411564 -0.3200091983875768, 47.75962403081047 -0.3193935677419161, 47.6747934375053 -0.3187875563250939, 47.58996284420014 -0.3181911641371101, 47.50513225089497 -0.3176043911779648, 47.420301657589796 -0.3170272374476579, 47.335471064284626 -0.3164597029461895, 47.250640470979455 -0.3159017876735595, 47.165809877674285 -0.315353491629768, 47.080979284369114 -0.3148148148148148, 46.99614869106395 -0.3142857572287002, 46.91131809775878 -0.313766318871424, 46.82648750445361 -0.3132564997429862, 46.74165691114844 -0.312756299843387, 46.65682631784327 -0.3122657191726261, 46.5719957245381 -0.3117847577307037, 46.48716513123293 -0.3113134155176198, 46.40233453792776 -0.3108516925333742, 46.317503944622594 -0.3103995887779671, 46.23267335131742 -0.3099571042513986, 46.14784275801225 -0.3095242389536684, 46.06301216470708 -0.3091009928847767, 45.97818157140191 -0.3086873660447234, 45.89335097809674 -0.3082833584335086, 45.80852038479157 -0.3078889700511322, 45.7236897914864 -0.3075042008975942, 45.63885919818124 -0.3071290509728948, 45.554028604876066 -0.3067635202770338, 45.469198011570896 -0.3064076088100112, 45.384367418265725 -0.3060613165718271, 45.299536824960555 -0.3057246435624814, 45.214706231655384 -0.3053975897819741, 45.129875638350214 -0.3050801552303054, 45.04504504504505 -0.304772339907475, 44.96021445173988 -0.3044741438134831, 44.87538385843471 -0.3041855669483297, 44.79055326512954 -0.3039066093120147, 44.70572267182437 -0.3036372709045381, 44.6208920785192 -0.3033775517259, 44.53606148521403 -0.3031274517761004, 44.45123089190886 -0.3028869710551392, 44.36640029860369 -0.3026561095630165, 44.28156970529852 -0.3024348672997322, 44.19673911199335 -0.3022232442652863, 44.11190851868818 -0.3020212404596789, 44.02707792538301 -0.3018288558829099, 43.94224733207784 -0.3016460905349794, 43.85741673877267 -0.3014729444158874, 43.7725861454675 -0.3013094175256337, 43.687755552162336 -0.3011555098642186, 43.602924958857166 -0.3010112214316418, 43.518094365551995 -0.3008765522279036, 43.433263772246825 -0.3007515022530037, 43.348433178941654 -0.3006360715069424, 43.263602585636484 -0.3005302599897194, 43.17877199233131 -0.300434067701335, 43.09394139902615 -0.300347494641789, 43.00911080572098 -0.3002705408110813, 42.92428021241581 -0.3002032062092122, 42.83944961911064 -0.3001454908361815, 42.75461902580547 -0.3000973946919893, 42.6697884325003 -0.3000589177766355, 42.58495783919513 -0.3000300600901201, 42.500127245889956 -0.3000108216324432, 42.41529665258479 -0.3000012024036048, 42.33046605927962 -0.3000012024036051, 42.24563546597445 -0.3000108216324432, 42.16080487266928 -0.3000300600901204, 42.07597427936411 -0.3000589177766355, 41.99114368605894 -0.3000973946919893, 41.90631309275377 -0.300145490836182, 41.8214824994486 -0.3002032062092123, 41.736651906143436 -0.3002705408110817, 41.651821312838265 -0.300347494641789, 41.566990719533095 -0.3004340677013352, 41.482160126227924 -0.3005302599897192, 41.397329532922754 -0.3006360715069424, 41.31249893961758 -0.3007515022530042, 41.22766834631241 -0.3008765522279035, 41.14283775300725 -0.301011221431642, 41.05800715970208 -0.3011555098642184, 40.97317656639691 -0.3013094175256338, 40.88834597309174 -0.3014729444158876, 40.80351537978657 -0.3016460905349795, 40.7186847864814 -0.3018288558829102, 40.63385419317623 -0.3020212404596789, 40.549023599871056 -0.3022232442652865, 40.46419300656589 -0.3024348672997321, 40.37936241326072 -0.3026561095630164, 40.29453181995555 -0.3028869710551396, 40.20970122665038 -0.3031274517761006, 40.12487063334521 -0.3033775517259003, 40.04004004004004 -0.3036372709045381, 39.95520944673487 -0.3039066093120151, 39.8703788534297 -0.3041855669483298, 39.785548260124536 -0.3044741438134833, 39.700717666819365 -0.3047723399074753, 39.615887073514195 -0.3050801552303055, 39.531056480209024 -0.3053975897819743, 39.446225886903854 -0.3057246435624814, 39.36139529359868 -0.3060613165718273, 39.27656470029351 -0.3064076088100112, 39.19173410698835 -0.3067635202770338, 39.10690351368318 -0.307129050972895, 39.02207292037801 -0.3075042008975943, 38.93724232707284 -0.3078889700511325, 38.85241173376767 -0.3082833584335087, 38.7675811404625 -0.3086873660447236, 38.682750547157326 -0.3091009928847766, 38.597919953852156 -0.3095242389536684, 38.51308936054699 -0.3099571042513989, 38.42825876724182 -0.3103995887779671, 38.34342817393665 -0.3108516925333744, 38.25859758063148 -0.3113134155176197, 38.17376698732631 -0.3117847577307038, 38.08893639402114 -0.3122657191726259, 38.00410580071597 -0.312756299843387, 37.919275207410806 -0.3132564997429865, 37.834444614105635 -0.313766318871424, 37.749614020800465 -0.3142857572287003, 37.664783427495294 -0.3148148148148148, 37.579952834190124 -0.315353491629768, 37.49512224088495 -0.3159017876735598, 37.41029164757978 -0.3164597029461895, 37.32546105427461 -0.3170272374476582, 37.24063046096945 -0.3176043911779647, 37.15579986766428 -0.3181911641371101, 37.07096927435911 -0.3187875563250938, 36.98613868105394 -0.3193935677419162, 36.90130808774877 -0.3200091983875771, 36.816477494443596 -0.320634448262076, 36.731646901138426 -0.3212693173654138, 36.646816307833255 -0.3219138056975895, 36.56198571452809 -0.3225679132586041, 36.47715512122292 -0.3232316400484567, 36.39232452791775 -0.3239049860671483, 36.30749393461258 -0.3245879513146784, 36.22266334130741 -0.3252805357910463, 36.13783274800224 -0.3259827394962533, 36.05300215469707 -0.3266945624302982, 35.968171561391905 -0.3274160045931819, 35.883340968086735 -0.3281470659849041, 35.798510374781564 -0.3288877466054644, 35.713679781476394 -0.3296380464548636, 35.62884918817122 -0.3303979655331007, 35.54401859486605 -0.3311675038401767, 35.45918800156088 -0.3319466613760908, 35.37435740825571 -0.3327354381408437, 35.28952681495055 -0.3335338341344348, 35.20469622164538 -0.3343418493568644, 35.11986562834021 -0.3351594838081325, 35.03503503503504 -0.335986737488239, 34.950204441729866 -0.3368236103971842, 34.865373848424696 -0.3376701025349676, 34.780543255119525 -0.3385262139015894, 34.695712661814355 -0.3393919444970497, 34.61088206850919 -0.3402672943213484, 34.52605147520402 -0.3411522633744856, 34.44122088189885 -0.3420468516564615, 34.35639028859368 -0.3429510591672756, 34.27155969528851 -0.3438648859069282, 34.18672910198334 -0.344788331875419, 34.10189850867817 -0.3457213970727485, 34.017067915373005 -0.3466640814989163, 33.932237322067834 -0.347616385153923, 33.847406728762664 -0.3485783080377677, 33.76257613545749 -0.3495498501504509, 33.67774554215232 -0.3505310114919726, 33.59291494884715 -0.3515217920623326, 33.50808435554198 -0.3525221918615313, 33.42325376223681 -0.3535322108895683, 33.33842316893165 -0.3545518491464438, 33.25359257562648 -0.3555811066321578, 33.16876198232131 -0.3566199833467101, 33.083931389016136 -0.357668479290101, 32.999100795710966 -0.3587265944623303, 32.914270202405795 -0.359794328863398, 32.829439609100625 -0.3608716824933042, 32.744609015795454 -0.3619586553520487, 32.65977842249029 -0.363055247439632, 32.57494782918512 -0.3641614587560534, 32.49011723587995 -0.3652772893013134, 32.40528664257478 -0.3664027390754118, 32.32045604926961 -0.3675378080783486, 32.23562545596444 -0.3686824963101241, 32.15079486265927 -0.3698368037707379, 32.065964269354104 -0.3710007304601901, 31.98113367604893 -0.3721742763784807, 31.896303082743763 -0.3733574415256097, 31.811472489438593 -0.3745502259015773, 31.726641896133422 -0.3757526295063832, 31.641811302828252 -0.3769646523400276, 31.556980709523085 -0.3781862944025107, 31.472150116217914 -0.3794175556938321, 31.387319522912744 -0.3806584362139919, 31.302488929607573 -0.3819089359629901, 31.217658336302406 -0.3831690549408268, 31.132827742997236 -0.3844387931475018, 31.047997149692065 -0.3857181505830156, 30.963166556386895 -0.3870071272473676, 30.878335963081728 -0.388305723140558, 30.793505369776558 -0.389613938262587, 30.708674776471387 -0.3909317726134544, 30.62384418316622 -0.3922592261931601, 30.53901358986105 -0.3935962990017046, 30.45418299655588 -0.3949429910390872, 30.36935240325071 -0.3962993023053084, 30.28452180994554 -0.3976652328003679, 30.19969121664037 -0.399040782524266, 30.1148606233352 -0.4004259514770026, 30.03003003003003 -0.4018207396585774, 29.945199436724863 -0.403225147068991, 29.860368843419693 -0.4046391737082429, 29.775538250114522 -0.4060628195763332, 29.69070765680935 -0.4074960846732619, 29.605877063504185 -0.408938968999029, 29.521046470199014 -0.4103914725536347, 29.436215876893844 -0.4118535953370788, 29.351385283588673 -0.4133253373493616, 29.266554690283506 -0.4148066985904825, 29.181724096978336 -0.4162976790604419, 29.096893503673165 -0.4177982787592398, 29.012062910367995 -0.4193084976868762, 28.927232317062828 -0.4208283358433508, 28.842401723757657 -0.4223577932286643, 28.757571130452487 -0.4238968698428159, 28.67274053714732 -0.4254455656858059, 28.58790994384215 -0.4270038807576345, 28.50307935053698 -0.4285718150583016, 28.418248757231808 -0.4301493685878071, 28.33341816392664 -0.4317365413461509, 28.24858757062147 -0.4333333333333335, 28.1637569773163 -0.4349397445493542, 28.07892638401113 -0.4365557749942136, 27.994095790705963 -0.4381814246679111, 27.909265197400792 -0.4398166935704473, 27.82443460409562 -0.441461581701822, 27.73960401079045 -0.4431160890620351, 27.654773417485284 -0.4447802156510867, 27.569942824180114 -0.4464539614689766, 27.485112230874943 -0.448137326515705, 27.400281637569773 -0.4498303107912718, 27.315451044264606 -0.451532914295677, 27.230620450959435 -0.4532451370289208, 27.145789857654265 -0.4549669789910032, 27.060959264349098 -0.4566984401819237, 26.976128671043927 -0.4584395206016829, 26.891298077738757 -0.4601902202502804, 26.806467484433586 -0.4619505391277164, 26.72163689112842 -0.4637204772339907, 26.63680629782325 -0.4655000345691036, 26.551975704518078 -0.4672892111330552, 26.467145111212908 -0.4690880069258449, 26.38231451790774 -0.470896421947473, 26.29748392460257 -0.4727144561979397, 26.2126533312974 -0.4745421096772448, 26.12782273799223 -0.4763793823853884, 26.042992144687062 -0.4782262743223706, 25.95816155138189 -0.4800827854881911, 25.87333095807672 -0.4819489158828499, 25.78850036477155 -0.4838246655063473, 25.703669771466384 -0.485710034358683, 25.618839178161213 -0.4876050224398573, 25.534008584856043 -0.48950962974987, 25.449177991550872 -0.4914238562887214, 25.364347398245705 -0.4933477020564109, 25.279516804940535 -0.4952811670529389, 25.194686211635364 -0.4972242512783054, 25.109855618330197 -0.4991769547325103, 25.025025025025027 -0.5011392774155535, 24.940194431719856 -0.5031112193274355, 24.855363838414686 -0.5050927804681559, 24.77053324510952 -0.5070839608377146, 24.68570265180435 -0.5090847604361117, 24.600872058499178 -0.5110951792633475, 24.516041465194007 -0.5131152173194214, 24.43121087188884 -0.515144874604334, 24.34638027858367 -0.5171841511180851, 24.2615496852785 -0.5192330468606747, 24.17671909197333 -0.5212915618321026, 24.091888498668162 -0.5233596960323688, 24.00705790536299 -0.5254374494614735, 23.92222731205782 -0.5275248221194168, 23.83739671875265 -0.5296218140061983, 23.752566125447483 -0.5317284251218186, 23.667735532142313 -0.5338446554662772, 23.582904938837142 -0.5359705050395742, 23.498074345531975 -0.5381059738417096, 23.413243752226805 -0.5402510618726835, 23.328413158921634 -0.5424057691324959, 23.243582565616464 -0.5445700956211467, 23.158751972311297 -0.5467440413386361, 23.073921379006126 -0.5489276062849637, 22.989090785700956 -0.5511207904601299, 22.904260192395785 -0.5533235938641345, 22.81942959909062 -0.5555360164969775, 22.734599005785448 -0.5577580583586589, 22.649768412480277 -0.5599897194491791, 22.564937819175107 -0.5622309997685375, 22.48010722586994 -0.5644818993167342, 22.39527663256477 -0.5667424180937695, 22.3104460392596 -0.5690125560996433, 22.22561544595443 -0.5712923133343555, 22.14078485264926 -0.5735816897979062, 22.05595425934409 -0.5758806854902951, 21.97112366603892 -0.5781893004115228, 21.88629307273375 -0.5805075345615888, 21.801462479428583 -0.582835387940493, 21.716631886123412 -0.5851728605482359, 21.631801292818242 -0.5875199523848172, 21.546970699513075 -0.589876663450237, 21.462140106207904 -0.5922429937444953, 21.377309512902734 -0.594618943267592, 21.292478919597563 -0.5970045120195271, 21.207648326292396 -0.5993997000003006, 21.122817732987226 -0.6018045072099125, 21.037987139682055 -0.604218933648363, 20.953156546376885 -0.6066429793156523, 20.868325953071718 -0.6090766442117794, 20.783495359766547 -0.6115199283367452, 20.698664766461377 -0.6139728316905495, 20.613834173156206 -0.6164353542731922, 20.52900357985104 -0.6189074960846732, 20.44417298654587 -0.621389257124993, 20.3593423932407 -0.623880637394151, 20.274511799935528 -0.6263816368921475, 20.18968120663036 -0.6288922556189823, 20.10485061332519 -0.6314124935746558, 20.02002002002002 -0.6339423507591675, 19.93518942671485 -0.6364818271725179, 19.850358833409683 -0.6390309228147066, 19.765528240104512 -0.6415896376857338, 19.68069764679934 -0.6441579717855995, 19.595867053494175 -0.6467359251143034, 19.511036460189004 -0.649323497671846, 19.426205866883834 -0.651920689458227, 19.341375273578663 -0.6545275004734463, 19.256544680273496 -0.6571439307175044, 19.171714086968326 -0.6597699801904007, 19.086883493663155 -0.6624056488921355, 19.002052900357985 -0.6650509368227087, 18.917222307052818 -0.6677058439821202, 18.832391713747647 -0.6703703703703703, 18.747561120442477 -0.6730445159874591, 18.662730527137306 -0.6757282808333861, 18.57789993383214 -0.6784216649081514, 18.49306934052697 -0.6811246682117553, 18.408238747221798 -0.6838372907441976, 18.323408153916628 -0.6865595325054785, 18.23857756061146 -0.6892913934955975, 18.15374696730629 -0.6920328737145556, 18.06891637400112 -0.6947839731623516, 17.984085780695953 -0.6975446918389862, 17.899255187390782 -0.7003150297444591, 17.81442459408561 -0.7030949868787706, 17.72959400078044 -0.7058845632419206, 17.644763407475274 -0.708683758833909, 17.559932814170104 -0.7114925736547357, 17.475102220864933 -0.7143110077044011, 17.390271627559763 -0.7171390609829049, 17.305441034254596 -0.7199767334902469, 17.220610440949425 -0.7228240252264277, 17.135779847644255 -0.7256809361914468, 17.050949254339084 -0.7285474663853042, 16.966118661033917 -0.7314236158080003, 16.881288067728747 -0.7343093844595346, 16.796457474423576 -0.7372047723399076, 16.711626881118406 -0.7401097794491188, 16.62679628781324 -0.7430244057871686, 16.541965694508068 -0.7459486513540567, 16.457135101202898 -0.7488825161497834, 16.372304507897727 -0.7518260001743485, 16.28747391459256 -0.754779103427752, 16.20264332128739 -0.7577418259099941, 16.11781272798222 -0.7607141676210746, 16.032982134677052 -0.7636961285609934, 15.948151541371882 -0.7666877087297508, 15.863320948066711 -0.7696889081273466, 15.778490354761542 -0.7726997267537808, 15.693659761456372 -0.7757201646090535, 15.608829168151203 -0.7787502216931645, 15.523998574846033 -0.7817898980061143, 15.439167981540864 -0.7848391935479022, 15.354337388235693 -0.7878981083185288, 15.269506794930525 -0.7909666423179937, 15.184676201625354 -0.794044795546297, 15.099845608320186 -0.7971325680034389, 15.015015015015015 -0.8002299596894191, 14.930184421709846 -0.8033369706042379, 14.845353828404676 -0.8064536007478951, 14.760523235099507 -0.8095798501203906, 14.675692641794337 -0.8127157187217249, 14.590862048489168 -0.8158612065518973, 14.506031455183997 -0.8190163136109082, 14.421200861878829 -0.8221810398987577, 14.33637026857366 -0.8253553854154454, 14.25153967526849 -0.8285393501609718, 14.16670908196332 -0.8317329341353364, 14.08187848865815 -0.8349361373385398, 13.997047895352981 -0.8381489597705813, 13.91221730204781 -0.8413714014314615, 13.827386708742642 -0.84460346232118, 13.742556115437472 -0.8478451424397371, 13.657725522132303 -0.8510964417871324, 13.572894928827132 -0.8543573603633664, 13.488064335521964 -0.8576278981684387, 13.403233742216793 -0.8609080552023495, 13.318403148911624 -0.8641978314650987, 13.233572555606454 -0.8674972269566865, 13.148741962301285 -0.8708062416771125, 13.063911368996115 -0.8741248756263771, 12.979080775690946 -0.8774531288044802, 12.894250182385775 -0.8807910012114216, 12.809419589080607 -0.8841384928472015, 12.724588995775436 -0.88749560371182, 12.639758402470267 -0.8908623338052768, 12.554927809165099 -0.8942386831275719, 12.470097215859928 -0.8976246516787056, 12.38526662255476 -0.9010202394586779, 12.300436029249589 -0.9044254464674885, 12.21560543594442 -0.9078402727051375, 12.13077484263925 -0.9112647181716251, 12.045944249334081 -0.914698782866951, 11.96111365602891 -0.9181424667911154, 11.876283062723742 -0.9215957699441183, 11.791452469418571 -0.9250586923259596, 11.706621876113402 -0.9285312339366393, 11.621791282808232 -0.9320133947761575, 11.536960689503063 -0.9355051748445142, 11.452130096197893 -0.9390065741417093, 11.367299502892724 -0.9425175926677427, 11.282468909587553 -0.9460382304226148, 11.197638316282385 -0.9495684874063253, 11.112807722977214 -0.9531083636188741, 11.027977129672045 -0.9566578590602615, 10.943146536366875 -0.9602169737304873, 10.858315943061706 -0.9637857076295514, 10.773485349756537 -0.9673640607574542, 10.688654756451367 -0.9709520331141953, 10.603824163146198 -0.9745496246997748, 10.518993569841028 -0.9781568355141929, 10.434162976535859 -0.9817736655574494, 10.349332383230688 -0.9854001148295443, 10.26450178992552 -0.9890361833304775, 10.17967119662035 -0.9926818710602495, 10.09484060331518 -0.9963371780188597, 10.01001001001001 -1.0000021042063083, 9.925179416704841 -1.0036766496225955, 9.84034882339967 -1.0073608142677213, 9.755518230094502 -1.0110545981416852, 9.670687636789332 -1.0147580012444877, 9.585857043484163 -1.0184710235761287, 9.501026450178992 -1.0221936651366081, 9.416195856873824 -1.025925925925926, 9.331365263568653 -1.0296678059440822, 9.246534670263484 -1.033419305191077, 9.161704076958314 -1.0371804236669102, 9.076873483653145 -1.0409511613715818, 8.992042890347976 -1.0447315183050918, 8.907212297042806 -1.0485214944674404, 8.822381703737637 -1.0523210898586273, 8.737551110432467 -1.0561303044786527, 8.652720517127298 -1.0599491383275166, 8.567889923822127 -1.063777591405219, 8.483059330516959 -1.0676156637117598, 8.398228737211788 -1.071463355247139, 8.31339814390662 -1.0753206660113568, 8.228567550601449 -1.0791875960044128, 8.14373695729628 -1.0830641452263072, 8.05890636399111 -1.0869503136770404, 7.974075770685941 -1.0908461013566118, 7.889245177380771 -1.0947515082650217, 7.804414584075602 -1.0986665344022701, 7.719583990770432 -1.102591179768357, 7.634753397465262 -1.1065254443632822, 7.549922804160093 -1.110469328187046, 7.465092210854923 -1.114422831239648, 7.3802616175497535 -1.1183859535210885, 7.295431024244584 -1.1223586950313678, 7.210600430939414 -1.1263410557704852, 7.125769837634245 -1.1303330357384411, 7.040939244329075 -1.1343346349352355, 6.956108651023905 -1.1383458533608684, 6.871278057718736 -1.1423666910153396, 6.786447464413566 -1.1463971478986494, 6.7016168711083965 -1.1504372240107976, 6.616786277803227 -1.1544869193517844, 6.531955684498057 -1.1585462339216095, 6.447125091192888 -1.1626151677202727, 6.362294497887718 -1.166693720747775, 6.277463904582549 -1.1707818930041152, 6.19263331127738 -1.1748796844892941, 6.10780271797221 -1.1789870952033115, 6.0229721246670405 -1.1831041251461671, 5.938141531361871 -1.1872307743178614, 5.853310938056701 -1.191367042718394, 5.768480344751532 -1.1955129303477652, 5.683649751446362 -1.1996684372059747, 5.598819158141192 -1.2038335632930226, 5.513988564836023 -1.208008308608909, 5.429157971530853 -1.212192673153634, 5.3443273782256835 -1.2163866569271975, 5.259496784920514 -1.2205902599295992, 5.174666191615344 -1.2248034821608396, 5.089835598310175 -1.2290263236209182, 5.005005005005005 -1.2332587843098355, 4.920174411699835 -1.2375008642275909, 4.835343818394666 -1.2417525633741848, 4.750513225089496 -1.2460138817496174, 4.6656826317843265 -1.2502848193538885, 4.580852038479157 -1.2545653761869977, 4.496021445173988 -1.2588555522489457, 4.4111908518688185 -1.263155347539732, 4.326360258563649 -1.2674647620593564, 4.241529665258479 -1.27178379580782, 4.15669907195331 -1.2761124487851214, 4.07186847864814 -1.2804507209912614, 3.9870378853429704 -1.28479861242624, 3.902207292037801 -1.289156123090057, 3.817376698732631 -1.2935232529827125, 3.7325461054274616 -1.2979000021042064, 3.647715512122292 -1.3022863704545387, 3.5628849188171223 -1.3066823580337095, 3.4780543255119527 -1.3110879648417186, 3.393223732206783 -1.3155031908785662, 3.3083931389016135 -1.3199280361442522, 3.223562545596444 -1.324362500638777, 3.1387319522912747 -1.32880658436214, 3.053901358986105 -1.3332602873143413, 2.9690707656809354 -1.3377236094953813, 2.884240172375766 -1.3421965509052596, 2.799409579070596 -1.3466791115439765, 2.7145789857654266 -1.3511712914115317, 2.629748392460257 -1.3556730905079253, 2.5449177991550873 -1.3601845088331574, 2.4600872058499177 -1.364705546387228, 2.375256612544748 -1.369236203170137, 2.2904260192395784 -1.3737764791818845, 2.2055954259344093 -1.3783263744224705, 2.1207648326292396 -1.382885888891895, 2.03593423932407 -1.3874550225901578, 1.9511036460189004 -1.3920337755172592, 1.8662730527137308 -1.3966221476731986, 1.7814424594085612 -1.4012201390579768, 1.6966118661033915 -1.4058277496715934, 1.611781272798222 -1.4104449795140486, 1.5269506794930525 -1.415071828585342, 1.442120086187883 -1.4197082968854742, 1.3572894928827133 -1.4243543844144446, 1.2724588995775437 -1.4290100911722534, 1.187628306272374 -1.4336754171589008, 1.1027977129672046 -1.4383503623743863, 1.017967119662035 -1.4430349268187106, 0.9331365263568654 -1.4477291104918733, 0.8483059330516958 -1.4524329133938743, 0.7634753397465263 -1.4571463355247138, 0.6786447464413566 -1.461869376884392, 0.593814153136187 -1.4666020374729083, 0.5089835598310175 -1.4713443172902634, 0.4241529665258479 -1.4760962163364566, 0.3393223732206783 -1.4808577346114882, 0.2544917799155088 -1.4856288721153585, 0.1696611866103392 -1.4904096288480673, 0.0848305933051696 -1.4952000048096143, 0 -1.5, 0 1.5))