POLYGON ((-0.3412996884499999 -0.8185139058999996, -0.3945245124947612 -0.8552701424916672, -0.4497016150624561 -0.8890249721559418, -0.5071422382954205 -0.9187649461548725, -0.5667073133037326 -0.9439824397456735, -0.6279835231955133 -0.9646967138595839, -0.6906177375323427 -0.9808476763420735, -0.7520098416411499 -1.0012182748582552, -0.8126303349518736 -1.023779995440864, -0.873312240654491 -1.0461764893662469, -0.9347525097081871 -1.0664005057108001, -0.996636629966876 -1.0852220154321954, -1.058944490279692 -1.1025897613854256, -1.1215163536662416 -1.1189806907070952, -1.184315816650188 -1.1344768440457964, -1.2473287754835274 -1.149080636016145, -1.3105786701667437 -1.1626213644826262, -1.3741364038281076 -1.1746346789468618, -1.4379489842318607 -1.1852108822052196, -1.5019900955253802 -1.1943014907435112, -1.5662194760178112 -1.2019493687778144, -1.630591221976617 -1.208288124311645, -1.6950615764576173 -1.2135300402644074, -1.759557520222895 -1.21844688842712, -1.8240583469434606 -1.2232993455715677, -1.8885493797986097 -1.2282802636544141, -1.9530203943139106 -1.233513901659937, -2.01746029985809 -1.2391176110125388, -2.081876944712659 -1.2449826460444342, -2.146282012904281 -1.2509734776835875, -2.210690578225769 -1.256926583869318, -2.2751222039233667 -1.2626247356930365, -2.339614603676061 -1.267587804402172, -2.4041978024252013 -1.271181481003577, -2.4688506825299035 -1.2731581030693317, -2.5335337315996407 -1.273237185378258, -2.5981844114201778 -1.27118933035722, -2.662706292426968 -1.2666259968460305, -2.726979341695609 -1.2593537837389897, -2.791026377364575 -1.2503052377016888, -2.8548591047848073 -1.2398511989178942, -2.9185045853560685 -1.2283118814851675, -2.981989417342105 -1.2159192262045957, -3.045290429018082 -1.202619384230426, -3.108453421913365 -1.1886788441784542, -3.1714723597988668 -1.1741009060378684, -3.2343341459439623 -1.1588595398365669, -3.297016621907005 -1.1428968019687913, -3.359423588027985 -1.1258887375481035, -3.4215447802903363 -1.1078648645473639, -3.4833843462939322 -1.0888972359627715, -3.5449579619537177 -1.069083281107706, -3.6063055558170594 -1.0485802236142707, -3.6674842184347036 -1.027578455108644, -3.728624260236412 -1.0064645250997255, -3.7898422005443204 -0.9855775284831844, -3.851237301845083 -0.9652171664523356, -3.9128966894086865 -0.9456717535689513, -3.9749197269562733 -0.9273129923204788, -4.037353770476737 -0.910404562256838, -4.100091262322057 -0.8946594391325958, -4.163108716697958 -0.8800750884941435, -4.226383793438875 -0.8666523980251932, -4.289899425313774 -0.8544186396750185, -4.353668278941024 -0.8435817254755932, -4.417581044737095 -0.8336288430585952, -4.481598565003035 -0.8243735490852566, -4.545685131355776 -0.8156091548475691, -4.609807416571744 -0.8071100030758274, -4.673911560226541 -0.7984751128592305, -4.737935760107443 -0.7892661580696549, -4.8018510154392215 -0.7793292136432887, -4.865644069255245 -0.7686357951396935, -4.929320181309795 -0.7572667355843234, -4.9929051731269745 -0.7453986363208205, -5.056442876760425 -0.7332799331731443, -5.119930244233499 -0.7209002311745212, -5.183345137083183 -0.7081544791718721, -5.246659784455661 -0.694919738554047, -5.309830099529748 -0.6810124121585808, -5.372821514629045 -0.666315985419034, -5.435674812496837 -0.6510396802776159, -5.498411518105552 -0.6352913875210054, -5.561062941970797 -0.619207175647927, -5.623669999422916 -0.6029511243800373, -5.686291318276715 -0.5867500980847313, -5.748934887662077 -0.5706353205802354, -5.811579331197372 -0.5545239418283661, -5.874203489334392 -0.5383338940674611, -5.936789498854688 -0.5219969960452446, -5.999349261650521 -0.5055598762594331, -6.06196369168977 -0.4893322420795073, -6.124708875698901 -0.4736177785695581, -6.187657242942456 -0.4587380347500947, -6.250870435499815 -0.4450269491599976, -6.314450920870933 -0.4331347313026306, -6.378367600244875 -0.4232068977417292, -6.442515596419381 -0.4149040866428524, -6.506829684720261 -0.4080047228728911, -6.571255712588041 -0.4022436706396839, -6.63575796971678 -0.3974102918020003, -6.700316788015874 -0.3934025565724855, -6.7649176298842235 -0.3901415567882498, -6.829555648890959 -0.3877272819250976, -6.89422274950525 -0.3862882512391471, -6.95890527720734 -0.3860237987289224, -7.023566500513291 -0.3877067660682937, -7.088151963030361 -0.3912591152245429, -7.152601019270703 -0.396756556380948, -7.216858428907203 -0.4041653197750723, -7.280885087402549 -0.4133569850230217, -7.344607843728465 -0.4244617681251122, -7.4080784684641685 -0.4369269636384858, -7.471315651353328 -0.4505270374411408, -7.534341381518536 -0.4650755807462199, -7.59718927659461 -0.4803741056056111, -7.6598798962627415 -0.4963048661188811, -7.722423922778885 -0.5128017603804838, -7.784791288746395 -0.5299544422787691, -7.8469324512935685 -0.5479093496594017, -7.908793887838292 -0.5668055381689369, -7.970282612200406 -0.5868813565536236, -8.031266346779457 -0.6084426234430659, -8.09173295852481 -0.6314141486813153, -8.151618430752128 -0.6558606806812021, -8.210880024894857 -0.6817830145769992, -8.269486745899291 -0.7091536687060171, -8.327362607130983 -0.738037748953086, -8.384752685269007 -0.7678753149001997, -8.44172477148611 -0.7985034847496293, -8.498362930410266 -0.829744828803467, -8.554766059200107 -0.8614085303423541, -8.61108214348689 -0.893226786277883, -8.667491884926934 -0.9248787048153254, -8.72405664895706 -0.9562527430582365, -8.780793461549184 -0.987314567634158, -8.83768406069087 -1.018093822863946, -8.894671139679124 -1.0486940790195132, -8.951649373090598 -1.0793108024737363, -9.008540513189779 -1.110089057558605, -9.065260666952975 -1.1411812919646425, -9.1217202878341 -1.1727441509453127, -9.177778494376602 -1.2050145698735362, -9.233363557633467 -1.238093325943015, -9.28861735599182 -1.271722484874656, -9.343617306608346 -1.3057652278475964, -9.39843595734069 -1.3400991523886852, -9.453124739043432 -1.37463956249705, -9.507660777421798 -1.4094206407136451, -9.562059042379147 -1.4444168059861588, -9.616309916604035 -1.479641022891843, -9.670402816838656 -1.5151073598665838, -9.724324808185973 -1.550833002503755, -9.777990053757433 -1.5869431725188816, -9.831398487442573 -1.6234321021985778, -9.884529254056385 -1.660324167219073, -9.937365223841967 -1.697637210589635, -9.989899063567291 -1.735374438883906, -10.042081889670625 -1.7735955795051417, -10.093926450084203 -1.8122743124707377, -10.145414926466419 -1.8514258076963563, -10.196479005866218 -1.8911292422799992, -10.247041412056976 -1.9314696179269646, -10.29694618420329 -1.9726207566541567, -10.346108069485014 -2.0146566031773006, -10.394669818549145 -2.0573843351760877, -10.442645089093197 -2.1007695426630977, -10.490034454087773 -2.1447939829049356, -10.536788220664144 -2.1894928338702027, -10.58267833392356 -2.235077932489169, -10.627784092454128 -2.281439263978753, -10.672007253773211 -2.3286432299257886, -10.715236005677692 -2.3767595415734317, -10.757341711851929 -2.425861571551738, -10.797783721089125 -2.4763427519123455, -10.836745783855525 -2.5279747107678743, -10.874263519224089 -2.580665530969987, -10.910382612689187 -2.6343247743181473, -10.94519514027418 -2.688840733298318, -10.978653993305146 -2.7441978367294557, -11.011048796798475 -2.8001842568391986, -11.042502201748263 -2.8567049263993707, -11.072944219745944 -2.9137766927844075, -11.102251685450955 -2.97143929295924, -11.130059095454104 -3.029840061098238, -11.156018008148635 -3.089085644140538, -11.180260963516293 -3.1490538110113637, -11.202711575613854 -3.2097157661805995, -11.223340233630413 -3.271021249726634, -11.242090740075191 -3.332926975699438, -11.258762919443434 -3.3954245278851696, -11.273857365703734 -3.4583217377192867, -11.287332082553121 -3.5215857465477955, -11.29914230444214 -3.585181524830464, -11.309247486732719 -3.64907037160728, -11.317332750361246 -3.7132461825736325, -11.324189671752805 -3.7775647950074736, -11.33022704180155 -3.8419655209571744, -11.335778797950077 -3.9064099208886707, -11.341133082686733 -3.9708710292794467, -11.34648242862769 -4.035332547426669, -11.35178580969836 -4.099797863727511, -11.356848120278322 -4.1642825579417355, -11.361428935761888 -4.2288032454022835, -11.365267758391205 -4.293372325667401, -11.367954449090307 -4.357999597037548, -11.369396396914134 -4.422666623041182, -11.370025747537584 -4.487346653947662, -11.370086718914695 -4.552029721664053, -11.369817673028157 -4.616712257199595, -11.369435065585169 -4.681394221016234, -11.369144145981636 -4.7460766622488855, -11.36898820899804 -4.810759569677926, -11.3689582735038 -4.87544265818038, -11.369023818441796 -4.940125720378926, -11.369135573327933 -5.004808719252384, -11.369212609554218 -5.0694917687876435, -11.369231956722349 -5.134174861316421, -11.369214984618832 -5.198857954500726, -11.369187394231608 -5.263541044030861, -11.369175239156348 -5.328224138299693, -11.369183974711923 -5.392907233126043, -11.369188399952606 -5.457590328388329, -11.369188551777665 -5.522273423801792, -11.369187183924595 -5.5869565192010695, -11.369187185643204 -5.6516396146148296, -11.36918762995072 -5.716322710027021, -11.369187561753163 -5.781005805440725, -11.369187485809483 -5.845688900854416, -11.369187475492138 -5.9103719962681485, -11.3691875112905 -5.97505509168187, -11.36918751319494 -6.039738187095603, -11.369187481097066 -6.104421282509331, -11.369187486403098 -6.169104377923067, -11.36918754976129 -6.233787473336768, -11.369187566831416 -6.298470568750502, -11.369187306821141 -6.363153664163719, -11.36918716883282 -6.427836759577291, -11.369188341997292 -6.492519854980371, -11.369188112823966 -6.557202950393821, -11.369184579481246 -6.621886045710679, -11.369177773550346 -6.686569140767261, -11.36918147677525 -6.7512522360728005, -11.369205635038433 -6.815935326978129, -11.36923300134593 -6.880618416598865, -11.369236028121781 -6.945301511953304, -11.369185046031573 -7.009984587247558, -11.369049996721042 -7.074667541707456, -11.368896424485543 -7.13935045480661, -11.368827644985316 -7.204033513638422, -11.368919013138218 -7.268716544570958, -11.369223341572143 -7.333398923940592, -11.36977030337281 -7.398079706929408, -11.370384117914515 -7.462759889619046, -11.37066315451306 -7.527442383979549, -11.37022279665483 -7.592123978011556, -11.368675041006675 -7.656788559802829, -11.365641597012669 -7.72140047305154, -11.360286142406403 -7.7858614972993365, -11.353185337960342 -7.85015364749377, -11.344628235998599 -7.91426822553626, -11.33493065496047 -7.9782202364051935, -11.324432800315021 -8.042045763231194, -11.313378945647505 -8.105777349997885, -11.301949557975458 -8.169442661717184, -11.29008103000234 -8.233027572357619, -11.27764330195358 -8.296503597840879, -11.264498291115203 -8.359836933685182, -11.250415105160005 -8.422968278901406, -11.235496260581822 -8.485907384058185, -11.220084532527494 -8.548727615160663, -11.204353623651631 -8.611468681061627, -11.188443025911596 -8.674164420222823, -11.172433160145395 -8.736834884017219, -11.156234029189372 -8.799456693228889, -11.139649140724664 -8.861977444265927, -11.122453263123143 -8.924332913987993, -11.10447862274851 -8.986468372447202, -11.08563510823366 -9.048345869692275, -11.06594810732124 -9.109960194064332, -11.046052668979573 -9.17150752803362, -11.026266435963443 -9.233090056419515, -11.006871169387813 -9.294796835069759, -10.988110845955212 -9.3566996054154, -10.97036069567455 -9.41889956609585, -10.953423867953669 -9.481325896059237, -10.936996636513767 -9.543888256194531, -10.920827802295129 -9.606517894789674, -10.904658085442026 -9.669147305559441, -10.888164979771878 -9.731692331605691, -10.87114463027604 -9.794095941719364, -10.853704857100462 -9.856383638239622, -10.83588927443429 -9.918564888201892, -10.817703164673114 -9.980638781718463, -10.799025607823902 -10.042566575821835, -10.77957936711324 -10.104257309150874, -10.759486205586876 -10.165740377437572, -10.738787295633548 -10.227022168887327, -10.717526294983443 -10.288111224250523, -10.695741159310048 -10.349015334933979, -12.419894132872011 -9.116707060800026, -12.441225586580845 -9.050101373735142, -12.461591515499972 -8.983194143900944, -12.480854518180905 -8.915961077764615, -12.498974082589903 -8.848410875342584, -12.516001128794073 -8.780577047774173, -12.531932241436925 -8.712477502116492, -12.547059957133856 -8.644194995685789, -12.561446095445149 -8.575752410344405, -12.575106507020692 -8.5071612912409, -12.588082637680728 -8.438437434392878, -12.600427186411917 -8.369597325587835, -12.612348581161672 -8.300682676837921, -12.624088988031051 -8.231736964066286, -12.635901691733919 -8.162803601334709, -12.64807068043168 -8.093932241779262, -12.660970759192004 -8.025194068422751, -12.674915273514982 -7.9566601429497466, -12.689562060459302 -7.888272862564876, -12.704627708197497 -7.819976634849572, -12.719773564571822 -7.751698150163637, -12.73461348758575 -7.683352519504114, -12.748432185270577 -7.614793114744434, -12.761263160667836 -7.5460420087533295, -12.773189302351524 -7.477128181470351, -12.7843702234985 -7.4080895294431315, -12.795033350625607 -7.3389690102132725, -12.805512782644213 -7.269820402302412, -12.816179961792658 -7.200700508294189, -12.827080363175003 -7.131617010151535, -12.838160064178485 -7.0625620415377295, -12.849293278656594 -6.993515680362083, -12.860220628776188 -6.924436439627948, -12.87059775682075 -6.855272405169776, -12.880243298286345 -6.786002555989761, -12.888992410059727 -6.716613785252384, -12.896731685122546 -6.647105137895515, -12.903335517914568 -6.5774794390163756, -12.908683763302596 -6.507746056520047, -12.91297384847751 -6.437939583350309, -12.916200946802569 -6.36807589977961, -12.918406723376018 -6.298172516555943, -12.919683103976125 -6.228245988046732, -12.920116583179919 -6.158309155946529, -12.920183397017938 -6.088371011554086, -12.920041522437389 -6.0184329795424505, -12.919807899452762 -5.94849519369771, -12.919560534747891 -5.878557455148626, -12.919352374006523 -5.808619588912771, -12.919222217284332 -5.738681534014812, -12.919185635434678 -5.6687433675676555, -12.919244595747594 -5.598805216410953, -12.91939232627329 -5.528867196421992, -12.91963548957194 -5.458929443127037, -12.919957310791544 -5.388992007550953, -12.920261937257212 -5.31905449500122, -12.92040329837765 -5.249116461724442, -12.920192937808535 -5.17917860262254, -12.919314940572406 -5.109245936589871, -12.91732742677018 -5.039336008367662, -12.914306688689866 -4.969463097291656, -12.910320624701676 -4.899638605031549, -12.905514666417432 -4.8298657504726, -12.900102540894746 -4.7601372959696695, -12.8943327535466 -4.690437525448496, -12.888503316928489 -4.620742718341147, -12.882692653243875 -4.551046343605629, -12.876948813368903 -4.481344429962163, -12.871294222573717 -4.411635219165914, -12.865779257661584 -4.341914823124541, -12.86040812771476 -4.272183198822917, -12.855158511663504 -4.20244232132293, -12.849993424259157 -4.132695132575078, -12.844853417815447 -4.062946091084474, -12.839600746904477 -3.9932054434831503, -12.833988224346166 -3.9234928331798686, -12.827829750571034 -3.8538263297956354, -12.82094204284289 -3.7842281408386866, -12.81317956353045 -3.714722080512286, -12.804374037726703 -3.645340445760663, -12.794605509309193 -3.5760878344141003, -12.784304650476455 -3.5069123990532494, -12.77368936180478 -3.437784516960308, -12.762967439302084 -3.368673093604347, -12.752337335905814 -3.299547487620641, -12.741999318203296 -3.2303775966424086, -12.731850945481376 -3.1611796270247283, -12.721747282415098 -3.091975114956838, -12.71148047333603 -3.0227946193969726, -12.700781356026779 -2.9536796604761806, -12.688908087014418 -2.88475670431454, -12.675392137604538 -2.8161369735382435, -12.659949823181808 -2.747924924864986, -12.642373377818844 -2.680231378345796, -12.62257152518524 -2.6131550337023524, -12.600248493942459 -2.54687509674199, -12.57592295633733 -2.4813036337893903, -12.550237322147721 -2.416252909328016, -12.523483629250155 -2.351634117081687, -12.495904007232653 -2.287363494279737, -12.467632893800413 -2.22339402807951, -12.438788618923642 -2.159680950519759, -12.40945542795689 -2.0961914838444953, -12.379515422363394 -2.0329859097237626, -12.34882457251188 -1.9701414990893693, -12.317198382196246 -1.907762551422278, -12.284271313919398 -1.846060395367623, -12.250341202082314 -1.7849040688615885, -12.215453730030298 -1.7242887845038926, -12.179660976624852 -1.6642036187888016, -12.143020954603392 -1.604631330419479, -12.105422062673176 -1.5456595447065242, -12.067129488015185 -1.4871358115981634, -12.028267127644098 -1.4289888825277601, -11.988947288047989 -1.3711503253420991, -11.949306866004958 -1.313531010943692, -11.909553403263255 -1.2559896286154386, -11.86998548016129 -1.1983205042235614, -11.830742989186975 -1.140429439387696, -11.79192228584096 -1.0822546903578885, -11.753585096327987 -1.0237601742631914, -11.715797449052053 -0.9649091575917664, -11.678406549289345 -0.9058052739601448, -11.641010373600052 -0.8467047285157147, -11.603304315093162 -0.7878014028387388, -11.565000451809999 -0.7292850627414386, -11.525809907564897 -0.6713588106180303, -11.485203949633108 -0.6144158244806872, -11.443376110184719 -0.5583642340163347, -11.40036180867048 -0.5032178994426931, -11.356244924843155 -0.4489495955980372, -11.311151060003041 -0.3954903374418659, -11.265070570954114 -0.3428791548281339, -11.218357585692562 -0.2908287398334141, -11.171115168762165 -0.2392583756202631, -11.123368123041491 -0.1881548725437314, -11.07510144526416 -0.1375418665749836, -11.026109463551999 -0.0876306031947043, -10.976280276966474 -0.0385551457376452, -10.925621915980367 0.009663927563482, -10.874101540083227 0.0569608536679588, -10.821709083408676 0.103289883068737, -10.76836073560128 0.1485149037461673, -10.714056414238382 0.1925874436125575, -10.659035651411058 0.2357622550677926, -10.603353047990554 0.2780800541435383, -10.547047639326095 0.3195655842330193, -10.490118490804662 0.3601909582397038, -10.432442164583065 0.3997483764709757, -10.374192338892014 0.4384563416348149, -10.315387139944317 0.4763152501737443, -10.25606020210709 0.5133512170942615, -10.19626299885834 0.5496230126909128, -10.136053009202243 0.5852053874071754, -10.07572078331795 0.6205801111148256, -10.015408938354053 0.655989570524331, -9.955224228169508 0.6916146891851566, -9.895250725825703 0.7275942331464982, -9.835592617151088 0.764094348915255, -9.776187757297144 0.801005202421943, -9.716916910457075 0.8381308697586582, -9.657680342228502 0.8753112068229063, -9.598368672142373 0.9123716194106736, -9.53882334378194 0.9490554375091701, -9.478838323320172 0.9850157714455994, -9.418367373055354 1.0201528271647604, -9.357349142226107 1.0543306579706282, -9.295740159442026 1.0874317324252798, -9.233486021638077 1.1193029097913514, -9.170403931714537 1.1495022014736413, -9.1066223112686 1.178194603013323, -9.042125454397514 1.205240933744788, -8.976921602925033 1.2305353040738316, -8.911042600691097 1.2540152418381165, -8.844403874326586 1.2752432121189923, -8.777268258435882 1.2948431720574725, -8.709750290890508 1.3130824779140449, -8.641925246278445 1.3301444740714599, -8.573849390812308 1.3461765213292327, -8.505504342917098 1.3610191223029164, -8.436893457489345 1.3745799050689493, -8.368018600559793 1.386729088870411, -8.29887571194008 1.3972461768061613, -8.229480641818014 1.4059451914910357, -8.159848557989527 1.412481371745035, -8.090047370403354 1.416856536426577, -8.02016529529512 1.4196573230311265, -7.950243754776117 1.4211826007823876, -7.880308010132684 1.4217658228444539, -7.810369834626221 1.421759527787434, -7.740431984700183 1.4215459073683037, -7.670494087341383 1.42134849871743, -7.60055610671399 1.4211831743036025, -7.530618062947711 1.4210471711664516, -7.460679987393188 1.4209286282379838, -7.390741837294143 1.420868421540447, -7.320803663160819 1.4208846107698565, -7.250865527835302 1.4209600536196905, -7.1809274470999425 1.4210754942964166, -7.110989406370411 1.4212130556863927, -7.041051456252014 1.4213908131441515, -6.971113590683789 1.4215991939505261, -6.901175532366084 1.4217274702237064, -6.83123747065123 1.4216009026943388, -6.761302068731678 1.4209781771748147, -6.691382957960998 1.4193450632432123, -6.621522379388001 1.4160515367957636, -6.55176325818827 1.411050155117605, -6.482164082852498 1.4041724306272878, -6.412789583618154 1.3953108899811582, -6.343719663757871 1.3843247285229319, -6.2750318559410925 1.3711591588226641, -6.2065964636495385 1.3567388179630335, -6.13835673851123 1.3414192831708631, -6.070255141026966 1.3254969422665548, -6.002242156840761 1.309200241744419, -5.93432331931846 1.2925155192121502, -5.866535782738988 1.2753051055127071, -5.798949178832261 1.2573217927012192, -5.731633716456801 1.238348740867027, -5.664657638022309 1.2182103723992694, -5.598162458812761 1.1965369038380975, -5.5321268950858355 1.1735010001885955, -5.466465961884453 1.1494180118274606, -5.401102633263851 1.1245386284996384, -5.335942037738815 1.0991330136198445, -5.2708944245357285 1.0734395031979227, -5.205881374513404 1.0476586615576795, -5.140851292239003 1.0219208127901365, -5.07577243842568 0.9963065343271096, -5.010619244180371 0.9708819455348868, -4.945367623782511 0.9457110387631962, -4.879952171812538 0.9209690286234693, -4.814352292652765 0.8967202277554697, -4.748550147981087 0.8730257932961878, -4.6825476220192845 0.8498954020824324, -4.61636602626124 0.8272824650789233, -4.550046280283067 0.8050779681260104, -4.4837310936892125 0.7828598559530991, -4.417507553538796 0.7603700533151749, -4.351442541110503 0.7374187455155097, -4.285582899880039 0.7138845944611734, -4.219966026084827 0.6896818222074578, -4.154518980598299 0.6650235016238029, -4.089191520096254 0.6400500888392444, -4.023941767201706 0.6148743422212269, -3.958723479775624 0.5896171956767664, -3.8934800639782186 0.5644250310981517, -3.8282147165533726 0.5392897393584516, -3.7629684004389 0.5141050873771529, -3.6977545029375127 0.488836608224518, -3.6325770404883353 0.4634742966114888, -3.567432235405006 0.4380282195620644, -3.502310221655868 0.4125238711430307, -3.4371735087092565 0.3870570871809011, -3.3719963824749577 0.3616939111847431, -3.3067582617716766 0.3364880381927139, -3.241444495258364 0.3114788317428497, -3.1759602342523623 0.2869195155609516, -3.1102238744990585 0.2630431795230143, -3.0441622583540604 0.2400820913916707, -2.977725663995644 0.2182297052611238, -2.910886010694634 0.1976430553260697, -2.843527913478656 0.1788219353715494, -2.775698188160577 0.1617785530389058, -2.707466032462725 0.1464253279437545, -2.6388731508392778 0.1327737809489073, -2.5699591940358553 0.1208483933240937, -2.5007068294981245 0.1110780533244175, -2.4311287938902164 0.1039897580767468, -2.361329007845451 0.0995921495325178, -2.291406202539931 0.0981263098810986, -2.221486209361443 0.0997208859907958, -2.151713683919675 0.1045317141191357, -2.0822043170625286 0.1122644335058227, -2.0128895678731418 0.1215818800416354, -1.943741080886342 0.1320620987274684, -1.8747298309905418 0.143410922144216, -1.8058383479270097 0.1554654748291426, -1.7371483855542 0.168619840544547, -1.6687132285300865 0.1830412785401216, -1.60060381925681 0.1989301672459801, -1.5328643402825715 0.216328768482326, -1.465498883525609 0.235123553169713, -1.3984686030538374 0.2550807500564262, -1.3315504467365233 0.2754107510102397, -1.2646061658227878 0.2956545573571932, -1.1975355699659087 0.3154758498030787, -1.1302643110510358 0.3346050465298046, -1.062725986709679 0.3527688412374296, -0.9949342786955975 0.3699627991747976, -0.9270111116962858 0.3866299345882661, -0.8589098274242123 0.4025534220341778, -0.7908404092141877 0.4186133748819628, -0.723872499358625 0.4387786606711872, -0.6558326717900044 0.4549626662543215, -0.5870149421640857 0.4674314190212131, -0.517955173915621 0.478481159020337, -0.4490043561499503 0.4901915466522014, -0.3804290307000001 0.50393102405, -0.3412996884499999 -0.8185139058999996))