POLYGON ((-1.2910844730747029 -18.357683231079324, -1.2278929139593724 -18.370192182231285, -1.1646959131339796 -18.382673612007483, -1.1014532199374645 -18.394921418336324, -1.0381427073110245 -18.406813684457102, -0.9747596426164247 -18.418312993714853, -0.9113225849691674 -18.429510614830242, -0.8478910114418376 -18.440739260399464, -0.7845073707474606 -18.452235394513465, -0.7212181312379071 -18.46424035816031, -0.6580765773873011 -18.476999323667506, -0.5951973723231655 -18.4909940570299, -0.5326001823073998 -18.506200595144357, -0.4702635002078044 -18.522442056363523, -0.4081750591226255 -18.53960808332575, -0.3463081106302072 -18.557555999360233, -0.2846358426330836 -18.576161868336914, -0.2230527686514953 -18.59506086309479, -0.1614684630257783 -18.613955843986115, -0.0998260790138224 -18.632660482319753, -0.0380806512562309 -18.65102210412807, 0.023812401891329 -18.668879790873312, 0.0858382268112822 -18.686270709265816, 0.1479263285833381 -18.703437963642227, 0.2100439912791348 -18.720497945558158, 0.2721690947167657 -18.737530811597367, 0.3342955061524031 -18.754558906163208, 0.3964395641570689 -18.771522486480734, 0.4586125023443343 -18.788379910912987, 0.5208355542843183 -18.805051407973966, 0.5831350338549283 -18.8214349922363, 0.645545049702574 -18.837392340306476, 0.7081392686148194 -18.852611102693597, 0.7708904989719078 -18.86716892210138, 0.8338040579329459 -18.881008398484727, 0.8968826244751421 -18.89407520416296, 0.960126183918598 -18.906318539444907, 1.0235786599932775 -18.917428454783558, 1.0871907943553933 -18.927584408536163, 1.1509455015892598 -18.936803101231295, 1.214824187558879 -18.945119378796498, 1.278805054173564 -18.952609086928817, 1.342872464618725 -18.959318327029095, 1.406989855329489 -18.965531797979867, 1.471148040010933 -18.971308850915307, 1.5353461050802668 -18.97662443530677, 1.5995853382189467 -18.98141692272098, 1.6638788162845992 -18.985416383932776, 1.7282243198425555 -18.988466491811458, 1.792605464469907 -18.99063794931376, 1.8570091613473065 -18.99198361641406, 1.921423917494539 -18.992605069774676, 1.9858416712051876 -18.992605542718692, 2.05025862638418 -18.992284775259883, 2.114675318895937 -18.991915008078784, 2.1790923884328803 -18.991618099173238, 2.243509965211083 -18.991467085332758, 2.307927717681062 -18.991480052607088, 2.3723453961702563 -18.99157854559538, 2.4367630755167315 -18.991676473993778, 2.5011807966254214 -18.991741355297478, 2.565598548238071 -18.991758080108347, 2.6300162964432396 -18.99173127681528, 2.694434045473383 -18.991706530150058, 2.7588517990142116 -18.991700951743603, 2.8232695524515337 -18.991707624833246, 2.8876873053465935 -18.99171831645308, 2.9521050588036726 -18.9917248058468, 3.0165228095125727 -18.991704909821248, 3.0809405574149875 -18.991677383665618, 3.14535831103876 -18.99167286479617, 3.209776056130248 -18.99170632942802, 3.2741937702248523 -18.99177783523401, 3.3386114758686336 -18.99185658827285, 3.403029208750605 -18.99190847989302, 3.4674469610999923 -18.99189488299953, 3.5318646155302362 -18.991781747159663, 3.5962819412831464 -18.991546913656745, 3.6606988554134157 -18.991218013470004, 3.7251161762347245 -18.990981844076725, 3.7895339187228227 -18.991020171586833, 3.8539496256284793 -18.991533662478265, 3.9183560333363765 -18.992742660054432, 3.9827307021871277 -18.99509830763326, 4.047038846093625 -18.998854569605086, 4.111257240989334 -19.003918642256465, 4.175352323925327 -19.010358149495833, 4.2392882728481815 -19.018222083055658, 4.3030065659939165 -19.027689193710838, 4.366466582725661 -19.038755952910446, 4.4297010299660275 -19.05104626417706, 4.492706621460826 -19.064460525283543, 4.555493631782582 -19.078863245497004, 4.618084476419342 -19.094095880490027, 4.680533167356247 -19.1099011959346, 4.742919491990266 -19.125950915805156, 4.8052723500813705 -19.142130164493523, 4.867618662256945 -19.15833461943024, 4.92998441618948 -19.174464087592785, 4.9923920937666155 -19.190430576783314, 5.054818795515783 -19.206322521704802, 5.1172581984690355 -19.222164490028703, 5.179706913655407 -19.23796970988008, 5.242163870434018 -19.253742330203284, 5.304616136700391 -19.26953351259336, 5.367054568288678 -19.285379308962842, 5.429488772416287 -19.30124175384562, 5.491933615612308 -19.317062264595968, 5.554410063911798 -19.332757499605872, 5.616982524230962 -19.348065478976736, 5.67973169859574 -19.362632156597634, 5.742701395563631 -19.376213919981105, 5.8059094193748395 -19.388639403321672, 5.869349811416377 -19.399818122971514, 5.9330245959906 -19.40957356923831, 5.996855479821109 -19.418249125541408, 6.060755039708507 -19.42640346535701, 6.124666298037025 -19.434465602175166, 6.188537355605258 -19.44284026822476, 6.2523094683281 -19.451937775879554, 6.315967645041989 -19.461801016224737, 6.3795482248325595 -19.47215267768797, 6.443073413413218 -19.482838996586455, 6.506566912678891 -19.493712016195683, 6.570051636438782 -19.504636156942055, 6.633531154861587 -19.515590505137364, 6.696990782184388 -19.52665950239865, 6.760418607832495 -19.537909299785913, 6.823802824025901 -19.549402259588422, 6.8871291022870444 -19.561210287357568, 6.950377865930261 -19.57342670520094, 7.013603366745784 -19.585762955082206, 7.0768473490583 -19.598004103172027, 7.1401409499705455 -19.609986050999563, 7.203501961668775 -19.621606258720654, 7.266942704338668 -19.632782981895247, 7.330433448665678 -19.643672077557333, 7.393963517114411 -19.65432934732717, 7.457521354446082 -19.66481973902926, 7.5210945999138605 -19.675216347251297, 7.584674055956769 -19.685574907583614, 7.648258105441365 -19.695905234460888, 7.711844570928103 -19.70622067964505, 7.7754293746503045 -19.716546363060726, 7.839006520000391 -19.726919096064, 7.902560593149879 -19.73743226846371, 7.966075433118436 -19.74817992412648, 8.029552968915352 -19.759145755243587, 8.093004749020466 -19.770259647655426, 8.15645033610976 -19.781408839358516, 8.21992479138549 -19.79239248825712, 8.283465245796451 -19.802987658705053, 8.347092606838414 -19.81304777568747, 8.410828166123267 -19.822397933536784, 8.474683360362013 -19.830892708502915, 8.538667916925009 -19.838350828610995, 8.602762939228503 -19.84479093956495, 8.666930356651703 -19.850464527855994, 8.73115989157796 -19.855385284035634, 8.795443100526295 -19.85954653058367, 8.859774907969637 -19.86287305089616, 8.924153050271931 -19.865131724892596, 8.98855596341808 -19.866514425602798, 9.052971783927399 -19.867013528945865, 9.117388234685896 -19.86660404578636, 9.181791292225068 -19.86522797024465, 9.246150506323247 -19.862482397803156, 9.310456025175442 -19.858681421788496, 9.374690864243686 -19.853830393780235, 9.438833965621065 -19.84788823127549, 9.502857379283526 -19.840771349961923, 9.566671941699301 -19.831976569997366, 9.63028350228907 -19.821817014630344, 9.693680377038602 -19.810394089292135, 9.756848190020087 -19.79776577489719, 9.819779116990894 -19.78400548463653, 9.882441202523864 -19.769068621248813, 9.94491561673803 -19.753365288991294, 10.00725940082633 -19.737151111097717, 10.069521104768805 -19.720624549526327, 10.13175936854377 -19.704009932509088, 10.1940786825488 -19.68770195405597, 10.256588457880557 -19.672139983408147, 10.319314881758988 -19.65747564573368, 10.382270734516638 -19.64382985770676, 10.445446308143994 -19.631240417548913, 10.50882179458829 -19.61969942018199, 10.572290662181231 -19.60868352774117, 10.635747185857458 -19.59759675200998, 10.699131513881516 -19.58610440792628, 10.762389952649382 -19.573938188432805, 10.825460316604865 -19.560831842059685, 10.888317029268938 -19.54673643380882, 10.951095240500248 -19.53229540776349, 11.013904772518977 -19.51799122094315, 11.076850556360123 -19.504299068374884, 11.140027035667982 -19.491714155352724, 11.203550604734751 -19.481018240282303, 11.267322526828666 -19.471919382875274, 11.331284991276442 -19.46427412174705, 11.395379470411404 -19.4578285985955, 11.459552996811986 -19.452224537389263, 11.523758186655947 -19.446995712281748, 11.587944889425803 -19.441544642434735, 11.652081821787572 -19.435536233611888, 11.716132174602162 -19.428666070071646, 11.780050066679038 -19.420656680391357, 11.843714732602773 -19.410835421965302, 11.907059319418467 -19.399126009924736, 11.970013127931983 -19.385470795445713, 12.032502624743957 -19.369827598216, 12.09447528325665 -19.35224816098438, 12.15583055647402 -19.332622223338124, 12.216705416728072 -19.311553326942523, 12.277281723047704 -19.289640816508367, 12.337699799378269 -19.267295726329774, 12.398102834163076 -19.244910007864313, 12.458644482157906 -19.222901921535232, 12.519398616150795 -19.201487389037215, 12.580328634591215 -19.180578542646284, 12.641398630329293 -19.16008213753324, 12.702555515543796 -19.139846466258472, 12.76371399044124 -19.119615599864417, 12.82473515518717 -19.098974271142225, 12.88556716735706 -19.077781977723983, 12.94616883396878 -19.055939702083233, 13.006510561288081 -19.033389248832204, 13.066562741711358 -19.010078679471647, 13.126306621775512 -18.985988935158975, 13.185852499939624 -18.96141383785114, 13.245228537325202 -18.93643118024795, 13.30447267794492 -18.911137331000443, 13.363634954152246 -18.885652589086714, 13.422884148706737 -18.86037058054963, 13.48237708488804 -18.83566759424292, 13.542208711371144 -18.811796618162035, 13.602452549184815 -18.78898594219802, 13.663158945957381 -18.76743645292847, 13.724478270582907 -18.74769848582337, 13.786213961525899 -18.729304152578628, 13.848225977865265 -18.711864060250782, 13.910397619788236 -18.695001855574326, 13.972611762044615 -18.67829714062729, 14.034686601947099 -18.661081994173088, 14.096470786579825 -18.64285120932769, 14.15792882612938 -18.623549489931143, 14.219048853474424 -18.60320276411627, 14.279852185213525 -18.58192832277288, 14.34036592676292 -18.559843620257116, 14.400723124309474 -18.537334606331243, 14.461059545075315 -18.514769958507692, 14.521472196836612 -18.492410206506424, 14.582044885962446 -18.47048769902466, 14.642867994418125 -18.449269864843632, 14.703989143445083 -18.42892650874734, 14.765369362872878 -18.409378729637435, 14.826989001379067 -18.390599295419737, 14.888811904360978 -18.37250024377434, 14.950787713156545 -18.354931916408542, 15.012857979145874 -18.337700286109545, 15.074982736799027 -18.320666158918264, 15.13715440621934 -18.303804055712085, 15.19937043882934 -18.28710638262241, 15.261634880206277 -18.270590137687442, 15.323998346906526 -18.254451828591275, 15.386473158487972 -18.23875007965063, 15.449077070841836 -18.223571240125228, 15.511826829794357 -18.209007081114173, 15.574737651384591 -18.19515516491245, 15.6378775143839 -18.18238783735608, 15.7011908530895 -18.170510625286383, 15.764664086259 -18.15951991689023, 15.828290569729706 -18.149454253535396, 15.892063637940197 -18.140363444034218, 15.955996338761656 -18.132473150792066, 16.0200188740951 -18.12534840585471, 16.08409351218757 -18.118708545011877, 16.148204552427558 -18.1124298889515, 16.212345189540077 -18.10646116439946, 16.276527883483418 -18.10096309150157, 16.340768324541706 -18.096186824352532, 16.405071512933215 -18.092346645857344, 16.469434106786714 -18.089681410495952, 16.533839168130097 -18.088402712702855, 16.59825492090796 -18.08891046394096, 16.66262989150162 -18.091257830972502, 16.726938533496863 -18.095005570123202, 16.79116566779342 -18.09995756138569, 16.85530691799636 -18.10591969396294, 16.919356744422313 -18.11279477459491, 16.983299015589836 -18.12060713449735, 17.047139573321953 -18.12921121407216, 17.11087221554254 -18.13858123642851, 17.174497770220132 -18.14865277026421, 17.238023936528602 -18.15933327572642, 17.301480232713757 -18.170421353919313, 17.36493279691339 -18.18153076878012, 17.42841191368324 -18.192487444212553, 17.491933933870392 -18.203192581019174, 17.555500369034316 -18.213630747674582, 16.43006765342916 -18.916629997241934, 16.36126591618803 -18.927468885840472, 16.292682440166768 -18.93961249953184, 16.224321601455312 -18.95295252455403, 16.156169809587098 -18.96732241727229, 16.088194873993046 -18.98250690530184, 16.020374281306196 -18.99836653210042, 15.952667842600125 -19.014706627112826, 15.885092037603707 -19.031578826977245, 15.817668014213032 -19.049047702793075, 15.750415319750203 -19.06716497718525, 15.683377663375428 -19.086062415728936, 15.616509220139378 -19.105550151555196, 15.54975550467869 -19.12542732494384, 15.483083558615848 -19.145577068312857, 15.41646928404937 -19.165916659600686, 15.349932023168314 -19.18650678985728, 15.283528235266004 -19.207523390490586, 15.217279759109324 -19.229024552242176, 15.151219032959808 -19.251095823381082, 15.085370444891796 -19.273792166680767, 15.019760982136305 -19.297170766871144, 14.954278286645563 -19.32090212041838, 14.888769147848622 -19.34456038078226, 14.823172033175105 -19.367973605602934, 14.757456825179425 -19.39105329337134, 14.691624381059736 -19.41379642093978, 14.625704812431477 -19.436285774437035, 14.559789572414884 -19.458787811732286, 14.493972560841746 -19.481575561527578, 14.428347347377436 -19.50490991167275, 14.363011342750362 -19.529042194523758, 14.298080025961587 -19.55424307987787, 14.233427384963937 -19.58015054167174, 14.16901125251507 -19.606640585550963, 14.104781102002606 -19.63357844581526, 14.040680669353254 -19.660823538659738, 13.976707782213694 -19.68836678212992, 13.912892372812324 -19.716272947629687, 13.84927033270566 -19.74461719860317, 13.785856742065691 -19.773424785604004, 13.722647226718898 -19.802677438885077, 13.65966636060813 -19.83241917808694, 13.596889869885025 -19.862589905020705, 13.5342761282692 -19.893096951908472, 13.471765214259493 -19.923814148705976, 13.409279699718965 -19.954582980712054, 13.346723723081357 -19.98520830252403, 13.28406201497552 -20.015616704098193, 13.221278222230643 -20.04577223293916, 13.158345909721412 -20.07561657226012, 13.095244556686408 -20.105101819400563, 13.031947772659757 -20.13416515849297, 12.9684769356076 -20.16284639613855, 12.904863248869828 -20.19120938983534, 12.841115337952223 -20.219269404122667, 12.77725642436904 -20.2470758729146, 12.713338832632985 -20.274747194106972, 12.649484608083657 -20.302564428967816, 12.58574111518764 -20.330634478224084, 12.522123108795457 -20.35898778153211, 12.458624655992038 -20.38760782781169, 12.395217030811935 -20.416428542673284, 12.33173553871948 -20.445086189659033, 12.267997947477372 -20.47316963628651, 12.203883993371045 -20.500382896278786, 12.139298156138196 -20.526456445480218, 12.074171993355993 -20.551149437138932, 12.00826322462862 -20.573670414092476, 11.941776932066718 -20.594424535835888, 11.874803835684274 -20.613549514914194, 11.80744209828257 -20.631257052081676, 11.739792863650564 -20.647832383565966, 11.671929101985292 -20.66350625968999, 11.603986893019835 -20.678836517222948, 11.5360279286167 -20.694092326133646, 11.4680927249099 -20.709453597116156, 11.400211291054248 -20.725050760010443, 11.332410985293807 -20.740996890764066, 11.264655537823474 -20.757132562015215, 11.196870913287668 -20.7731452204407, 11.128978405853482 -20.788694110205718, 11.060898678402603 -20.803401634144695, 10.992509701657744 -20.816596650139385, 10.923775515963943 -20.82785596604561, 10.854777417714072 -20.83736506377128, 10.7855761330873 -20.845260804997835, 10.716232494454957 -20.851789228862035, 10.646797171110679 -20.857256991801954, 10.577321906917714 -20.862191382496327, 10.50783981019134 -20.867028611491246, 10.438363814023642 -20.87195268560864, 10.368903324094358 -20.87709086509826, 10.299465421882905 -20.882525778706487, 10.230049495950315 -20.88823452436424, 10.16064280129026 -20.894054428635688, 10.091239913856498 -20.89991955995497, 10.021834987914644 -20.905760519169846, 9.95242145440289 -20.911498281377924, 9.882976245518776 -20.916839022228196, 9.813485282418908 -20.92154716378762, 9.7439399627099 -20.925369342481776, 9.674344210244815 -20.92812466205119, 9.6047120730764 -20.92971400475164, 9.535062616539523 -20.930051299823045, 9.465412699296044 -20.929828648955276, 9.39576350458157 -20.929441059459684, 9.326113493614718 -20.929249949992382, 9.256464152550478 -20.9296102797722, 9.186830883291087 -20.931149229325005, 9.117236924854943 -20.933949495942368, 9.04769402435061 -20.93781544114573, 8.978205326019898 -20.94255689182874, 8.908762652096922 -20.94793049280411, 8.839350328808893 -20.953682877172824, 8.769943527022415 -20.959501503731623, 8.70053203374197 -20.96526389474305, 8.631112336624692 -20.970926597428456, 8.561683589967528 -20.97647724488446, 8.492246834921056 -20.981926795154838, 8.422806151623709 -20.98732605924763, 8.35336429619606 -20.992710227177472, 8.283922251620748 -20.998091955035555, 8.214480835933056 -21.00348179147182, 8.145041144131834 -21.008893792220082, 8.075607135199796 -21.014378220466757, 8.00618236953026 -21.019978440225525, 7.936767851235568 -21.02570427635891, 7.867361189942179 -21.03152457853219, 7.797955068344688 -21.03735131303854, 7.728525445700358 -21.042890992518362, 7.659057430589923 -21.047926409522336, 7.589541256863219 -21.052246380234138, 7.519975420786265 -21.055674933183933, 7.450366621463644 -21.05807819206154, 7.380725857825174 -21.059229079844204, 7.311077092653371 -21.059687429355428, 7.241426821046858 -21.0596730710851, 7.171777144922591 -21.059384682132333, 7.102127890649649 -21.059007947969523, 7.032478065107287 -21.05875824564479, 6.962827860155515 -21.05866077989434, 6.893177587595817 -21.058651722930332, 6.823527319012732 -21.058676936231432, 6.7538770465033275 -21.058686383802353, 6.6842267835021865 -21.05864879501017, 6.614576510637009 -21.058642480667448, 6.544926323749626 -21.05875209661238, 6.475276493550744 -21.05900049914481, 6.4056271453712705 -21.059359448812092, 6.3359775810172945 -21.059673678430812, 6.266327314335003 -21.059643772046794, 6.196679076736999 -21.05911127237858, 6.127038977214878 -21.057920861284387, 6.057416869814205 -21.05594027670798, 5.987829936968901 -21.052970538295146, 5.918292920074593 -21.04900017338337, 5.84879830821812 -21.04434619749416, 5.77934733505741 -21.039080945751714, 5.709942999636857 -21.033232975857256, 5.64059687658826 -21.02673099006168, 5.571351234773028 -21.0192342179327, 5.50221265143639 -21.010807067419925, 5.433185639658153 -21.00151017640234, 5.36425998374937 -20.991489472338788, 5.2954079427843315 -20.980974863360263, 5.226587347391458 -20.97025636523663, 5.1577641883389465 -20.95955434088783, 5.088941800611686 -20.94884735704683, 5.020136209788326 -20.93803295920999, 4.951376280756513 -20.92693193440188, 4.88275406382816 -20.91500918884279, 4.814295106378436 -20.90218219751554, 4.745987086925974 -20.888574294809512, 4.6777879595203 -20.874430759885495, 4.609621947390844 -20.860128476415294, 4.54131806251347 -20.84649983260512, 4.472749454389661 -20.834272549728883, 4.403917501828243 -20.823627229529507, 4.334853236077416 -20.81461126168028, 4.265606411653587 -20.807125416539197, 4.1962195708808805 -20.801073403998835, 4.12675737227826 -20.79595837481256, 4.057251959455731 -20.79146859316933, 3.9877108996607964 -20.78756967689703, 3.918137144355242 -20.784305764407513, 3.848527312013056 -20.781932622614175, 3.778891173907598 -20.780529481802446, 3.7092453601913444 -20.779741326095643, 3.639596138376026 -20.779358641678463, 3.569946088878779 -20.779182132177045, 3.5002959646085468 -20.779038124357562, 3.430645777738226 -20.77892849412572, 3.3609956590979397 -20.77907519759227, 3.2913483454818127 -20.779717272259244, 3.2217111441918083 -20.781066616981576, 3.1520973363901246 -20.783320136898016, 3.0825217030514844 -20.78654376168644, 3.0129552938137762 -20.789960669142683, 2.9433695324483926 -20.792957735523082, 2.8737472524864036 -20.794932215543476, 2.804098015615218 -20.795312368378678, 2.734479197289125 -20.79321939961971, 2.6649291179789953 -20.789484822651282, 2.5954559331543936 -20.784521242869353, 2.526047773443982 -20.7787188368184, 2.456678204315898 -20.772471963361088, 2.387306546242068 -20.766248330443805, 2.3179073359363542 -20.760339848592782, 2.248483587245775 -20.754727035767974, 2.179042261555736 -20.74933603996212, 2.109592543568867 -20.744054257955597, 2.0401436885064417 -20.738761141664867, 1.9706987733450516 -20.73341658296228, 1.9012577952927014 -20.728021111090122, 1.831821515947972 -20.72256550294609, 1.7623911626977133 -20.71703498785923, 1.6929706643569509 -20.711382116016672, 1.6235606434558383 -20.705602016753, 1.5541514150151212 -20.69981240909014, 1.4847316399972392 -20.694150661453822, 1.4152894918975956 -20.68877026985108, 1.3458100652827565 -20.68389483760683, 1.2762857434289756 -20.67970804802933, 1.2067304871906102 -20.67607116937276, 1.1371542819838603 -20.672859905253897, 1.0675681638175512 -20.66987114291558, 0.9979866037236602 -20.66677807523352, 0.9284330923581814 -20.663107982179895, 0.85890867655532 -20.658922750094167, 0.7894127445103695 -20.65428853216068, 0.719942310992274 -20.649286591005325, 0.6504926329154579 -20.644004283989357, 0.5810658673761236 -20.63842891191344, 0.5116665982434795 -20.63252112143351, 0.442317761287256 -20.626048147634318, 0.3730513691739384 -20.618745587042053, 0.3039113600431924 -20.610330134777158, 0.2350034752351949 -20.600187954545998, 0.1663334924932916 -20.588543467894127, 0.0979121336530437 -20.57551741073119, 0.0297353619345335 -20.561266504124898, -0.0382258610177231 -20.54602075939806, -0.1060072432151432 -20.52999438208911, -0.1736883372102203 -20.51354962394882, -0.2413146107665928 -20.49688086056262, -0.3089290819437079 -20.480164286842957, -0.3765810570123273 -20.463600144331284, -0.4443558861924132 -20.447546076651832, -0.5123223203404825 -20.432323581208433, -0.5804919313050776 -20.418038459742725, -0.6488674519098596 -20.404773893583247, -0.7174287838663258 -20.39250587326536, -0.7861330811108043 -20.381065590286283, -0.8548653171580873 -20.369794375373452, -0.9235412077620514 -20.358184784554584, -0.9921132581559012 -20.345976817935874, -1.0605486021562518 -20.333024433885324, -1.1288309177211642 -20.3192881346283, -1.197049848662077 -20.305240429469176, -1.2653475550369457 -20.291580859824027, -1.333793328443424 -20.278683702511252, -1.4024276996938896 -20.266831125120472, -1.4712674342070033 -20.256236240875317, -1.540333391119111 -20.247233237035033, -1.6095066661912012 -20.23909575623727, -1.6787225824098384 -20.231329322888687, -1.7479266959926127 -20.223458414352688, -1.8170667845466746 -20.215043621516106, -1.8860512344013518 -20.20543601017354, -1.95485389039325 -20.194602955110135, -2.0234276813770284 -20.182404770367175, -2.091718395496298 -20.168710286232187, -2.159669824588085 -20.153420950956455, -2.2271365754617722 -20.136117826065803, -2.294177992764183 -20.117233735461912, -2.360855808056993 -20.09710342270465, -2.4272223618411646 -20.075969537849403, -2.4933468031580346 -20.054089894268436, -2.559297808124208 -20.031692896688156, -2.6252162822352325 -20.009200335317768, -2.691194884187894 -19.986884765984577, -2.757277539345947 -19.964879238568393, -2.8234808330662733 -19.943239357570967, -2.8897885829640773 -19.92192169225157, -2.956142194972886 -19.90074720944365, -3.022507330395011 -19.879608871046496, -3.0888639353249205 -19.858443769313812, -3.1551882961464903 -19.837177840874897, -3.221435841762828 -19.815673812249504, -3.287545333201749 -19.793749038733836, -3.3535536563427453 -19.77152153718873, -3.4194913015406616 -19.749085238573365, -3.485394119544387 -19.726546846246144, -3.551302878032058 -19.704025831522713, -3.6173101609880995 -19.68179524118965, -3.683477894930818 -19.66004687263552, -3.749857498397213 -19.638954011483506, -3.81648421269662 -19.61865520637582, -3.883376420628913 -19.599249200358475, -1.2910844730747029 -18.357683231079324))