POLYGON ((5.784367330501413 -19.384789018225195, 5.850124350983252 -19.3966897582503, 5.916119643694082 -19.407185874134942, 5.98229704184074 -19.41646419685765, 6.048585474578224 -19.42491336864571, 6.114900889103185 -19.433146351790032, 6.181165500473801 -19.44177875394306, 6.247329053963588 -19.451155259830603, 6.313379739157813 -19.461295906052687, 6.379334065041353 -19.472045197171788, 6.445224024069063 -19.483182107058568, 6.511085109065963 -19.494488244192922, 6.576941464500579 -19.50582188622801, 6.64279335486428 -19.517181452441918, 6.708623518022765 -19.528666322796255, 6.774414744573332 -19.540372212431052, 6.840150879319924 -19.5523838333524, 6.905817077449939 -19.564771707136913, 6.971417391063208 -19.577504223157415, 7.036995310526921 -19.59035128576167, 7.1026140371283555 -19.602988546427127, 7.168307762308747 -19.6152297013604, 7.234077453778008 -19.627056268447312, 7.299911457693801 -19.638519187027466, 7.3657985370723535 -19.649672971659083, 7.43172452062238 -19.660594360059246, 7.497670515866443 -19.671394236725234, 7.563623677441749 -19.682150236825127, 7.629581438384739 -19.692877995366718, 7.695543841111 -19.703577180768534, 7.761506675012918 -19.714273703984077, 7.827461459951103 -19.725019750364655, 7.893396097953388 -19.73588880857358, 7.959293959827326 -19.746978715246293, 8.02514536310417 -19.7583410046784, 8.090962028437218 -19.769903093780965, 8.156775756358902 -19.78148167978702, 8.222622302119442 -19.792872287080254, 8.288531250239838 -19.803896308535467, 8.354535408911643 -19.81433629215128, 8.420668339942694 -19.823926554723304, 8.48694393815268 -19.83247538470739, 8.553347602346973 -19.83996619407809, 8.61985101874384 -19.84651098411492, 8.686433821219255 -19.852191503024173, 8.753083783009007 -19.857020542786493, 8.819791570231429 -19.860972277062217, 8.88654804320109 -19.863991072697782, 8.953341885736636 -19.86602304557517, 9.020158734474549 -19.867050875006225, 9.086983497993021 -19.867068908810126, 9.153800091910883 -19.86601661782697, 9.22058794080727 -19.86379508261871, 9.287324331861571 -19.860357800165737, 9.353988567890621 -19.85572622174213, 9.420558303724846 -19.84989245405786, 9.486998005740157 -19.842725922418637, 9.553260576236385 -19.834074122512323, 9.619307209557524 -19.82390387793827, 9.68511162288279 -19.812268879658397, 9.7506545200082 -19.79924198680075, 9.815928080857143 -19.78492648928931, 9.880951791014644 -19.76951674468711, 9.945768041296263 -19.753256782971963, 10.010426888841671 -19.736382211232186, 10.074992701757521 -19.719155114734484, 10.1395547928206 -19.70191408914958, 10.204218605761932 -19.685058524594798, 10.26907645135928 -19.66896486828986, 10.334186332661032 -19.65392246761655, 10.399567802002451 -19.640108863257023, 10.46519174355449 -19.627497978216944, 10.530982247073972 -19.615786428070486, 10.596837613169122 -19.60444714035332, 10.662658603721116 -19.592909537555514, 10.728362281569673 -19.580720597805445, 10.793883135158056 -19.56758430921776, 10.859191143321276 -19.55342884774959, 10.924329392704623 -19.538510529991964, 10.989425333394111 -19.52340992973359, 11.054644580287622 -19.50884999390131, 11.120113264584424 -19.49545433769189, 11.185887666915207 -19.483649515076156, 11.251962327218196 -19.47366285041328, 11.318282542373066 -19.465462963052786, 11.384766643813236 -19.458721249814104, 11.451337526099822 -19.452904142339882, 11.517940795869169 -19.447471283039604, 11.584535552361364 -19.441933886896162, 11.651080006793027 -19.435820121562337, 11.717523444727535 -19.42869126304621, 11.78380456828638 -19.42018193142873, 11.849847740455093 -19.409987217541318, 11.9155520443345 -19.39779497886485, 11.980797625958383 -19.383348647054262, 12.045488602617226 -19.36659280582445, 12.109584837880885 -19.347689015580947, 12.173109288315503 -19.326946069283007, 12.236150535533229 -19.304779215660734, 12.298875255696252 -19.281733039045502, 12.361499389354757 -19.258414684073983, 12.424205243522785 -19.235317377438598, 12.487095507165257 -19.212726744877624, 12.550199883717086 -19.190741236825527, 12.61349939309374 -19.169324071462732, 12.676931206591373 -19.148302296628252, 12.740392960243923 -19.127370883066682, 12.803770757245061 -19.106186625708514, 12.866968077521111 -19.084469738478234, 12.929914674246044 -19.062036299168998, 12.992563808251889 -19.038784919796417, 13.05489864370109 -19.014703743055847, 13.11694420510154 -18.98988690188898, 13.178747212687004 -18.964472030363854, 13.240349057548164 -18.93857357610859, 13.301792871940526 -18.912302444631784, 13.36316156289513 -18.885856357177005, 13.424602889625602 -18.859579319664025, 13.486290879613255 -18.833886231499747, 13.548368719827572 -18.809149461204697, 13.610938593122206 -18.78568449722374, 13.674059519570715 -18.76374506207095, 13.737726174007573 -18.743442850714107, 13.801845768691845 -18.72462148149731, 13.86626374541171 -18.706849135015382, 13.930812481697398 -18.689557964375943, 13.995325905695651 -18.67213511636034, 14.059641823006004 -18.653997123637097, 14.12362459483545 -18.634715603207386, 14.187207558726609 -18.614154039364287, 14.250408203611354 -18.592446283626444, 14.313295327978896 -18.569846599799497, 14.375962294674878 -18.546643775378072, 14.438527427649534 -18.52316775210421, 14.501132606202995 -18.499798933346668, 14.563911072441464 -18.476899316409426, 14.626939147753692 -18.454695884246544, 14.690246688803978 -18.43330187900376, 14.753849506188605 -18.41280265504917, 14.817741921905471 -18.39322477873745, 14.881874354025564 -18.374447951228916, 14.9461633636367 -18.356215037559846, 15.010543221653222 -18.3383055737249, 15.074987167062398 -18.320628191760825, 15.139483912325055 -18.303144417190023, 15.204028367989192 -18.285837572674353, 15.268631571510461 -18.268751334273524, 15.333325450366624 -18.25201156269403, 15.398144356153285 -18.23576250807364, 15.46311307072142 -18.22012291746806, 15.52825526846036 -18.20522209477901, 15.59359279835424 -18.191202788071156, 15.659132941224433 -18.178162840245886, 15.724863437872848 -18.166119225385966, 15.790771389864775 -18.15508750837472, 15.856853260290949 -18.145150300095267, 15.923096488386193 -18.136354622673437, 15.989466263472657 -18.1285697077602, 16.05591584618731 -18.121500021859937, 16.122410040454085 -18.114864057796968, 16.18893681861025 -18.108563017127473, 16.255500675875872 -18.102666050317083, 16.32211534140267 -18.097371843412052, 16.38879638499429 -18.092990879393607, 16.45554909493363 -18.08988472001906, 16.522357112722265 -18.088366418982776, 16.58918202896417 -18.088626288164267, 16.655974791185283 -18.09070707954013, 16.722694028837378 -18.094466606268572, 16.789319434718408 -18.09962789098589, 16.855849217587362 -18.10590004605448, 16.92228546246728 -18.113094664995497, 16.988621149113012 -18.121164336076713, 17.054840269639293 -18.13014018642652, 17.120932619559227 -18.140005958549995, 17.186903981068596 -18.15065064159287, 17.25277892336782 -18.161876228775498, 17.3185994002111 -18.173416463564536, 17.38441859424849 -18.184964068729386, 17.450281540349383 -18.19625950020207, 17.516201559776185 -18.207216642291048, 17.58215599855766 -18.21796512065688, 17.64809838358584 -18.22878709871868, 17.713973870674838 -18.240009386281663, 17.779728760106728 -18.251918764151956, 17.845318984353575 -18.264704061878017, 17.910729241831593 -18.278379424813583, 17.975996914104506 -18.292720294107077, 18.04121253263221 -18.30729572466614, 18.106486088989527 -18.32160916959065, 18.171894674333277 -18.335293157342672, 18.2374485787673 -18.348262420590107, 18.30310111472736 -18.360722780986077, 18.368771511037412 -18.37308916602032, 18.434363066576047 -18.385866780744625, 18.499778688609663 -18.399517537838967, 18.564933425234596 -18.41436469282822, 18.62975352461143 -18.430611404799837, 18.69416813300668 -18.448397944212825, 18.75811667541212 -18.46779350494186, 18.821554298261052 -18.488800465870565, 18.884437794021846 -18.511411958670656, 18.946706367889195 -18.535665916023042, 19.00829951545531 -18.56158701054948, 19.069214284912814 -18.589063664680484, 19.129542455308616 -18.617805261587407, 19.18946099411239 -18.647390936864646, 19.24918820947644 -18.67736045537829, 19.30893416843193 -18.707292587005846, 19.36886549293487 -18.736852090273903, 19.42906752396246 -18.765856013944006, 19.489509414607582 -18.79435678782358, 19.550052944791556 -18.822641139274243, 19.610508234842424 -18.85111338092643, 19.670702656829942 -18.88013344188602, 19.73051822851919 -18.909926764038282, 19.789891429620685 -18.940592135080614, 19.84881496779717 -18.972112760707784, 19.90734197548811 -19.00436373093034, 19.965568082351062 -19.037154638120477, 20.023590546413725 -19.070304419684955, 20.081470307012953 -19.103702725064075, 20.139223667955996 -19.13731913941301, 20.196836824529985 -19.171175286573085, 20.25427914507766 -19.205320516981125, 20.311507541034477 -19.239823100307223, 20.36847336445074 -19.274757561490535, 20.425142646021197 -19.310171046758814, 20.481509526544738 -19.34606388518893, 20.537578262579316 -19.382420747673812, 20.59332867676346 -19.419263923038656, 20.64869499932041 -19.45668184117578, 20.703573664232735 -19.494811540915745, 20.757852749140575 -19.533790235330976, 20.81143494034729 -19.573721635502068, 20.86424224248562 -19.614672317364995, 20.91622586967668 -19.65666364305124, 20.967380045053513 -19.69966153982561, 21.01775203339142 -19.743573070361705, 21.0674393627986 -19.788257618127957, 21.116566445194664 -19.83355728566532, 21.165256427295564 -19.879326357819835, 21.213626828886355 -19.9254329947182, 21.261793779717326 -19.971752088152236, 21.309878053763953 -20.01815697548112, 21.35800401849825 -20.06451863563307, 21.40627458298145 -20.110729746511993, 21.45475765350352 -20.156717855281478, 21.503483117250834 -20.20244907329378, 21.55244973496831 -20.24792198529631, 21.601634870068192 -20.293158441509576, 21.650999255796272 -20.33819920287267, 21.700486214079625 -20.38310524269377, 21.750025987013103 -20.42795301326792, 21.799542710404406 -20.47282623143801, 21.848966032894495 -20.51780230584285, 21.89823636974533 -20.56294593574665, 21.94729872852859 -20.60831553329729, 21.996096141822395 -20.65397000802465, 22.044572888166346 -20.699964849126772, 22.09269118221077 -20.74633453034301, 22.14045366646329 -20.79307065619061, 22.187906079541957 -20.84012154229534, 22.235118288005363 -20.887413413844442, 22.282171185401666 -20.93486377371982, 22.32915113540184 -20.982386355353274, 22.37615290158521 -21.029887369308305, 22.42326909470185 -21.077274882018678, 22.47057312398363 -21.124474912987147, 22.51811150081595 -21.17143892539318, 22.565911125868517 -21.21813702401728, 22.613983045224423 -21.26455476797421, 22.66231625464904 -21.310700346908387, 22.71086198063541 -21.356622312284994, 22.759532227040015 -21.402412259309735, 22.80822408996788 -21.448179205833835, 22.856857987063147 -21.494007753705898, 22.905403659773043 -21.539929737046307, 22.953881457275433 -21.585923375770765, 23.002346374225645 -21.631930581014373, 23.050870345945683 -21.67787550999607, 23.099540352656646 -21.723665726571213, 23.148467673743454 -21.769180955678518, 23.19776156757341 -21.814299034471908, 23.247534424537218 -21.85888824153214, 23.297878731220028 -21.902831190471442, 23.348833939718823 -21.94606443078165, 23.400386423023697 -21.988583635517536, 23.452503282643725 -22.03040910379715, 23.50511928476964 -22.07160475107972, 23.558140207038797 -22.112277985736586, 23.611492066698567 -22.152516011697575, 23.66511604060268 -22.192390578799554, 23.718990804244623 -22.231925773545314, 23.77326596002187 -22.27091053322139, 23.828242365009217 -22.30889780670903, 23.88378143208382 -22.346060019392457, 23.939376118112094 -22.383136702954747, 23.99470187008646 -22.420615045906022, 24.0498329617382 -22.458378230151343, 23.8419541777273 -22.7417421277273, 23.78473548509278 -22.707324074076144, 23.729616133777245 -22.66965909457994, 23.676276879146016 -22.629501689159447, 23.62412316296391 -22.587822582453583, 23.57239940991947 -22.545613408003376, 23.52073912229313 -22.503320227076248, 23.468126603239284 -22.46222996540783, 23.414163183992784 -22.42291598681093, 23.359624726068425 -22.384412750615297, 23.305597953117804 -22.345195547556216, 23.251741199794214 -22.30574104814667, 23.197941335667128 -22.266212492037166, 23.144370657349345 -22.226372260267226, 23.090958923073206 -22.186319592220478, 23.03771375219036 -22.146045876577126, 22.984647649159182 -22.105536323357654, 22.93178422577636 -22.064762700540193, 22.87917355729831 -22.023663392589615, 22.82687686210958 -21.982165223904452, 22.77494481559698 -21.9402116032491, 22.723408537193258 -21.897772746497942, 22.672274596740188 -21.854849947864516, 22.621523039625423 -21.81147575290727, 22.571109155579993 -21.767709636546154, 22.520953334257452 -21.723648032390816, 22.470943226515125 -21.67942116900383, 22.420948901633306 -21.63517649570365, 22.37085060184604 -21.59104952089734, 22.320566404392913 -21.547134557252704, 22.270082668927202 -21.50344907682987, 22.219462444263986 -21.459921865510672, 22.168828072950067 -21.416411108439743, 22.118322828534392 -21.37275046323547, 22.068069699530422 -21.32879987209207, 22.01814540784581 -21.284476020769148, 21.96856328553014 -21.23976975509381, 21.919259568381317 -21.194756774401476, 21.8700933158462 -21.14959361060201, 21.82087942371321 -21.10448244645782, 21.77143450823068 -21.05962449873427, 21.721621944364614 -21.015174988908672, 21.671366070945826 -20.971227436668507, 21.62067546453997 -20.927781983955885, 21.56964137621633 -20.884740608540593, 21.518396348311533 -20.8419507238605, 21.46702082416326 -20.799317611345916, 21.415516191943567 -20.75684055109918, 21.36383842630171 -20.714574294706104, 21.31194009864293 -20.67257910964325, 21.259787825722494 -20.630899656788795, 21.207346591799443 -20.589584356893887, 21.15458758049659 -20.548675618348863, 21.101499319539148 -20.508195036194277, 21.048093002616046 -20.468135040164853, 20.994394715105976 -20.428467306721572, 20.94043789288199 -20.389151965512234, 20.886253083039744 -20.350151474397066, 20.831856727315813 -20.31144659904014, 20.77724152165412 -20.27305109964962, 20.722371859400173 -20.235020064083187, 20.66720071763255 -20.197427748765676, 20.61170135182256 -20.160321612102297, 20.555902439394345 -20.123667646444822, 20.499881791083585 -20.087353449362915, 20.443721100624195 -20.051256306802184, 20.387474970428354 -20.015292470323832, 20.331163245483967 -19.97943142431872, 20.274791955436164 -19.94366410427277, 20.218384334867896 -19.907954088991218, 20.16197894936706 -19.872240559305304, 20.105613186405442 -19.836464515351715, 20.049307702208615 -19.800593676203597, 19.993071226755397 -19.764614738571645, 19.936903834592925 -19.728528063021816, 19.880787638003056 -19.69236182461971, 19.82467125346047 -19.656195876781606, 19.76847470491175 -19.62015455097808, 19.71211621105674 -19.584366989049006, 19.655527092274482 -19.54894512391452, 19.598651454925317 -19.51398503883896, 19.541433164479997 -19.479588488014503, 19.483831947829216 -19.445837197582925, 19.425842844881114 -19.412756668600174, 19.367500817825743 -19.38030274190423, 19.30886284887956 -19.348386769765618, 19.249971789264208 -19.31694021333009, 19.190830649520326 -19.285966495930193, 19.131399390835877 -19.255553127321456, 19.07161293880502 -19.225843741753998, 19.011414744417728 -19.196977423395094, 18.95074820435557 -19.169108411207258, 18.88955753930054 -19.142409801356635, 18.827807720704683 -19.117030447731835, 18.76552020791852 -19.093001626216722, 18.702764006497407 -19.070225041525262, 18.63962403310538 -19.04853535286623, 18.57617163207533 -19.02777811629448, 18.512443856492954 -19.007882372501786, 18.44843745429136 -18.988901288566286, 18.384116813779034 -18.97101372040401, 18.3194384340065 -18.95446543715236, 18.254379939573628 -18.9394792433657, 18.188958181463185 -18.92616907054419, 18.123221961200585 -18.914510434187527, 18.05723075150416 -18.904394952083763, 17.99103801133395 -18.895697113429282, 17.924687289340245 -18.888302899610384, 17.858221123914582 -18.88203101387691, 17.791674162163314 -18.876685094099876, 17.725067837373118 -18.872140573901294, 17.658411684241088 -18.868395681781358, 17.591713718591734 -18.86549127682207, 17.524985165081638 -18.863403718558022, 17.458238053256974 -18.862034220890717, 17.391481589635678 -18.861251388642938, 17.32472123536712 -18.86095120266516, 17.25796031933897 -18.86108621172577, 17.191202009784362 -18.861693330652553, 17.124451634851557 -18.862890927073202, 17.057718527284948 -18.864828909409468, 16.991014145662515 -18.867580592127076, 16.924345631835358 -18.871097541598555, 16.857714263270015 -18.875257469491327, 16.79111805863375 -18.879945947427146, 16.724556853821383 -18.885107689289757, 16.658036371427098 -18.890770923165558, 16.591573439929736 -18.89707446988846, 16.525199720312163 -18.904258673203785, 16.458959938634397 -18.912589467707278, 16.392895054456634 -18.922209347436052, 16.327034427900468 -18.933141131186964, 16.26139432929092 -18.945326681567366, 16.19597453366563 -18.958642968648547, 16.130742974022468 -18.97285227640894, 16.065652826847916 -18.987695556766294, 16.000670397678658 -19.003003006773035, 15.935793728582961 -19.018752782656993, 15.871047265027567 -19.035029806735142, 15.806457715149936 -19.05191865075953, 15.742040252303521 -19.06945261406844, 15.677794040646075 -19.0876039301821, 15.613702289736201 -19.10629299519046, 15.549728113963244 -19.125380603171596, 15.485827598267528 -19.144713276923905, 15.42197613646608 -19.164207279079335, 15.358187959139837 -19.183907488255677, 15.294503331360415 -19.203939952607882, 15.230958860727803 -19.22441293017457, 15.167590821139207 -19.245425633269885, 15.104433952355384 -19.267065042204866, 15.041494460857415 -19.28932818409222, 14.978706304441705 -19.312014921108634, 14.915955949605877 -19.334805667755187, 14.853135543201052 -19.35740265235166, 14.790193759217713 -19.379659353571615, 14.72713733886087 -19.401589246443642, 14.663990969206782 -19.42325858656573, 14.600791900173098 -19.444773800013706, 14.537606995897093 -19.46633050404406, 14.474549883772221 -19.488259055419476, 14.411731278607002 -19.51086125111563, 14.34921300620406 -19.534282132102224, 14.286999454771493 -19.5585006495738, 14.225062295909407 -19.583417256554203, 14.163357108655207 -19.60890265074691, 14.101820566424461 -19.63479263725362, 14.040393993901898 -19.660942256539286, 13.97905996155783 -19.687308233289638, 13.917861082153845 -19.713986606787042, 13.856850620441666 -19.741092923949036, 13.796051886805829 -19.76867109438005, 13.73545107475402 -19.79668137234032, 13.675028880003278 -19.82507496396823, 13.614791061142062 -19.85385753846397, 13.554735467464454 -19.88301838487265, 13.494815433645474 -19.91245676544884, 13.434933859292032 -19.941973253567387, 13.375009655020232 -19.97140303604037, 13.315005067020008 -20.000668666610718, 13.254901395662317 -20.029730258181587, 13.194670251736474 -20.058526796118915, 13.134277467271458 -20.08698278599915, 13.07371244340842 -20.11507030048675, 13.012988220790843 -20.142812012873566, 12.952123071664632 -20.17024307638454, 12.891119602922458 -20.197365194268766, 12.829980548501881 -20.22418010272968, 12.768741622641123 -20.250766264431018, 12.70747434764756 -20.277286898128487, 12.64626126994987 -20.303932475225945, 12.585154877707652 -20.33082181480636, 12.524177721563628 -20.35800298604371, 12.463324723775328 -20.385460940837337, 12.402550442824637 -20.413092614490697, 12.341743954002935 -20.44065357162225, 12.280749331379226 -20.467796026299794, 12.219417027107317 -20.494166819875602, 12.157632039891233 -20.51945972116293, 12.095316628498766 -20.54341726700394, 12.032423107214415 -20.56581372145811, 11.968948308532104 -20.586504923241804, 11.90494330635305 -20.605493421037796, 11.84050728635551 -20.622961349388486, 11.775757994900905 -20.639228329869674, 11.710798963235666 -20.65463563872695, 11.645713031107501 -20.66949696203528, 11.580567719267183 -20.684095313958146, 11.51542186623912 -20.69869137081401, 11.450316955388672 -20.713468916055557, 11.385274811591625 -20.728520419235753, 11.320297389564129 -20.743848906093366, 11.255361640480759 -20.75935271687103, 11.190403650626322 -20.77476377216531, 11.125331331298185 -20.789685424986754, 11.060053426989843 -20.803681055659457, 10.9945057330539 -20.81635615477394, 10.928665939085896 -20.827416109002442, 10.862557073274358 -20.836730915328463, 10.796236168703913 -20.84439323130747, 10.729773222235346 -20.850700898216854, 10.663227923098546 -20.856064807340726, 10.596640711890991 -20.860879392682875, 10.53003826662632 -20.865477381595163, 10.463438409515504 -20.870112259753633, 10.396852915897101 -20.87494968129473, 10.330287928513352 -20.880061260268533, 10.263742722849392 -20.88542435689247, 10.19721169999893 -20.890960480300848, 10.130687761517564 -20.896580933715267, 10.06416520076378 -20.902217657512804, 9.997637840891533 -20.907797579551556, 9.931096180572043 -20.91320470663687, 9.864526246367998 -20.91825229957004, 9.797911756323451 -20.92267667716428, 9.731242242612232 -20.92617929415346, 9.664523405611684 -20.92855887191213, 9.597773607505511 -20.92980995382364, 9.531013225135613 -20.93013683941853, 9.46425276417934 -20.929870962176437, 9.397493377020742 -20.92940286257351, 9.330732874839542 -20.929141383105758, 9.263972568807558 -20.929477591060657, 9.197222989642011 -20.930739954152376, 9.130504384006054 -20.933127431054384, 9.063835201025393 -20.9366352374859, 8.997221642374207 -20.941074290400035, 8.93065421405863 -20.94615481055956, 8.864115561026765 -20.951598741692255, 8.79758868676326 -20.95718447864647, 8.7310608942993 -20.962759077305574, 8.664525216012615 -20.968238889787084, 8.597980036850478 -20.97360205655239, 8.531426885619627 -20.978865364359173, 8.464868570003402 -20.984062944231347, 8.398307781430361 -20.989228730021726, 8.331746248309537 -20.994384913975146, 8.265184850916416 -20.999542852673397, 8.198624311596884 -21.004711846300196, 8.132065936881595 -21.009908662862447, 8.06551238897569 -21.015166950003813, 7.998967873156774 -21.020538439828403, 7.932434743650593 -21.026048946696477, 7.86590960069409 -21.031655273073966, 7.79938229108042 -21.037235674399852, 7.7328379229636095 -21.04260943808394, 7.666260758264438 -21.04756203191196, 7.599637713785131 -21.051854801434505, 7.532963632495386 -21.055265623111808, 7.466245205075341 -21.05766080802698, 7.399499155583565 -21.05908239757919, 7.332740929373102 -21.059713300436353, 7.265979924998993 -21.05978771466648, 7.199219447355318 -21.059533784416626, 7.132459522767701 -21.059162391190643, 7.065699322950616 -21.058847220253735, 6.998938597617288 -21.05867399920374, 6.932177654230909 -21.05863440939299, 6.865416713506173 -21.05866188094626, 6.798655771353036 -21.058689952379666, 6.731894830201765 -21.058678915861268, 6.66513389219333 -21.058638021222706, 6.598372943407928 -21.058632337291495, 6.531612096675482 -21.058755307201462, 6.464851767439056 -21.05903926925372, 6.398091827589634 -21.059410063341932, 6.33133151644324 -21.059701628943248, 6.264570502150413 -21.059712924875498, 6.197810941698631 -21.059258815501543, 6.131058795937868 -21.05816171349156, 6.064324444425077 -21.056268210128255, 5.997620797256914 -21.053494907450133, 5.930957213797606 -21.04988680480233, 5.864336056596989 -21.04556522024056, 5.7977565584836075 -21.040644551888796, 5.731219919677098 -21.035175065156476, 5.664733836212069 -21.02912086855721, 5.5983167365045485 -21.022350707448865, 5.53199130085823 -21.014736449697438, 5.465780782583412 -21.00617693176953, 5.784367330501413 -19.384789018225195))