POLYGON ((-0.3412996884499999 -0.8185139058999997, -0.3918740957027724 -0.8539147709727058, -0.4441533441027377 -0.8868363689752862, -0.498643021919119 -0.9158396667648372, -0.5553130668559374 -0.9404209376795895, -0.6136579285225006 -0.9606744484133424, -0.6734191735683009 -0.9762181081964242, -0.732656284501718 -0.9935022856483866, -0.7904987990019887 -1.0152244123111198, -0.848023317245104 -1.0376397611434278, -0.9064661753301886 -1.057538001092305, -0.9654152819091113 -1.0759523541755045, -1.0246490847895344 -1.0933604714722676, -1.0842453600578081 -1.1095184022194633, -1.1440623460656338 -1.1248296870310286, -1.2040831682022797 -1.1393188968594843, -1.2643109988549528 -1.1529267452790606, -1.3247602970769912 -1.1655119153262252, -1.3854547406888107 -1.1768586365084905, -1.4463938824864042 -1.1868088193129738, -1.5075541421247636 -1.1952930721964972, -1.568892754904255 -1.2023729826118559, -1.630356204214597 -1.2082700545892655, -1.691892138155209 -1.2133494115562249, -1.753461069360941 -1.2180115403902383, -1.8150364580657992 -1.2225863362560234, -1.8766016521052795 -1.227296488927254, -1.9381469323013558 -1.2322604822272174, -1.9996679953970788 -1.2375160035848483, -2.0611654447142675 -1.2430408122274632, -2.122645433247541 -1.2487566535549925, -2.184120523120936 -1.254524712952049, -2.245610412401217 -1.2601331400199602, -2.3071415917400215 -1.2652729644508023, -2.368739507214106 -1.2695411863492816, -2.4304139093091366 -1.2725130012757495, -2.492146633919556 -1.2738235494380437, -2.5538907197110783 -1.273193003517307, -2.6155742583648998 -1.2703934258082517, -2.677114127424386 -1.2653371656750698, -2.738443392056319 -1.2581672092145533, -2.7995443593597322 -1.2492654048334282, -2.860441607031085 -1.2390636874101262, -2.9211693985079705 -1.2278994105082186, -2.981751668748952 -1.215971540098261, -3.0421974775030547 -1.2033705211331958, -3.1025093162047357 -1.1901432441640434, -3.1626854197639864 -1.1763113875777897, -3.2227145511044695 -1.1618550932012288, -3.282572340665812 -1.146704671167488, -3.342224288233475 -1.130762548176426, -3.4016309677450534 -1.113929489715094, -3.4607629157523907 -1.096155481581529, -3.5196192921277554 -1.0774891390992167, -3.5782408212972885 -1.0580986114708175, -3.636694818805167 -1.0382089256790306, -3.695058835869583 -1.0180569411339064, -3.7534206288608134 -0.9978985632995017, -3.8118830450836674 -0.9780335731553416, -3.870558121288217 -0.9588047147366615, -3.9295320573814543 -0.9405132473585449, -3.9888410113011346 -0.9233381023834324, -4.0484726759622545 -0.907319296471527, -4.108394524747439 -0.8924227830402562, -4.168582123226979 -0.8786391387829948, -4.229016828903771 -0.8659832750478887, -4.289675778250297 -0.854449682868123, -4.350524706342429 -0.8439654778464831, -4.411523057128424 -0.8343898589399935, -4.472629704854927 -0.825531963517409, -4.533806464691032 -0.8171730144792861, -4.595017461461593 -0.8090693341624551, -4.656223370653704 -0.8009265768410588, -4.717377963957373 -0.792406413420954, -4.7784373392915755 -0.7832288912893918, -4.839373915749267 -0.7732673666893278, -4.900189756781894 -0.7625948022191461, -4.960917094175776 -0.7514294840638678, -5.021591644914672 -0.739981335371556, -5.082229356140441 -0.7283396968919259, -5.1428167930022965 -0.7164389849856164, -5.203323625531089 -0.7041346133309478, -5.263717954314616 -0.6912894348933158, -5.323976645784862 -0.677822051408892, -5.38409119384134 -0.6637251761662051, -5.4440696198928515 -0.6490602562600124, -5.503935009773609 -0.6339407321618047, -5.563725033465798 -0.6185258984878332, -5.6234859831413315 -0.6029989641568541, -5.68325892498389 -0.5875181947003455, -5.743057298542918 -0.5721360488736721, -5.802864419628002 -0.5567877981503144, -5.862650584117975 -0.5413582425333685, -5.922396534055726 -0.525773606396989, -5.982113925749558 -0.5100800068932094, -6.041848281973883 -0.4944507904254693, -6.10166935924408 -0.4791565868544912, -6.161658550082841 -0.4645350007353371, -6.221893394513363 -0.4509582147711131, -6.282425009796903 -0.4387715349425508, -6.343261381322351 -0.428211005763988, -6.4043669458516135 -0.4193376529773721, -6.465676656736347 -0.4120110281856059, -6.527122858049384 -0.4059374449292487, -6.588654803327006 -0.40080629577539, -6.650242598888577 -0.3963985343390057, -6.711873485011608 -0.3926415818302177, -6.773543771239693 -0.3895969582410151, -6.835249163986816 -0.3873734812503334, -6.896981879079201 -0.3861079731462858, -6.958727562358358 -0.3860036409583898, -7.020459184760378 -0.3873583457400753, -7.0821273937303175 -0.390467548750299, -7.143669663808569 -0.3954862845982746, -7.205029293721799 -0.4023897997208892, -7.266170801582261 -0.4110104733340713, -7.327081499846217 -0.4211328334432112, -7.387756463237517 -0.4325826307980948, -7.448197317982975 -0.4452091989310942, -7.508420271101267 -0.4588365354112108, -7.568463330902198 -0.4732347993508827, -7.628368847214301 -0.4881949619665566, -7.688156758577101 -0.503618356781623, -7.747810929332103 -0.5195511438764201, -7.807282218118502 -0.5361542622256559, -7.866511480875602 -0.5536012656947518, -7.9254475209907955 -0.5720151274487791, -7.984036214881522 -0.5915062086904596, -8.042206983859822 -0.6122118899392042, -8.099873221775526 -0.6342844570543731, -8.156962532477687 -0.6578086962539721, -8.213439846861068 -0.6827666793100567, -8.269314619886751 -0.709045578864746, -8.324633501791329 -0.7364746018424684, -8.379461026175516 -0.7648727750831872, -8.433868773752405 -0.7940667981610641, -8.487942618248155 -0.8238745364478977, -8.541792193736258 -0.8540852030013468, -8.595548676021835 -0.8844611994310038, -8.649339308034977 -0.9147767015311243, -8.703262540765632 -0.9448556657891349, -8.757366079167504 -0.9746092273184965, -8.811634158977396 -1.0040614823591283, -8.86600689200099 -1.033320107928379, -8.920416558951974 -1.0625099279788415, -8.974797429248438 -1.0917533806737216, -9.029075622945733 -1.1211870482675366, -9.08315313072949 -1.150988127413517, -9.136927356050322 -1.1813329751931811, -9.190327550749958 -1.212331475894593, -9.243343675192294 -1.2439823604228002, -9.296033333860944 -1.2761735020581295, -9.348489898997995 -1.308743094781677, -9.4007944083255 -1.3415561994495426, -9.452986805040812 -1.3745473074697996, -9.505064107552263 -1.4077198178516876, -9.557011676038021 -1.4410951224075133, -9.608818174473466 -1.4746889991280994, -9.660474336739936 -1.5085135919022385, -9.711966243456676 -1.5425877278037827, -9.763269988116274 -1.576944560039666, -9.814352532903687 -1.6116294545424685, -9.865178417351771 -1.6466893795178574, -9.915720182647904 -1.6821577119734157, -9.965968852559383 -1.7180400419211777, -10.015932056913332 -1.754318817085338, -10.06561334207681 -1.7909827299642809, -10.114992957238478 -1.828051940220642, -10.164016573465295 -1.8655908258103884, -10.212599946652503 -1.903697952817298, -10.260655345261465 -1.9424687550242807, -10.30812131705829 -1.9819590972708498, -10.354981519150023 -2.0221663987193357, -10.401260923287488 -2.0630407778301603, -10.446982300796577 -2.1045384336926554, -10.492142143722658 -2.146646467591753, -10.536705847229037 -2.1893849471630347, -10.58061416804401 -2.2327966194425173, -10.62378966146379 -2.276937361315606, -10.666136145752525 -2.3218741736555915, -10.707536190801811 -2.367684575472151, -10.7478520909627 -2.414452311230661, -10.7869373842357 -2.4622535867523547, -10.824671172297414 -2.5111286969868036, -10.86099326866016 -2.561061980251987, -10.895923860890186 -2.6119782717262123, -10.929561642943888 -2.6637572809520873, -10.962053162690044 -2.716262988981679, -10.993545530700969 -2.7693738786168898, -11.024136149157057 -2.823009028476087, -11.053829045129357 -2.8771463973656886, -11.082516779106424 -2.931823346462999, -11.110026694423981 -2.987102370353109, -11.136172364521862 -3.0430398141922836, -11.160787391625188 -3.0996678304300316, -11.183737128056533 -3.156991170750833, -11.204933422736968 -3.214985650617481, -11.224360787757602 -3.273596428559153, -11.2420825224838 -3.33274516396776, -11.258210420021266 -3.392347890746373, -11.272817905516648 -3.45234151672711, -11.285885580117604 -3.512689143967378, -11.297340775791442 -3.573363561618735, -11.307143462706406 -3.6343268612074464, -11.315377483211448 -3.6955213037847465, -11.322279060815445 -3.7568801082266137, -11.328206882902396 -3.818340442758256, -11.33356500062324 -3.8798526597877627, -11.338693446850137 -3.9413844330460943, -11.343789105772396 -4.002918898497819, -11.348899508053933 -4.064452157356921, -11.353935601525752 -4.1259915490980035, -11.358691536254614 -4.18755329512826, -11.362874389166768 -4.249156941053058, -11.366188456846992 -4.3108133086092035, -11.368458275814513 -4.3725171550647906, -11.369711598530953 -4.434249940768781, -11.370169454661275 -4.495993515058273, -11.370113873073368 -4.5577387034407195, -11.36980325700794 -4.619483043732357, -11.369435188023138 -4.6812270437884225, -11.369137884871686 -4.742971437799322, -11.368969765359088 -4.804716315530911, -11.368935980462151 -4.86646141451268, -11.36900231804514 -4.9282064858673476, -11.369110671946608 -4.989951492566592, -11.36920168209651 -5.051696529619233, -11.369240643645307 -5.113441617993187, -11.36922833372839 -5.175186721432093, -11.369194822244395 -5.23693181423272, -11.369175829111574 -5.298676913495425, -11.3691783117456 -5.3604220157767, -11.369187591697163 -5.422167117253647, -11.369189825479868 -5.48391221943652, -11.369187761467638 -5.5456573215842475, -11.369186830195394 -5.60740242373538, -11.369187374186811 -5.669147525921294, -11.369187684681908 -5.730892628092474, -11.369187548406732 -5.7926377302681615, -11.369187452613216 -5.854382832444083, -11.369187478163012 -5.916127934619422, -11.369187517089419 -5.977873036795057, -11.369187514404707 -6.039618138970626, -11.369187482721278 -6.101363241146235, -11.369187463116575 -6.163108343321616, -11.36918754268145 -6.224853445497688, -11.36918763022835 -6.286598547672582, -11.369187412055693 -6.348343649846221, -11.369186972815802 -6.410088752031362, -11.36918777891881 -6.471833854174759, -11.369189205076342 -6.533578956371388, -11.369187476176428 -6.59532405853837, -11.36918020781068 -6.657069160159071, -11.369176308814648 -6.718814262624463, -11.369187786458074 -6.780559363384589, -11.369217188076751 -6.842304458852452, -11.369246845483895 -6.9040495537317526, -11.369238323712542 -6.965794659643713, -11.369159426039037 -7.02753970811352, -11.369015575324713 -7.089284646988609, -11.36886328241064 -7.151029560346738, -11.36879329910824 -7.21277463593417, -11.36889427946848 -7.274519677261293, -11.369223408818941 -7.336263908592263, -11.36976474819592 -7.398006659186637, -11.37037936045652 -7.45974867883708, -11.370778135427063 -7.5214926725199325, -11.370562298868212 -7.583237785060053, -11.369288205487035 -7.644970306043965, -11.366553545080947 -7.7066561430268585, -11.362106972796898 -7.768242195430343, -11.35591566550725 -7.829677199393957, -11.348158078401454 -7.8909341496477134, -11.339168591092585 -7.9520218560783125, -11.329339579610217 -8.012979808811863, -11.31898995688636 -8.073851467133816, -11.308290353718451 -8.13466251107189, -11.297254159842488 -8.195413371162426, -11.285772415624047 -8.256081697162399, -11.273673886468709 -8.316630174860684, -11.260815137684947 -8.377021658777009, -11.247164109461211 -8.437239144511635, -11.232832259314868 -8.497298072364998, -11.218026149618693 -8.557241755962508, -11.202948518253768 -8.617117686748484, -11.18773973762587 -8.676960405406986, -11.172450146088773 -8.736782527891751, -11.15702725085712 -8.79657042494866, -11.141300814321141 -8.856279391500328, -11.125016737583246 -8.915838670930686, -11.107949084923876 -8.97517827909327, -11.09002875311096 -9.034265992230242, -11.071415518939972 -9.093138880865753, -11.05241542569216 -9.15188809174839, -11.033380883986846 -9.210626007016987, -11.014642417783913 -9.26945913765765, -10.996476999148117 -9.328472043271836, -10.97908152113256 -9.387716023678017, -10.96247928605759 -9.447187940578942, -10.946573966901184 -9.506849309197284, -12.149188055140613 -9.937327451890141, -12.172412351038215 -9.868604481164708, -12.195676697290514 -9.799894874546949, -12.218613566197005 -9.731075473772663, -12.241088474754756 -9.662103682775045, -12.263212205640341 -9.59301847433611, -12.285204239226509 -9.523891269015246, -12.307307733844093 -9.454799606298899, -12.329726600107714 -9.385809579919282, -12.352567199577637 -9.316958106820419, -12.375750865478315 -9.248221349207823, -12.398989490718188 -9.179503119890608, -12.421875084111507 -9.110666530261193, -12.444013609227358 -9.041585862481469, -12.465077192719248 -8.972169624849132, -12.484838403879316 -8.902371604489117, -12.50327077934784 -8.832210967972577, -12.52053984319016 -8.761754898913583, -12.53685992439109 -8.691073183454263, -12.552340914431309 -8.620202999193248, -12.566978725657703 -8.549153831555628, -12.580784299624028 -8.47793840662275, -12.593888312221281 -8.406590486910417, -12.60646779623149 -8.335148312390581, -12.618690061173934 -8.263644196804753, -12.630793790954748 -8.19211993387356, -12.643188951372263 -8.120645497970374, -12.656293269511812 -8.049297559990025, -12.67035043208136 -7.978131330549541, -12.68533975974223 -7.907155562392461, -12.700974763002352 -7.836319222055423, -12.716781785433044 -7.765521224668987, -12.732225683676049 -7.694642989661331, -12.746828510970335 -7.623586521689319, -12.760323718481775 -7.552311546691543, -12.772722444488977 -7.480837571229109, -12.784251254051759 -7.409218221996233, -12.795254000756026 -7.3375162906079305, -12.806116338431263 -7.265793007239402, -12.8171609190272 -7.194097533437973, -12.828505892145428 -7.122449017790104, -12.840060532761397 -7.050833976004759, -12.851602944088333 -6.979216967659827, -12.86285689218131 -6.907554047228352, -12.873529786098652 -6.835802203542419, -12.883332019986362 -6.763926049558268, -12.892029396747441 -6.691907911604664, -12.89953484314611 -6.61975573801076, -12.905861310886454 -6.547490577959628, -12.911013344926408 -6.475132281324468, -12.914950089701062 -6.402697650547944, -12.917667453115648 -6.3302070801884645, -12.919289078308385 -6.257683865244888, -12.92005449185806 -6.185146589449019, -12.920244792355462 -6.112605603167398, -12.92012004479424 -6.040064529819823, -12.919875696989441 -5.967523781067016, -12.919615346131616 -5.8949830856807575, -12.919383968473891 -5.8224422908290325, -12.919221594017783 -5.749901306205913, -12.919164623755977 -5.677360166666454, -12.919221646790483 -5.604819021503775, -12.919377485623619 -5.5322780239996225, -12.919625950190204 -5.459737283767096, -12.919960707947286 -5.387196895990483, -12.920308098302836 -5.314656564080724, -12.920479096940229 -5.242115539133833, -12.92018463056241 -5.169574877225741, -12.919099454382405 -5.097041661415973, -12.916947856487393 -5.024532064400795, -12.913597874794888 -4.952067997771005, -12.909142166439764 -4.879663641976445, -12.903851113213339 -4.8073155298272985, -12.898051965750588 -4.73500648011137, -12.892024832335311 -4.6627161343125705, -12.885958879032692 -4.590429037539926, -12.879954957033801 -4.518136760003447, -12.87404647108867 -4.445836618115139, -12.868254044370333 -4.37352708150441, -12.86260547767652 -4.30120617048264, -12.857112649692443 -4.228873259487095, -12.851745502351788 -4.156530917435823, -12.84643078751291 -4.0841847100879285, -12.841041410156132 -4.011844012489409, -12.83538323494842 -3.9395237941487324, -12.829206703562255 -3.8672459242198554, -12.82223745834732 -3.795040160418951, -12.814248328992011 -3.722940001999554, -12.80516844301007 -3.650969073438671, -12.795144822240434 -3.5791236344529955, -12.784444157414214 -3.507375971101244, -12.77337133275104 -3.4356848322978286, -12.762223976202417 -3.3640052895256956, -12.751236474923694 -3.2923010657062646, -12.74051661847656 -3.220556321793362, -12.730029315678951 -3.1487772449304865, -12.719595687851838 -3.076990326930532, -12.708904852620726 -3.005241166385464, -12.697517702361168 -2.9335989913772793, -12.684878048913717 -2.862167004988917, -12.670388023312347 -2.7910866227225357, -12.653575325393613 -2.720519032029303, -12.634220220376404 -2.6506059549633183, -12.612338120093007 -2.581442535656214, -12.588175013321623 -2.5130426958926995, -12.56216378225827 -2.4453243632883295, -12.534786133921028 -2.378147460195624, -12.506407309665827 -2.3113875081954802, -12.477273703261725 -2.2449535635709403, -12.447560680964143 -2.178776736818104, -12.417331657218423 -2.1128339901553206, -12.386489494865042 -2.0471757679068032, -12.354814394155362 -1.9819152023687894, -12.322091662193797 -1.9171733981152965, -12.288215776578475 -1.8530274604782015, -12.253183812975573 -1.789505507405485, -12.21704783879128 -1.7266050700817588, -12.179880653712766 -1.664308455144713, -12.141763565787167 -1.6025885317513267, -12.102785193160912 -1.5414089680486407, -12.063041500056416 -1.4807238460418626, -12.022641684169377 -1.4204736231333965, -11.981737301596718 -1.3605648633477436, -11.94054451078703 -1.3008540476511092, -11.899322354862418 -1.24116356862643, -11.858315489421868 -1.181324934326405, -11.817710934623983 -1.1212125124347994, -11.777633654429883 -1.0607472424202284, -11.738137428692156 -0.9999009048694493, -11.69915701887367 -0.9387228500051727, -11.660454824150776 -0.8773683841518307, -11.621634899326766 -0.8160884178841424, -11.58225933311326 -0.7551637275217984, -11.541969096000276 -0.694839758676437, -11.500495619182148 -0.6353229071105758, -11.457669070260888 -0.5767721567266373, -11.413446052001305 -0.5192686944577686, -11.367917521117507 -0.4627933334903305, -11.321264359309366 -0.4072437061666078, -11.273688439766735 -0.3524824791779957, -11.225369237025586 -0.2983760573080421, -11.17643847484704 -0.2448220892128308, -11.126951453943128 -0.191781749299519, -11.07687204663595 -0.1393003440138071, -11.026091653861165 -0.087496740438159, -10.974476226691287 -0.0365248859729523, -10.92191898876727 0.0134753243248014, -10.868368614204662 0.0624105219333076, -10.813820044670841 0.1102304906067756, -10.758302253755906 0.1569217129922007, -10.70188084348364 0.2025167795556278, -10.644650196001098 0.2470917214902694, -10.586686865390147 0.2907096746644751, -10.528028648633011 0.3333884822767626, -10.468691524005365 0.3751182392927098, -10.408689706179905 0.4158864957488262, -10.348040100320263 0.4556846492316248, -10.28676503319838 0.4945128979579579, -10.224920248953312 0.5324268277831269, -10.162629481598033 0.5696033923098879, -10.100077795091792 0.6063392168485626, -10.037466264263099 0.6429727458464191, -9.974965883255313 0.6797956435030487, -9.912699780038375 0.7170134513425642, -9.850733145270965 0.7547277014207322, -9.789053398410916 0.7929092934883709, -9.72757489704755 0.8314141008228614, -9.666164594544727 0.8700275274369589, -9.604669010864013 0.908504993511093, -9.542929212945074 0.9465895220105359, -9.480790093563144 0.98401925694802, -9.41811838441253 1.0205504077572158, -9.354818883269628 1.0559827732385076, -9.290835498445674 1.0901649777997253, -9.226135861375795 1.1229714933069523, -9.160688984013232 1.1542610376805276, -9.094453664486435 1.1838457180110258, -9.02739831763934 1.2115216081949651, -8.959535417559147 1.2371536592833976, -8.890927686401845 1.2607197316625278, -8.821673799222324 1.28231276676443, -8.751893096326741 1.302136405336026, -8.681710935136827 1.3204869833975892, -8.611222028300785 1.337621454111851, -8.540472063447135 1.353643833123255, -8.469464293818874 1.3684825010217136, -8.398176129043678 1.381910067707025, -8.326582220213808 1.3936000675730815, -8.254684024181591 1.4032458546959534, -8.18252588705201 1.4107008364356104, -8.11017812099615 1.4160076817829772, -8.037714076198524 1.4193667392307152, -7.965193748135029 1.4211298710947786, -7.892655229365602 1.4217726069758707, -7.820114045220992 1.4217885681355173, -7.747573188155029 1.4215720893575932, -7.67503237205484 1.4213509337558095, -7.602491399345808 1.4211828896651943, -7.529950372005205 1.4210431477136853, -7.457409307610963 1.420923317855295, -7.384868172417461 1.4208579297914363, -7.31232701247648 1.4208782281666466, -7.239785907436443 1.4209707906840183, -7.167244855230815 1.4210976678993, -7.094703847092632 1.4212479819467063, -7.022162946575923 1.4214426479240514, -6.949622130560518 1.4216667366030862, -6.877081069674965 1.421788755823589, -6.804540185208274 1.4215488461842065, -6.732005782606779 1.4205257897543986, -6.659501393504752 1.4182052574926824, -6.587073333552758 1.4141403901527396, -6.514788086398013 1.4080392413900364, -6.442727229754154 1.3996929988753912, -6.370974097389409 1.3890227912326785, -6.2995722088600745 1.3762123513073328, -6.228499751909422 1.3616854677791108, -6.157682235298863 1.3459646364918978, -6.087030465309061 1.329516025317479, -6.016477633999417 1.31264825999243, -5.946003300438946 1.2954554289513314, -5.875646223212354 1.2777881954389976, -5.805494116923187 1.259323754992729, -5.7356510162860594 1.2397225579664475, -5.66620416672385 1.2187598500207502, -5.597211499877154 1.1963473588309497, -5.52870190189444 1.1724995564871112, -5.460638404953206 1.1474075427043904, -5.3929045085302265 1.1214387166888746, -5.325360524364408 1.094980535934293, -5.257904413699183 1.0682991993176918, -5.190476704553212 1.0415461788549452, -5.1230259759815695 1.014851215267311, -5.055506803182587 0.9883298578144539, -4.9878925610218925 0.9620517717093697, -4.920157663395918 0.9360861585075089, -4.852256527225094 0.9105584726716626, -4.784135158731104 0.8856242210214109, -4.715772331009324 0.8613598304580434, -4.647190747612811 0.8377209684953922, -4.578449883094907 0.8145494942453966, -4.509642086221067 0.7915774352426713, -4.440884436185087 0.7684558465115822, -4.3722926558937845 0.744846513031919, -4.30393751657426 0.7205604636113804, -4.2358165785164275 0.6956251447478162, -4.167890354038304 0.6701641919858395, -4.100116397471035 0.6443008399686597, -4.032444038570794 0.6181727572279839, -3.964803467594015 0.5919625990446709, -3.8971339289117823 0.5658272942222912, -3.8294366163080737 0.5397640144612914, -3.761755431356951 0.513658890072174, -3.6941171285180268 0.487442856370215, -3.626520347050701 0.4611199334792309, -3.5589562805985064 0.4347131692653228, -3.4914123609692047 0.4082549179190736, -3.4238537355327523 0.3818342114492631, -3.3562412325711377 0.3555517114552938, -3.2885540285649473 0.3294621680342036, -3.220764145411576 0.3036404048679424, -3.152796239455675 0.27829091110395, -3.084530548911049 0.2537541421793025, -3.0158641090531084 0.2303617471226262, -2.9467450991749824 0.2083420540233231, -2.8771484267141925 0.1878812935922547, -2.8070595955295783 0.1691761435707194, -2.736488498606061 0.1523811175342561, -2.665482588703029 0.1375311428855553, -2.594101720100725 0.124603441078103, -2.522376100498412 0.1137462372422339, -2.450322688271862 0.1053334153809603, -2.377989608925878 0.0998121594187072, -2.305480110041607 0.0975837610258934, -2.2329477814346346 0.0988975414624106, -2.160560196878856 0.103650608728146, -2.0884152054153837 0.111233076984421, -2.016509874146651 0.1208240091160228, -1.9447947180163396 0.1317422777730421, -1.8732252352764527 0.1435769588422698, -1.801790927467363 0.156201734636797, -1.7305347295946432 0.1697966830006689, -1.6595561744785197 0.1847760825481275, -1.5889654783044485 0.2014869933783079, -1.5188173170374435 0.2199673844613241, -1.449068019702999 0.2399008301036274, -1.3795864119729078 0.2607465887564452, -1.3102052989798871 0.2819238447383887, -1.2407639371974422 0.302903652441539, -1.171120894692677 0.3232021674473919, -1.1012265664575853 0.3426225926205795, -1.031041851434488 0.3609589986482563, -0.9606733452560763 0.3785805083375119, -0.8901604571624953 0.3956145917750313, -0.8192258936058796 0.4109067839027781, -0.7495537780976659 0.4309530980398953, -0.6796704504260623 0.4504520799304272, -0.6084831939451132 0.4644259371523923, -0.5367519370821258 0.4752756836834512, -0.4651578530688563 0.4869551258077213, -0.3412996884499999 -0.8185139058999997))