POLYGON ((-2.482158805006529 -18.228349874665174, -2.415951006570209 -18.235162971754946, -2.3496803729694715 -18.241330215898653, -2.283372688923261 -18.24708932182587, -2.217043689668552 -18.25259487571964, -2.150701817323093 -18.257943871408138, -2.084355863214987 -18.26324167137223, -2.0180128854435857 -18.268576662417185, -1.951673517520935 -18.27395636643813, -1.8853373937700462 -18.279375918680113, -1.8190106607230139 -18.284909527489, -1.752708899365539 -18.290734986665917, -1.6864576622642529 -18.29711005257238, -1.62029417533665 -18.304341367989377, -1.5542653987910071 -18.31271442512479, -1.4884100413794163 -18.322356235063868, -1.422740618575955 -18.333192794792875, -1.3572406014319272 -18.3450094279121, -1.2918715147915814 -18.3575293364692, -1.226578222331656 -18.37043816608717, -1.1612929334529372 -18.383387744510067, -1.0959522248102243 -18.396054507597476, -1.0305244360268244 -18.408263461370897, -0.9650188859374511 -18.420048418712096, -0.8994724035566753 -18.431603132213418, -0.83393079187678 -18.44318543644448, -0.7684477214661017 -18.455094977653527, -0.703091601670504 -18.467683324699763, -0.6379376815008022 -18.481279343241713, -0.5730485625219893 -18.496088571764766, -0.5084576379127497 -18.51214868353396, -0.4441655401681622 -18.529365588750444, -0.380143484712285 -18.54756054573372, -0.3163391881420636 -18.566504645307187, -0.2526780411744294 -18.585924256341723, -0.1890708295271104 -18.60551957451196, -0.1254283546635452 -18.62500005815412, -0.0616772724857729 -18.644122388332207, 0.0022226644963877 -18.662741111365428, 0.0662644118088782 -18.680866019221632, 0.130404173192168 -18.6986410242639, 0.194586978907869 -18.71625976393864, 0.258775027501715 -18.733859400785807, 0.322963616614713 -18.751457068754508, 0.3871652286925665 -18.769007165896188, 0.4513927736688984 -18.786462141312033, 0.5156684080832351 -18.803739305297185, 0.5800303228252697 -18.820692231916297, 0.6445225268169216 -18.837142795128422, 0.7091759313169601 -18.852948130011438, 0.7740042742476364 -18.868020103659948, 0.8390161455387579 -18.88227974896301, 0.9042166920089453 -18.895650321378863, 0.9696054567803328 -18.908068011360548, 1.0351769838665283 -18.919481484817986, 1.1009229944505488 -18.929842961114606, 1.166829268449954 -18.93913033183759, 1.2328708706258138 -18.94739967745927, 1.2990134426832105 -18.954818833791265, 1.3652245434313153 -18.961597930173504, 1.4314851736353886 -18.967874010894093, 1.4977897094968304 -18.973668001068734, 1.5641393420213328 -18.978921068702075, 1.6305391411340868 -18.983498018397675, 1.6969924612395706 -18.987217135160755, 1.76349412900878 -18.989940412382605, 1.8300292834052505 -18.991661684790884, 1.8965811832387074 -18.992509006194478, 1.9631381637221725 -18.992681904785712, 2.029694866290097 -18.992427349500833, 2.096250706872577 -18.99200888543349, 2.162806866050429 -18.991649285040417, 2.2293637749694626 -18.991468754136474, 2.2959209168614283 -18.991463372626924, 2.3624779930150006 -18.991557984208505, 2.429035034998748 -18.991672431781225, 2.4955921305497686 -18.991748292970534, 2.562149270023393 -18.991761995692507, 2.6287064031450127 -18.991732223744275, 2.6952635370691933 -18.991703616904175, 2.7618206759225243 -18.991698116680524, 2.8283778151349863 -18.99170811634559, 2.894934953653712 -18.991721014721733, 2.9614920929433004 -18.991723848320387, 3.028049229232698 -18.991702069505838, 3.0946063606614254 -18.991668091805632, 3.1611635004388425 -18.991668267941375, 3.2277206188146517 -18.991721045295513, 3.2942777082295325 -18.991803604193834, 3.3608348010148834 -18.991882345398444, 3.4273919255348453 -18.99192779483696, 3.493949060759135 -18.99188675915569, 3.560505949067325 -18.991704142207425, 3.6270623603823764 -18.991392917780747, 3.693618679487866 -18.991059671243725, 3.760175617925685 -18.99088822714258, 3.8267324171547434 -18.991120750759414, 3.8932832068615024 -18.992059621867988, 3.959811303353504 -18.994039654007487, 4.026288011362662 -18.997319216929004, 4.092678099451352 -19.00204168804651, 4.158941240595228 -19.008297418539257, 4.225031385164107 -19.016174577921042, 4.290905403901272 -19.025690516416258, 4.356538500443015 -19.036746568644897, 4.421916031247098 -19.049224800300397, 4.487029751263163 -19.06301256498688, 4.551893427414355 -19.077932557253124, 4.616556845488873 -19.093696832028197, 4.68108768097091 -19.109995021054047, 4.745540170129203 -19.126600178373323, 4.80995506042407 -19.143350581353616, 4.8743700416410904 -19.160100604344535, 4.938815026399659 -19.176734809013958, 5.0032970096749025 -19.19322503240624, 5.067801045949737 -19.20962876529294, 5.132316675442901 -19.225986838882285, 5.196843435541353 -19.242300933256722, 5.261375694739828 -19.258593291151932, 5.325899181780433 -19.27492032662556, 5.390406798772154 -19.291309968038107, 5.4549118532460525 -19.30770969440132, 5.519438517413665 -19.32402417655738, 5.584024638277376 -19.34010200907905, 5.648736712095531 -19.355665732829795, 5.713659544111977 -19.370325457843922, 5.77885490772545 -19.383723031976803, 5.84432649878671 -19.395697840516405, 5.910038237159204 -19.406275637809888, 5.975936683057708 -19.41561725329406, 6.041952679869767 -19.42408961580827, 6.1080039993396325 -19.43227956807509, 6.174011821273482 -19.44081381058888, 6.239922940948295 -19.45006553844528, 6.305721827065259 -19.460084284857714, 6.37142216620189 -19.47072994320559, 6.437054382921676 -19.481787603152004, 6.502653787144152 -19.49303798164372, 6.568246852343588 -19.504325254830533, 6.633836665366545 -19.515631426241324, 6.699407568242349 -19.52704680819958, 6.764942070940151 -19.53866936387325, 6.830424234027595 -19.55058343457579, 6.895838919784994 -19.562862422653016, 6.961184802642916 -19.57550252166744, 7.026499734515419 -19.588301528795334, 7.091845992223094 -19.600939745143528, 7.1572635804216835 -19.61320316760017, 7.222758149011915 -19.625049009687107, 7.288318400326692 -19.636525517600173, 7.353933370582268 -19.647684899917618, 7.419589927767497 -19.65859681368072, 7.485269626616816 -19.669368594650606, 7.550958125053746 -19.680086519290505, 7.616650995691537 -19.690777616438652, 7.682348774476009 -19.701438514864503, 7.748048208509227 -19.71208920454363, 7.813741646039867 -19.722776817043002, 7.879417991403701 -19.733569063449526, 7.9450613131498065 -19.744560385716422, 8.010659414105183 -19.755818336732506, 8.076218080899663 -19.767303866390733, 8.141765887109857 -19.77885105143346, 8.207338762365147 -19.790255139011855, 8.27296672081043 -19.801338063589203, 8.3386811325297 -19.81189719926501, 8.404515852304918 -19.82167788400474, 8.470491744360821 -19.83045699721586, 8.5366005754329 -19.8381716322613, 8.602814961283801 -19.844919890459543, 8.66911243784798 -19.850795888742763, 8.735479180092833 -19.85582918259172, 8.801905643347576 -19.860001604235574, 8.868382896524603 -19.8632661467068, 8.934900693799467 -19.865562307658582, 9.001445355584744 -19.866864019669382, 9.068002111183576 -19.867169128295636, 9.134555571537815 -19.866434925684114, 9.201086866994928 -19.864569682002756, 9.26757367403792 -19.861501554483354, 9.333994544036996 -19.8572389730732, 9.400329547999078 -19.851800139618238, 9.466547731423583 -19.84508550819752, 9.532604757364131 -19.836938112738245, 9.598458119770953 -19.82728010562533, 9.664078230185506 -19.816147452544858, 9.729444733166774 -19.803611651137228, 9.794543668156008 -19.78975403771773, 9.859385615937132 -19.77474027434012, 9.92400624407684 -19.75880102221303, 9.988453306085926 -19.742174487935046, 10.052784003369652 -19.725103447077274, 10.117077108372513 -19.70789161089614, 10.181435188385613 -19.69092384082629, 10.245956661462495 -19.67458799613312, 10.310711773117378 -19.659203808776862, 10.375734064036715 -19.644991290023622, 10.441013604993207 -19.63201085263555, 10.506490975822954 -19.62006973573981, 10.572070793219247 -19.608705509674166, 10.637652049217532 -19.597349204572524, 10.703146292536303 -19.58550125291636, 10.768481519546986 -19.572805398154806, 10.833611390208816 -19.559094443687083, 10.898544107424552 -19.544478971173476, 10.963376695304156 -19.529426043780536, 11.02826763893275 -19.514625327006357, 11.093362396199627 -19.500748511523224, 11.158746027399706 -19.488301768515225, 11.22443650054707 -19.477590486845124, 11.290398633051252 -19.468703806178695, 11.35655804769245 -19.461435279523805, 11.42283365914036 -19.455316388670028, 11.489162217432344 -19.449803888032548, 11.55549898151982 -19.444391710087025, 11.621804707749495 -19.43861141018909, 11.688033792190181 -19.43200809898114, 11.754130100748549 -19.4241848655838, 11.820026740268483 -19.414824940598727, 11.885635418740797 -19.403621690321206, 11.95084379927443 -19.390284856250354, 12.015540437697638 -19.37465115126689, 12.079656968373325 -19.35678773018209, 12.14318812852203 -19.336944081299713, 12.206188873871545 -19.315477373860293, 12.26878876754123 -19.2928686165114, 12.331183769681408 -19.269701093138796, 12.393580439515619 -19.246538557894983, 12.456122078889909 -19.22376996656165, 12.518868387590018 -19.201571575639196, 12.581823151859348 -19.179971611468307, 12.644945498343683 -19.15886646011698, 12.708152384387136 -19.138015802410703, 12.77133328911619 -19.117086751975148, 12.834380360967119 -19.095757611841748, 12.89721178457719 -19.0738011201623, 12.959769093835282 -19.051075306477916, 13.022018802287526 -19.027520129652416, 13.08396401092091 -19.003175294720805, 13.145642510585978 -18.978162645179623, 13.207101545200507 -18.952615631976826, 13.268378093218555 -18.926634045727326, 13.32952729144935 -18.900354289996486, 13.390662430917628 -18.87404152002485, 13.451946672581041 -18.84807802853159, 13.513544277898477 -18.822866520619332, 13.575578121136667 -18.798747580813103, 13.63813164560153 -18.776009503132386, 13.701240080276705 -18.75486104618761, 13.764859650295987 -18.735304234102127, 13.828868502023555 -18.71706161345382, 13.893103543923859 -18.699633895154324, 13.957399447151829 -18.68243258310549, 14.021593400827115 -18.66485337816182, 14.085529980882008 -18.64635999140067, 14.149099877055678 -18.626643070372698, 14.212271558543971 -18.60568456770004, 14.275086315611833 -18.58368007776005, 14.337624331473345 -18.56090148569444, 14.399985511319416 -18.537643452681717, 14.462298332479142 -18.514255923197574, 14.524705449925756 -18.491121327811193, 14.587319442640679 -18.468552478066734, 14.65019641523931 -18.446726642291978, 14.713356631729814 -18.42573440490099, 14.776812233013246 -18.4056527402796, 14.840543121048444 -18.38646322963846, 14.904483310958147 -18.3679826689473, 14.968552566292207 -18.34995520413407, 15.032698463411714 -18.332202513847776, 15.096903645618688 -18.314665444253908, 15.16115853326379 -18.297311393370947, 15.225461662936677 -18.280136888929995, 15.289832337261954 -18.263217233295528, 15.354304536274428 -18.246688651146105, 15.41890978356487 -18.230687769349405, 15.4836708214632 -18.215329372377614, 15.54861142570937 -18.200748375036294, 15.613750625709281 -18.18708224190929, 15.679088098879653 -18.174397414364247, 15.744609987647598 -18.16270216133024, 15.810306105108568 -18.152029214413652, 15.87617292415977 -18.14246522929425, 15.942192462645075 -18.134021531629912, 16.008323959297776 -18.12650460624387, 16.074522753903025 -18.119605983580403, 16.140760388875684 -18.11309202716891, 16.207030202624534 -18.106913921975554, 16.27333980617486 -18.101178172291853, 16.339704119651387 -18.096112079820056, 16.406137461554724 -18.09204684487287, 16.472639885318785 -18.089335623125777, 16.53918910454548 -18.08826015625505, 16.605743337716728 -18.088973971100284, 16.672254160939907 -18.09147784731502, 16.738684716472836 -18.095589008526677, 16.805020609109256 -18.10101663096954, 16.871262712867253 -18.107488447463602, 16.93741079129994 -18.11485782771093, 17.003456569473308 -18.123094096925524, 17.03260969674902 -18.865767852353127, 16.964474969116424 -18.86889500918285, 16.896379266383846 -18.87277249240097, 16.828321105269072 -18.8772657721157, 16.760299330381386 -18.882277385009008, 16.692315869242098 -18.887784699390565, 16.624381464753007 -18.89386820425529, 16.556521890044984 -18.900739387381723, 16.488779553949115 -18.90868257022431, 16.421201459935908 -18.917921709789383, 16.353825304681205 -18.928534037195867, 16.286673947694986 -18.940486261234117, 16.21975578464218 -18.953679984279933, 16.153049189676523 -18.967905242709282, 16.086507648457435 -18.982882421035782, 16.020085934571856 -18.998381911310236, 15.953772100748576 -19.014336871111663, 15.88758589663054 -19.030813290963465, 15.82155682738327 -19.047908585602816, 15.755705277912169 -19.065675643456302, 15.690033976514968 -19.08409765385971, 15.62452862847463 -19.103101018790866, 15.559153508042593 -19.122547692592875, 15.493861933201893 -19.1422728806476, 15.42862237168606 -19.162169341457204, 15.363445969540063 -19.182271880595497, 15.298373899116159 -19.202709607993246, 15.233446023304388 -19.223601173768596, 15.168700685425568 -19.245051759306733, 15.10417521044142 -19.267155187208633, 15.039876145930993 -19.2899082513174, 14.97573231370517 -19.313095601307708, 14.911621712144772 -19.336374391015923, 14.847432673968026 -19.35943599171292, 14.783115577040043 -19.382138125478658, 14.718681473834373 -19.404506010388868, 14.654157591727747 -19.42661340085636, 14.589586886929723 -19.448583771916926, 14.52504963053271 -19.470652133838072, 14.460670117975972 -19.493177264111704, 14.396560169057155 -19.516458289586176, 14.332768591226984 -19.54059837871818, 14.269289483893854 -19.56554851033185, 14.206087088027617 -19.59119124274419, 14.143108932874123 -19.617379566685383, 14.080283224326513 -19.64393155372832, 14.017559851000225 -19.67072433005979, 13.954944431507794 -19.697768412366525, 13.892492624768074 -19.725188360897754, 13.830254164230741 -19.75308913506664, 13.768232449387735 -19.781468488840016, 13.706406829641951 -19.810272596575466, 13.644767553850421 -19.83947321195945, 13.5833234484046 -19.869082366100578, 13.522052618729006 -19.899048219514547, 13.46086903294168 -19.929191979547017, 13.399674028121815 -19.959312351035315, 13.338405246412652 -19.98928246957297, 13.277041809450067 -20.019058302580007, 13.215557371403863 -20.0485835617186, 13.153915582778133 -20.07777882341059, 13.092094453541057 -20.106592458004506, 13.030100808187742 -20.135033006271296, 12.967956486542406 -20.163142770860603, 12.905667676724738 -20.190930917640486, 12.843235461845385 -20.218395216229297, 12.780686981404012 -20.245593791655804, 12.718092249725707 -20.272685627054642, 12.65554077057159 -20.299877262872762, 12.59309419478894 -20.327308934279092, 12.5307810313102 -20.35504238275939, 12.468599391177548 -20.383069448264813, 12.406506619108406 -20.41129272999806, 12.344389117838219 -20.439461819443206, 12.282082787228783 -20.46721106243008, 12.219427141980253 -20.49416256687526, 12.156299183254532 -20.51998928188373, 12.092616311207026 -20.54441688146319, 12.028328922815477 -20.56720664157414, 11.963436603217879 -20.588211374823274, 11.897998620630124 -20.60744948718568, 11.832123638071492 -20.625131872659857, 11.765936943158753 -20.64160727710295, 11.699545783989512 -20.657237733559533, 11.633035014626053 -20.67235058308604, 11.566475058837966 -20.687244954125557, 11.499925494674251 -20.70218568629391, 11.433426079026336 -20.717348143276887, 11.366994636694963 -20.73280570915649, 11.300627271803226 -20.748535966227205, 11.234287080586371 -20.764380572213383, 11.16789520322657 -20.78000735739622, 11.101348638400644 -20.794963484784603, 11.034558587474114 -20.808792874046542, 10.967473011625057 -20.821110104461212, 10.900087032586754 -20.831663467649552, 10.832442180195839 -20.840403397150105, 10.764609907967026 -20.847540245120207, 10.69666094169122 -20.853463149887997, 10.628649225632913 -20.85861074190411, 10.560609750697232 -20.863375077431566, 10.49256531044003 -20.868068133667517, 10.424531148389768 -20.872907967612754, 10.356516428011782 -20.878013628094532, 10.288523472179307 -20.883401730519207, 10.220547933557723 -20.889004950678434, 10.152582218537683 -20.894726053383003, 10.084619864465505 -20.900486876523026, 10.016654648248538 -20.90621392413132, 9.94867781965122 -20.91180155167635, 9.880675811836811 -20.917074473028887, 9.8126311291431 -20.92176842287168, 9.744530515080491 -20.92556654480224, 9.67637582134394 -20.928222583161364, 9.608184809052613 -20.92968270700559, 9.539980027425404 -20.930135312762886, 9.471774207225064 -20.92991856989291, 9.40356970524588 -20.92944309440808, 9.33536424315088 -20.929144399890006, 9.267158613088316 -20.929442715501658, 9.198963465151376 -20.930693351217645, 9.13080003738108 -20.93311428991452, 9.062688091599986 -20.93670457070176, 8.994634075907037 -20.941261612065293, 8.926627579277712 -20.94647649691683, 8.85864998157616 -20.952054901917087, 8.79068337838299 -20.95776552485696, 8.72271480972353 -20.96345251837585, 8.654737574390518 -20.969035091977226, 8.58675049080792 -20.974496401054633, 8.518755534674728 -20.97985877237226, 8.450755786208841 -20.985160024972057, 8.382753912840812 -20.990433925424703, 8.314751536009666 -20.995701331579397, 8.246749487091535 -21.00097297110956, 8.178748605923426 -21.00625964453308, 8.110750625719161 -21.011583558232616, 8.042759052439264 -21.01698866090119, 7.974778075420487 -21.02252552450392, 7.906808653917457 -21.028202323538007, 7.838844187903176 -21.03393829229836, 7.770871441367279 -21.039575534226977, 7.702873811081181 -21.044904582734016, 7.634835271078142 -21.049684628365643, 7.566744713801439 -21.053659557611915, 7.49860293486656 -21.05662638445581, 7.43042324001329 -21.058536295808455, 7.362223906574524 -21.059517119644962, 7.294018358410775 -21.059809288523006, 7.2258124118700735 -21.05966034691826, 7.157607234853626 -21.05930415853967, 7.0894021175323925 -21.05894446108877, 7.021196417830985 -21.058714538969515, 6.952990384878565 -21.058636221025814, 6.884784304914532 -21.05865108854211, 6.816578236808754 -21.058685237021173, 6.748372162469051 -21.05868613381585, 6.6801660973329104 -21.05864720827406, 6.611960017255123 -21.0586258504998, 6.543753999774403 -21.05872096865394, 6.475548439579277 -21.058984259619507, 6.407343377367285 -21.059359002606826, 6.339138042570017 -21.059678195258325, 6.270931922353235 -21.059729092174866, 6.2027269801757114 -21.059312038584064, 6.134529179340133 -21.05823730398801, 6.06634927871051 -21.056338550094736, 5.998201042026984 -21.053522754036802, 5.9300945267265295 -21.04983513048122, 5.862032294106726 -21.045404471977697, 5.794013495698229 -21.040351650964062, 5.726039732161193 -21.034725626964672, 5.658119970130179 -21.02848067770593, 5.590273843934625 -21.021479198657907, 5.52252849658018 -21.013563314454323, 5.454902179677573 -21.004686573611497, 5.387388233789881 -20.99499320082252, 5.319952345324066 -20.984771797744752, 5.2525535334510405 -20.974308883924323, 5.185161102402443 -20.963805169857654, 5.1177626896277255 -20.95333985412342, 5.050367413808783 -20.942854418353427, 4.983007494036415 -20.932143446050972, 4.915733555675097 -20.920904442072512, 4.848597684051288 -20.908868476822818, 4.78163027764922 -20.895927021863752, 4.714816100816141 -20.882217715216164, 4.648078333536257 -20.868141361843033, 4.581293193961041 -20.85428973018223, 4.514332035574977 -20.841316187524797, 4.447109205797535 -20.82977087592428, 4.379614285738777 -20.819939783525083, 4.311896802059775 -20.811784006777764, 4.244022859179356 -20.805053973785675, 4.176049491834954 -20.79941973137368, 4.108015360092343 -20.794577645455327, 4.0399416514163615 -20.790328663277062, 3.971834607698432 -20.786649882006536, 3.903693349100036 -20.783673896924462, 3.835520344146035 -20.781541899125703, 3.767326387980192 -20.780245078044953, 3.699123376869024 -20.77958980095379, 3.630917809022779 -20.77931131440555, 3.562711883802951 -20.779169236618117, 3.49450595915981 -20.779025924641047, 3.426300004389082 -20.778903226035798, 3.3580938810033336 -20.778993139521013, 3.289890212490882 -20.7795875637637, 3.2216978044388207 -20.780961327401382, 3.153529741966015 -20.783248541623163, 3.0853935163001616 -20.786335327136033, 3.0172753765098714 -20.78979906108397, 2.949142091232208 -20.792961330918754, 2.8809675615956927 -20.795046628391376, 2.8127610292110257 -20.795419716748075, 2.7445723427435182 -20.79383410710608, 2.6764486804329093 -20.790462851173267, 2.608408244819028 -20.78570321212547, 2.540438344302165 -20.780029297433128, 2.472507265027806 -20.77391079655164, 2.4045792952365264 -20.76775721428152, 2.3366299355862665 -20.761845231333186, 2.268651727804959 -20.756274132151002, 2.2006515202979564 -20.750978426905444, 2.132641969008744 -20.745804447418948, 2.064632039506231 -20.740635514934347, 1.996625274610076 -20.735425040024314, 1.9286223696198705 -20.730164448403308, 1.8606236661072082 -20.724849816978914, 1.7926302800799034 -20.71946756291999, 1.7246448011245326 -20.71398626045883, 1.6566693929934566 -20.708381627260437, 1.5887015694061968 -20.702685580890822, 1.5207314868208637 -20.69701667969649, 1.452743800525439 -20.69156209181008, 1.3847245665673442 -20.68651610730808, 1.3166673716174178 -20.682010335871933, 1.248573638477224 -20.678095044957658, 1.1804501780314718 -20.67473697039086, 1.1123082294661737 -20.671780782523598, 1.0441631873433608 -20.668892760382995, 0.9760313856883789 -20.665711516395856, 0.907925472279467 -20.662013915159402, 0.8398506382961122 -20.65778342917229, 0.7718048616309162 -20.653109209003933, 0.7037827267204713 -20.64810286104467, 0.6357791850244456 -20.642850229885013, 0.5677934893907083 -20.637371497043606, 0.4998342293182181 -20.63157360998285, 0.4319263317104284 -20.62519869949606, 0.3641124042837999 -20.6178924217087, 0.2964427871199817 -20.609349746222883, 0.2289649893740155 -20.599403599721665, 0.1617195940674654 -20.587991005004493, 0.0947355508331934 -20.57513535173367, 0.0280043862562026 -20.561024948286136, -0.0385211770524576 -20.54597642781206, -0.1049028763716938 -20.530306378755075, -0.1711841284403512 -20.51421695374544, -0.2374007485155963 -20.497863701173927, -0.3035997535100323 -20.481439167651228, -0.3698427601327273 -20.4651930970754, -0.4361937598483903 -20.449393341376883, -0.5027038830381232 -20.434276707339997, -0.5694134603055474 -20.420065548368047, -0.6363421562076907 -20.406925651700888, -0.7034718436012553 -20.394853583686718, -0.7707372206914186 -20.383564546903987, -0.8380532308449078 -20.3725808902663, -0.9053402483732319 -20.361421364406525, -0.9725314639535697 -20.34969853394326, -1.0395794114121841 -20.33718116211983, -1.1064759978865097 -20.323880211138462, -1.173280493015817 -20.310123350360556, -1.2401011370683004 -20.296445413857167, -1.307047147684136 -20.28339469128406, -1.3741847005950287 -20.27136596499776, -1.4415308105707214 -20.26056474232912, -1.5090722337532945 -20.251063546829137, -1.5767668984738423 -20.24272345550261, -1.6445486405955632 -20.235125713539187, -1.712342541618923 -20.227638091065227, -1.7800863523101103 -20.219709554658458, -1.8477316149545044 -20.21097822421904, -1.9152331050853455 -20.20119656773215, -1.9825397531173115 -20.19015224803981, -2.0495924497178937 -20.17765678764134, -2.11632805312827 -20.163565587066266, -2.18269166277521 -20.14781515317805, -2.2486487876704118 -20.1304409983384, -2.314197499330579 -20.111585216098906, -2.3793784243977396 -20.09149620815133, -2.4442669057179565 -20.070482034342845, -2.508949208189584 -20.04884214900713, -2.5735141768637306 -20.026854919755472, -2.638055778162672 -20.004799309154343, -2.7026681633201735 -19.982951631187202, -2.767406463906169 -19.961480471834932, -2.8322674114240813 -19.940381800302212, -2.8972097318011323 -19.919535807745763, -2.482158805006529 -18.228349874665174))