POLYGON ((43.99808946496312 -25.37060080679916, 44.00914575452265 -25.437158693065193, 44.020344042067734 -25.503692826248272, 44.031679084011735 -25.570203803336263, 44.0431456242835 -25.63669223329894, 44.05473835386199 -25.703158776075306, 44.06645192993015 -25.769604127887444, 44.07828098301401 -25.836029017208926, 44.09022011890375 -25.90243420802957, 44.10226392142647 -25.96882049473059, 44.11440696057901 -26.03518869991678, 44.12664381973487 -26.10153967020959, 44.138969024128926 -26.16787428593026, 44.15137709508475 -26.234193450291407, 44.163862880978044 -26.300498026105636, 44.17642052924927 -26.36678902926634, 44.189044522171386 -26.433067430224863, 44.201737001995276 -26.499332750000807, 44.21450485915158 -26.565583588316617, 44.22735779150675 -26.63181797631529, 44.24030484651847 -26.69803403128473, 44.253354828374206 -26.764229879691236, 44.26651670140185 -26.8304035739009, 44.27979936278673 -26.89655312975522, 44.29321166975424 -26.96267652341276, 44.30676247538665 -27.028771676101307, 44.320460617658824 -27.09483645174883, 44.33431492448902 -27.160868658503706, 44.34833421957962 -27.22686603649925, 44.362527326219535 -27.292826255098777, 44.37690306990853 -27.358746914297477, 44.39147028267683 -27.424625530012765, 44.40623780625001 -27.490459534775706, 44.42121449372832 -27.55624627739916, 44.436409214370585 -27.621983006021836, 44.45183085458194 -27.687666872978532, 44.46748831947828 -27.753294931046355, 44.48339053743973 -27.818864115855767, 44.49954645895086 -27.88437125452831, 44.515965058558734 -27.94981305707248, 44.53265533799669 -28.015186100467048, 44.5496263237266 -28.080486839684596, 44.56688706924076 -28.145711593432235, 44.5844466544427 -28.210856532634782, 44.60231418570954 -28.275917691128672, 44.6204987991439 -28.34089094524171, 44.63900963640843 -28.40577201482316, 44.657855882753864 -28.470556460501403, 44.67704680301626 -28.53523964721965, 44.69659143048652 -28.599816843813603, 44.71649902900615 -28.664283080940557, 44.73677974054344 -28.728632913422828, 44.757439616714336 -28.79286202261354, 44.77847967199385 -28.85696759681446, 44.79989550339765 -28.92094861712054, 44.82168239548347 -28.984804230418455, 44.8438363963177 -29.04853340599712, 44.86635331019785 -29.112135261625863, 44.88922894327924 -29.17560897664152, 44.91245918891746 -29.23895376547589, 44.93603995445293 -29.30216890529457, 44.95996717382159 -29.365253723288827, 44.98423681731933 -29.42820759548814, 45.00884488897579 -29.49102995025791, 45.03378742424293 -29.553720260967996, 45.0590604932942 -29.616278047689832, 45.08466020287698 -29.678702877754482, 45.110582692959795 -29.74099435960619, 45.136824139854646 -29.803152145008557, 45.16338075758593 -29.86517592854535, 45.19024879450994 -29.92706544238485, 45.21742453665675 -29.98882045857279, 45.244904308301436 -30.050440787925886, 45.27268446879815 -30.11192627554994, 45.30076141605554 -30.1732768030253, 45.32913158585963 -30.234492287294334, 45.35779145015526 -30.29557267615828, 45.3867375210423 -30.356517949973718, 45.41596634088074 -30.417328125129824, 45.44547449841733 -30.478003240607638, 45.47525864101493 -30.5385433549502, 45.505315341544794 -30.598948615532635, 45.53564136357128 -30.65921911248424, 45.56623378268158 -30.719354816959676, 45.59708813070138 -30.77935657104704, 45.62820226365872 -30.83922401701012, 45.659575917432846 -30.898955826004592, 45.69117103836007 -30.958570809933704, 45.722920696578825 -31.018103587251826, 45.75474119691273 -31.07759852282063, 45.78655097494914 -31.137099193443863, 45.81826962770695 -31.196648498072918, 45.849815637872204 -31.256289488972325, 45.88110772384176 -31.31606412474443, 45.91206483807359 -31.37601297442649, 45.94260615733796 -31.436174825395955, 45.97265143197408 -31.496585982787344, 46.002121150986206 -31.557280069489245, 46.03093681073905 -31.618287555951316, 46.059021510954494 -31.67963504609336, 46.086299899089326 -31.741345399918927, 46.112698723891754 -31.803437275256236, 46.13814908830682 -31.865924055394604, 46.162582469596266 -31.92881555554265, 46.18593521071018 -31.992116311446654, 46.20818790191319 -32.05581224898157, 46.22934387252937 -32.11988074412206, 46.24941365300677 -32.184297752705675, 46.2684024191307 -32.24904165159579, 46.28631094286522 -32.314092632374475, 46.30313716272613 -32.37943194681423, 46.31887563583168 -32.445041761986275, 46.33351764664769 -32.51090497023994, 46.34705083775531 -32.57700494204372, 46.35945953576226 -32.643325219644424, 46.37072452249864 -32.70984936599208, 46.38082274676995 -32.77656062024688, 46.38972724297709 -32.843441719229894, 46.397406352103594 -32.91047459464706, 46.40382626390346 -32.97763986252986, 46.4089461894937 -33.04491682454996, 46.412712828811934 -33.112282983618066, 46.41511066452778 -33.179711826397515, 46.416169328110485 -33.24717474715626, 46.41596623042623 -33.31464557721977, 46.41458624318533 -33.38210240940541, 46.41211521880303 -33.44952786396, 46.40864693025898 -33.51690926773581, 46.40427938974 -33.58423826485016, 46.39911374255383 -33.651510543650105, 46.39325422792017 -33.71872585253779, 46.386807000281784 -33.78588727628783, 46.3798795553563 -33.85300074552543, 46.37258028307529 -33.92007474772406, 46.36501767613797 -33.98711954127594, 46.357300232242295 -34.05414664298819, 46.34953628430226 -34.12116837780648, 46.341831365905215 -34.18819692995916, 46.334292036038896 -34.25524433494059, 46.32702815022555 -34.322322211447855, 46.32011930651584 -34.3894375343812, 46.313589746320716 -34.45659086159112, 46.30738244089866 -34.523774737970086, 46.301442162620226 -34.59098269415513, 46.295720220028706 -34.65820958002003, 46.29016560312462 -34.72545048957386, 46.28472839869178 -34.79270098434241, 46.27935973933741 -34.85995697719519, 46.27401108689712 -34.92721456614997, 46.26863431995164 -34.994469912369645, 46.26318163767453 -35.06171915489179, 46.25760540541307 -35.1289582762013, 46.2518581280567 -35.19618300041894, 46.24589227011604 -35.263388709181946, 46.239659843223826 -35.33057022978428, 46.2331135729338 -35.397721921779045, 46.22620575342392 -35.46483745289087, 46.218884011553705 -35.53190903937162, 46.211122917595915 -35.59893127640853, 46.20293267432094 -35.6659023899325, 46.19433535000032 -35.73282245593539, 46.185354848810846 -35.799692160995775, 46.17601320887472 -35.866512352104714, 46.16633309112303 -35.93328434379098, 46.15633739562057 -36.00000980855924, 46.14604894826511 -36.06669074575001, 46.135490670708975 -36.13332948606937, 46.12468554551483 -36.19992863445746, 46.11365658654164 -36.266491070756, 46.102426843246185 -36.333019923588985, 46.09101939206487 -36.399518526323064, 46.079457332634426 -36.46599041517234, 46.0677637847822 -36.53243929653405, 46.05596188553629 -36.59886901287181, 46.04407478979633 -36.665283533846164, 46.03212566995981 -36.7316869222414, 46.02013771525709 -36.79808330796139, 46.00813413474223 -36.86447687067905, 45.9961381582037 -36.930871807493766, 45.984173036108324 -36.99727231299049, 45.97226204371732 -37.06368255249629, 45.96042848108099 -37.13010663397829, 45.94869567248333 -37.196548591994855, 45.93708696989745 -37.263012351094964, 45.925625749812106 -37.32950170401424, 45.91433541175139 -37.39602029743339, 45.903239379515554 -37.46257158580795, 45.8923610884612 -37.52915881663243, 45.88172398782391 -37.59578501713686, 45.871351552859075 -37.66245294297628, 45.86126719250582 -37.72916505683346, 45.85149432062458 -37.79592352878073, 45.842056620209256 -37.86273023612748, 45.832976936052816 -37.92958652881772, 45.82426666430066 -37.99649193155805, 45.81588989431072 -38.06343992923287, 45.80779817681775 -38.13042293223711, 45.799943938570046 -38.197434170881834, 45.79227940650727 -38.264467369446535, 45.784756783498594 -38.331516626298765, 45.777328332954184 -38.398576372256436, 45.769946257945314 -38.4656412392131, 45.762562682649886 -38.53270593770705, 45.755129626147934 -38.59976517770499, 45.74759894124408 -38.66681352933162, 45.73992229810748 -38.733845335554534, 45.732051142476145 -38.8008546038703, 45.72393664760845 -38.86783485052947, 45.71552972077674 -38.93477904492559, 45.70678096605391 -39.001679465177524, 45.697640667287445 -39.06852753099233, 45.688058824436546 -39.135313775216105, 45.67798514304023 -39.20202766096377, 45.66736907166362 -39.268657409577095, 45.65615987405861 -39.33518999955832, 45.644306674901074 -39.401610952564475, 45.63175857677889 -39.46790416583237, 45.61846477314114 -39.534051946967764, 45.60437468309932 -39.60003478980888, 45.589438176014944 -39.6658312287101, 45.573605719530065 -39.73141792668074, 45.556828629563476 -39.79676947814601, 45.53905945562294 -39.86185832367014, 45.52025207167079 -39.92665489802895, 45.50036205407397 -39.99112751169404, 45.47934765666281 -40.055242488195205, 45.457168709059346 -40.11896410109409, 45.43378732050288 -40.182254645885294, 45.40917636188392 -40.24507690447571, 45.383361919361505 -40.3074145503567, 45.35644329970498 -40.36928310882338, 45.32851846724994 -40.4307038815017, 45.299681582497364 -40.49170163481753, 45.27002504576359 -40.552304909256875, 45.239637911609755 -40.612545104962535, 45.20860643482408 -40.672455784824216, 45.1770141370798 -40.732072505076545, 45.144941870478725 -40.791432355336156, 45.11246831671529 -40.85057352612262, 45.079670019878705 -40.909535158068735, 45.04662175874024 -40.968357025825696, 45.01339696995692 -41.027079310265314, 44.9800678939357 -41.08574245814679, 44.946706031809335 -41.14438695834968, 44.91338244288782 -41.203053220731995, 44.88016803715255 -41.26178139608488, 44.84713396799732 -41.32061120866867, 44.814351838255675 -41.37958185596083, 44.781894118062276 -41.438731730961436, 44.74983435562957 -41.49809828640799, 44.718247363506464 -41.557717872373146, 44.687209648171404 -41.61762530749433, 44.656799385573294 -41.677853766789625, 44.62709661300081 -41.73843446288898, 44.59818347351985 -41.799396043148484, 44.57014397286995 -41.86076451346264, 44.54306408595001 -41.92256266981589, 44.51703153407204 -41.98480934336056, 44.49213550179929 -42.04751945457335, 44.46846648650277 -42.110703171949396, 44.44611447401367 -42.1743647790419, 44.42517054437515 -42.238503700303696, 44.40572746050936 -42.30311399808057, 44.3878625245589 -42.36817765003316, 44.371570711893696 -42.43365296368175, 44.35666234928266 -42.49945695025642, 44.34292841983291 -42.565515335858926, 44.33016661533971 -42.63176790974688, 44.31817346888308 -42.69816381998844, 44.306746887959775 -42.76465934733511, 44.295686278026366 -42.83121652280078, 44.28479101974026 -42.89780098456189, 44.273859474561064 -42.96437944366526, 44.26268820170925 -43.03091825851353, 44.25107021018322 -43.09738065321148, 44.238794376828075 -43.1637248583682, 44.22564446888812 -43.22990188958474, 44.21139816422129 -43.29585181160116, 44.19582793125593 -43.36150223312526, 44.17870124357669 -43.42676484910127, 44.15978281562015 -43.491531135875945, 44.13883833064261 -43.555671671147365, 44.1156386445126 -43.619032809486114, 44.08996842092493 -43.681434441295174, 44.06163374128568 -43.742673329660676, 44.030471345606074 -43.80252463701089, 43.99636313626467 -43.86074814707783, 43.95924170046006 -43.91709971408845, 43.9190968615076 -43.971340589746646, 43.87598402831635 -44.02325420741197, 43.830013758391495 -44.07265698427222, 43.781347545635846 -44.11940656402094, 43.73018818235711 -44.163414742369724, 43.67675992925283 -44.204638953919144, 43.62130058221129 -44.2430875662639, 43.564046428216635 -44.27880863215808, 43.505227060551654 -44.311880928508124, 43.44504394757272 -44.34241353406727, 43.38368772730805 -44.3705269752638, 43.32134901473523 -44.396341802890504, 42.94221391523557 -44.19092218657156, 42.97161255206844 -44.13142431640821, 43.000531606511615 -44.07169196030518, 43.02897888091879 -44.01173343945345, 43.056962282063445 -43.95155705021874, 43.08449022879417 -43.89117096673883, 43.11157150817356 -43.83058325780682, 43.138215241180006 -43.76980188230477, 43.16443091721935 -43.70883466433175, 43.19022833396604 -43.64768930178054, 43.21561759954987 -43.58637335407332, 43.24060913025914 -43.52489422744737, 43.26521360341465 -43.463259186968386, 43.289441962273095 -43.40147534350355, 43.31330540609795 -43.33954964465328, 43.33681535131574 -43.277488889436334, 43.35998343541465 -43.21529971590737, 43.3828215042716 -43.152988596982645, 43.40534158046625 -43.090561856654446, 43.427555865725466 -43.02802565899124, 43.44947672767607 -42.965386008099934, 43.471116674342404 -42.90264876498042, 43.4924883552521 -42.83981963838863, 43.5136045488555 -42.77690418811157, 43.53447814228463 -42.71390784177616, 43.55512213137774 -42.65083588786547, 43.57554960940516 -42.58769348152859, 43.59577375124387 -42.52448566080261, 43.61580781257684 -42.46121734193392, 43.63566512015495 -42.39789332704939, 43.655359059621546 -42.33451831935855, 43.674903074076006 -42.27109692084178, 43.694310655832396 -42.20763364122535, 43.713595337205774 -42.1441329118203, 43.73277068853532 -42.08059908558374, 43.751850311232175 -42.01703644694627, 43.770847830916324 -41.95344922401909, 43.78977689489065 -41.889841591004554, 43.80865116617239 -41.8262176785042, 43.82748431844792 -41.76258158389258, 43.84629003288483 -41.698937376035005, 43.86508199279065 -41.63528910575567, 43.88387387993527 -41.571640814234044, 43.90267937048427 -41.50799653997428, 43.9215121299143 -41.44436032913371, 43.9403858103371 -41.38073624184718, 43.959314045235665 -41.317128361376206, 43.97831044428043 -41.253540803989594, 43.997388591374516 -41.18997772316496, 44.016562037773355 -41.12644332082036, 44.03584429649166 -41.062941856403626, 44.05524884087301 -40.99947764896069, 44.07478909557205 -40.93605509031444, 44.094478430331684 -40.87267865296114, 44.114330158945705 -40.809352890034305, 44.134357527473846 -40.74608245023619, 44.15457370739608 -40.68287208409662, 44.174991794727994 -40.6197266418456, 44.19562479460971 -40.55665108977277, 44.21648561535423 -40.49365051482805, 44.23758706519027 -40.43073011957083, 44.25894183023253 -40.36789523871654, 44.28056248932107 -40.30515134910809, 44.30246147528504 -40.24250404894472, 44.324651011088186 -40.17995906043926, 44.34714341495853 -40.117522350455836, 44.36995059840195 -40.05519992567308, 44.393083416875896 -39.99299760646239, 44.41655594549262 -39.930922709062834, 44.44037480937614 -39.86897986763904, 44.46451753600937 -39.80716255256657, 44.48894857392839 -39.74545862572253, 44.51362707763475 -39.68385328864314, 44.53851500339365 -39.62233227006385, 44.563574625686755 -39.56088099760553, 44.58876809376217 -39.49948449477125, 44.614057968002555 -39.4381276431448, 44.63940695945369 -39.37679519674863, 44.664777841797815 -39.3154718052305, 44.69013342078629 -39.25414208176313, 44.71543644587613 -39.1927906565051, 44.74064955440952 -39.13140221245736, 44.76573517760673 -39.06996155533674, 44.79065549238791 -39.00845365508452, 44.81537236203111 -38.94686369319257, 44.83984723072423 -38.88517715264398, 44.86404111016678 -38.82337984781483, 44.88791451359766 -38.761457992731216, 44.91142735962658 -38.69939831577569, 44.934538993835 -38.63718808081833, 44.95720812344051 -38.57481518585495, 44.97939274992174 -38.51226830578864, 45.00105022667636 -38.44953690594432, 45.02213721069195 -38.38661137764784, 45.04260964206762 -38.32348321067416, 45.062422846846246 -38.26014499760201, 45.081531528751775 -38.19659060650295, 45.09988978207221 -38.13281537590193, 45.1174513374561 -38.068816116574546, 45.13416960256518 -38.004591308373044, 45.14999722895974 -37.9401412266169, 45.16488784563462 -37.87546814475966, 45.178795809845916 -37.81057647273675, 45.19166859770583 -37.74547168838215, 45.20348039454801 -37.68016591013654, 45.21425215802799 -37.614680701443135, 45.22403090166484 -37.54903986927073, 45.2328693136314 -37.483265928476115, 45.24081656656057 -37.41737847757579, 45.24792334593644 -37.35139510511667, 45.25424081527171 -37.28533155811842, 45.259819910967835 -37.21920164997946, 45.26471154424901 -37.15301736463206, 45.26896645061554 -37.08678914946096, 45.2726350685148 -37.020525940247275, 45.27576747070811 -36.95423523863368, 45.27841336452014 -36.887923378658776, 45.2806220500961 -36.8215955658656, 45.28244239427832 -36.75525597280853, 45.283922888267874 -36.688907956753575, 45.28511163997345 -36.62255410278528, 45.286056399782126 -36.556196334319424, 45.2868046373127 -36.48983607935007, 45.28740355962236 -36.42347432215387, 45.28790017373557 -36.35711172368321, 45.28834135818297 -36.290748741645935, 45.28877390498241 -36.22438570092907, 45.28924459882724 -36.158022918570396, 45.28980027000197 -36.09166078730516, 45.290487857395085 -36.025299876616394, 45.291354482711206 -35.95894105677622, 45.2924474783916 -35.892585557378105, 45.29381446190882 -35.8262351099985, 45.29550339288518 -35.75989206638194, 45.29756255810612 -35.69355944209474, 45.30004062148987 -35.62724110755085, 45.302986777827506 -35.56094190340243, 45.30645048022401 -35.4946676635202, 45.31048117060871 -35.428425439241515, 45.315130353056745 -35.362223724189874, 45.3204481165963 -35.29607226583692, 45.32647421267573 -35.22998163266048, 45.33321475277888 -35.16395995016111, 45.34065359421495 -35.09801335124834, 45.34877709624323 -35.032147612154766, 45.35757026616951 -34.96636792049749, 45.36701651400427 -34.9006788620716, 45.37709854379593 -34.83508439243345, 45.3877982145635 -34.76958784240054, 45.39909663611093 -34.70419194564274, 45.410974273147275 -34.63889878065088, 45.42341104640545 -34.57370981344987, 45.43638648492712 -34.508625949506, 45.44987989029291 -34.44364750881567, 45.4638699466703 -34.378774194475234, 45.478335404735795 -34.314005258525384, 45.493256760836395 -34.24933980249452, 45.50860958624867 -34.18477548342887, 45.52434163136772 -34.12030267492435, 45.54029388017184 -34.055883881061966, 45.556281319547416 -33.991473957566065, 45.5721263243308 -33.92702872963562, 45.5876480806089 -33.86250481357829, 45.60266066974704 -33.79786034907423, 45.61697016987934 -33.733056248728694, 45.63036973243573 -33.66805777548237, 45.64263781233435 -33.60283567705377, 45.65353203788668 -33.53736945054918, 45.66278592328044 -33.47165103394753, 45.67010695007953 -33.4056881804517, 45.6751702186823 -33.339512696405265, 45.677619922583574 -33.273188464875595, 45.6770704171647 -33.206819733403044, 45.67310913232457 -33.14056558086219, 45.66532727008382 -33.07464879606965, 45.65330477564713 -33.00937200635742, 45.63668471193533 -32.94510877993724, 45.6154654823805 -32.88221851687706, 45.59005353204125 -32.8208992622774, 45.561044488386486 -32.76120218216977, 45.52896909063764 -32.703097736885134, 45.49432752855781 -32.646486147718285, 45.45757384385649 -32.591224013701925, 45.419109150638604 -32.53714081519331, 45.37928601648974 -32.484050583986615, 45.33841745549953 -32.43176144103126, 45.29678444033337 -32.380079849291704, 45.25464119565107 -32.32881371225611, 45.2122260299359 -32.277772511118584, 45.16976546009013 -32.226769224686535, 45.12747760799154 -32.175622237086095, 45.08559860276364 -32.12414002334025, 45.044349092858724 -32.07215137456477, 45.003873020573934 -32.01955861504133, 44.96421269940132 -31.966347460466892, 44.9253591607467 -31.9125446413194, 44.88732111728143 -31.85816229003917, 44.85010422070725 -31.803214634631473, 44.813710649470245 -31.747718292785034, 44.778142791702734 -31.69168918784747, 44.74340173104353 -31.635143704164758, 44.70948734396905 -31.57809859447777, 44.67639848707013 -31.520570732036976, 44.64413291377328 -31.462577119750726, 44.61268737027938 -31.404134825674593, 44.58205758370537 -31.345260917551723, 44.55223834305448 -31.285972365818413, 44.523223428960755 -31.226286083660526, 44.49500569077523 -31.166218842544218, 44.467577986406425 -31.105786778780587, 44.44093035772024 -31.045006730130734, 44.415045418646066 -30.983898053665314, 44.38988721708584 -30.922486610208576, 44.365415315012356 -30.860798538509595, 44.341590172687916 -30.79885787689075, 44.3183714211218 -30.736687390435797, 44.29571844270306 -30.674308563252005, 44.273590586218674 -30.611741593906157, 44.25194713444763 -30.549005434056472, 44.230747415975806 -30.486117965502057, 44.20995085722001 -30.423096073142503, 44.18951703804945 -30.35995565337012, 44.1694057175283 -30.296711790352333, 44.1495768496573 -30.233378834844384, 44.12999062229849 -30.169970431726533, 44.110607445517324 -30.106499675457584, 44.091387949571995 -30.042979182606732, 44.07229300527827 -29.979421141445304, 44.05328369431342 -29.91583744215803, 44.034321299895716 -29.852239740716342, 44.01536731423848 -29.788639531070427, 43.996383404787586 -29.725048247508635, 43.977331405024486 -29.66147732274135, 43.95817331670409 -29.59793828218496, 43.93887128220495 -29.53444281615577, 43.91938758116943 -29.47100283816308, 43.89968463875083 -29.407630597737025, 43.879725006736386 -29.344338721820705, 43.85947137394965 -29.281140279578356, 43.838886610488714 -29.21804890094761, 43.817933706330585 -29.155078803356886, 43.796575825684705 -29.092244861636853, 43.77477665543083 -29.029562639266207, 43.75249959408444 -28.967048624687518, 43.72970802490677 -28.904720256170727, 43.706370206605044 -28.842594466077678, 43.682486177863154 -28.780676530926296, 43.65810400795282 -28.718953120695204, 43.63327264318573 -28.65740910367479, 43.60803962753175 -28.59602870489737, 43.582452786444236 -28.534794996835416, 43.55655938412411 -28.47369030752055, 43.53040626053645 -28.412696363897243, 43.504039985742914 -28.35179427871218, 43.47750688838504 -28.290964696081883, 43.450853139628784 -28.230187901959596, 43.42412482704669 -28.169443866753284, 43.39736806166812 -28.108712361873987, 43.37062904725207 -28.04797303932674, 43.34395418717347 -27.9872055043403, 43.317390187938436 -27.926389422089706, 43.290984112175444 -27.865504582447468, 43.264783517889235 -27.804531012372433, 43.23883653151056 -27.743449078695186, 43.21319188275222 -27.682239552406312, 43.187899056715295 -27.620883775102687, 43.163008317628865 -27.559363762983047, 43.138570718755744 -27.49766228143762, 43.114638235272615 -27.43576307984587, 43.09126372239078 -27.37365100017646, 43.06850088501048 -27.311312065977358, 43.04640434683331 -27.248733795005638, 43.025029525821175 -27.18590531063636, 43.00443254140251 -27.122817438205168, 42.98467016449725 -27.05946309324131, 42.96579959274592 -26.99583737585435, 42.947878273410154 -26.931937662104406, 42.93096367391217 -26.86776406005027, 42.915112961965605 -26.803319329872657, 42.90038271119857 -26.738609131911687, 42.88682341660094 -26.673643722347148, 42.874422850582086 -26.60844695769775, 42.86312625305829 -26.543050117073143, 42.852876935656454 -26.47748109499358, 42.843617494142876 -26.4117650006888, 42.835290105483885 -26.345924440523103, 42.827836792264485 -26.279979295857544, 42.82119970003077 -26.213947043062667, 42.815321229978004 -26.14784303926601, 42.81014422264683 -26.081680465198527, 42.80561206497671 -26.015470622563186, 42.8016687072856 -25.949223185667122, 42.798258778957305 -25.882946192158602, 42.79532756850316 -25.816646326208396, 42.79282098247773 -25.750329109455272, 42.790685603384645 -25.683998920390962, 42.7888685675253 -25.61765927648743, 42.78731753437189 -25.55131293098509, 42.78598075151981 -25.48496184473038, 42.78480658732297 -25.418607816216056, 43.99808946496312 -25.37060080679916))