POLYGON ((19.192387985481425 -3.906422373873654, 19.262190952774453 -3.909141562781668, 19.33203435357386 -3.9103834543764706, 19.401889640539896 -3.910261583578358, 19.47173100871539 -3.9088883677894284, 19.541540385166538 -3.9063729865709838, 19.61130472896499 -3.902821630520283, 19.681015150438462 -3.8983375537518445, 19.75066688391248 -3.893020791810317, 19.820258526481187 -3.8869685259952007, 19.88979131827623 -3.880275014757192, 19.959268911567158 -3.873031865372667, 20.028697334380794 -3.8653318855964898, 20.098084518638753 -3.857269250291119, 20.167440031597312 -3.8489389756293537, 20.236774392367124 -3.8404345105153457, 20.306098672745527 -3.831848424825062, 20.37542426151579 -3.8232728615746243, 20.444762456786037 -3.8147997086825853, 20.514124141579714 -3.8065209424673423, 20.58351950780291 -3.798528871633599, 20.652957589891287 -3.7909164762741745, 20.72244598796705 -3.7837775874634194, 20.791990551677763 -3.7772070610833905, 20.861594779486218 -3.771301059763257, 20.931259512779615 -3.76615699481707, 21.000982621228744 -3.761873578324238, 21.070758357203466 -3.7585509843653764, 21.140576431499493 -3.7562900107246135, 21.21042205767136 -3.755158912589043, 21.28027686108467 -3.755118438160803, 21.350124520744952 -3.756106491074926, 21.419951755882067 -3.7580598672931957, 21.489747897007582 -3.760914139289234, 21.559504796620462 -3.7646041832431285, 21.62921659327809 -3.7690644311806047, 21.698879677715162 -3.7742290401380205, 21.768492454357876 -3.7800321172888434, 21.838055054377236 -3.7864078379496537, 21.90756926447589 -3.793290551733256, 21.97703831339147 -3.8006148728123588, 22.046466593486002 -3.808315695688793, 22.11585955251843 -3.816328229610215, 22.18522350634516 -3.8245880098722638, 22.25456539609305 -3.833030851901645, 22.32389266076125 -3.8415928367987946, 22.393213054082974 -3.8502102789421038, 22.462534445050956 -3.858819659691726, 22.531864683038837 -3.8673575919610768, 22.601211394982645 -3.875760772539221, 22.670581824443595 -3.883965930418229, 22.739982697525967 -3.8919097984169198, 22.809419982401952 -3.8995290803316425, 22.878898756134614 -3.9067604432351604, 22.9484230810371 -3.913540521022339, 23.0179957196601 -3.919805930448876, 23.087618019306543 -3.925493348814478, 23.157289814236204 -3.930539546802458, 23.227009103483393 -3.9348814607058116, 23.296771959751883 -3.938456616402794, 23.36657246810872 -3.9412028073176275, 23.4364023793725 -3.943057875131713, 23.506251189683688 -3.943963830063835, 23.576105908109835 -3.9438600235634773, 23.645950631139673 -3.9426809944608423, 23.71576927406508 -3.9404335914658466, 23.785548355604124 -3.937185891443931, 23.85527998369884 -3.933044501473147, 23.92495990093169 -3.9281103295364725, 23.994586811258003 -3.922478848627347, 24.064162402684723 -3.9162462770855004, 24.133690699095272 -3.909506982684916, 24.203177551695262 -3.9023538225967616, 24.272630461784328 -3.8948786825516377, 24.342058112507733 -3.8871726281757333, 24.41147000575964 -3.8793262140369205, 24.480876227451635 -3.871429769368796, 24.550287042211867 -3.8635737971970094, 24.619712621473134 -3.8558492351946523, 24.689162714150687 -3.8483478380562217, 24.758646242997855 -3.841162562536908, 24.828171063849243 -3.8343877439747063, 24.89774348261695 -3.828119537099467, 24.967367787227538 -3.8224561900556777, 25.03704599010947 -3.8174980869634982, 25.10677714133698 -3.81334811544205, 25.17655672308552 -3.8101117194560974, 25.246376362651397 -3.807896703949682, 25.31622295159012 -3.806813303989908, 25.38607784750213 -3.8069738276024117, 25.45591662886213 -3.8084920463141825, 25.52570818135909 -3.811482682661665, 25.595413760075303 -3.8160603323844353, 25.66498702571156 -3.822338234276411, 25.734373481597334 -3.830427021850532, 25.803509710050147 -3.840432674318794, 25.872324268202977 -3.8524543303553345, 25.94073779803305 -3.8665829959945572, 26.008662716424848 -3.88289960151486, 26.076007902117 -3.9014670238018367, 26.14267540563432 -3.9223387869429076, 26.208561881417143 -3.9455538788460642, 26.273644874794165 -3.9709380496835673, 26.337968686232323 -3.9981842407105446, 26.40161660217522 -4.026972182920799, 26.464683893700354 -4.057010147003805, 26.52727372777449 -4.0880291703598415, 26.589497737346765 -4.11977497716953, 26.651472023550877 -4.1520053008349365, 26.713315699032936 -4.184485056802855, 26.77515036222443 -4.216982128155083, 26.83709897885689 -4.249261519385128, 26.899285114002048 -4.281081415827713, 26.961832047795905 -4.312187134973021, 27.024860651553237 -4.342305538088728, 27.08848757422097 -4.371140144862609, 27.152821546754783 -4.39836276053462, 27.217954322776638 -4.423617803714284, 27.283959416375463 -4.446498151382769, 27.350876381977006 -4.466559765559059, 27.418640330036894 -4.483541769269731, 27.487122342356265 -4.497348172683107, 27.556166569814163 -4.507989017299007, 27.625621793392295 -4.515488471577802, 27.69534096926214 -4.519904792610557, 27.765185102733604 -4.521327519122052, 27.835028029794053 -4.519869613824209, 27.904759217072733 -4.515664160709293, 27.97428463830099 -4.508857937606777, 28.043526588416952 -4.4996058453264185, 28.112423769299248 -4.488066248838148, 28.180931411999612 -4.474402568754074, 28.249015349433677 -4.458765524429937, 28.31665228056954 -4.441296792797088, 28.3838506613735 -4.422216385949996, 28.450715448769476 -4.401997211258277, 28.517460077743536 -4.381387175897756, 28.584297752862234 -4.361080545865215, 28.651433594526036 -4.341780102781402, 28.71905728442545 -4.324249879202623, 28.787311962286804 -4.309357451737745, 28.856264969126087 -4.2981100392742215, 28.92584693897858 -4.291676952301649, 28.995710767867074 -4.291309544315216, 29.065321408056395 -4.297441264403473, 29.134106777466883 -4.309716628790649, 29.201647474475276 -4.327599803881677, 29.26766651183229 -4.350468354041693, 29.332014001592285 -4.37768182007416, 29.39464908008372 -4.40862627753303, 29.455611641445763 -4.442744759482171, 29.51499154645925 -4.479547723968904, 29.572894812149332 -4.51862944386302, 29.629414744275838 -4.559684660239505, 29.684655496283202 -4.602445335285836, 29.73873029360591 -4.646669865652676, 29.791757606242196 -4.692144124055649, 29.843857895792645 -4.738677347579047, 29.89515204263897 -4.786096962927986, 29.945760351176116 -4.834247379275302, 29.99580202527107 -4.8829862676258715, 30.045395491642726 -4.932180742769946, 30.094658621413195 -4.9817058622058745, 30.14370884086429 -5.031441790826497, 30.19266478274583 -5.081270424352729, 30.241648753730278 -5.131071476606332, 30.290778706029762 -5.180728680273695, 30.340180427061703 -5.230115860634698, 30.390014113415212 -5.279066865945339, 30.440335213005756 -5.327516976758614, 30.491018583561424 -5.3755872750523475, 30.541662317369248 -5.423700155705894, 30.591820370690154 -5.472319380472388, 30.641036009734165 -5.521894424742632, 30.68878459620687 -5.572885261496112, 30.73451091203806 -5.625702721650919, 30.777574424227936 -5.680714200735999, 30.81730153311776 -5.738181076751698, 30.85362813941599 -5.797856522541635, 30.88698832462351 -5.859237867432113, 30.91810054093664 -5.921783575473595, 30.94761479782622 -5.985097504734233, 30.976172700287975 -6.048847932537685, 31.004419573540048 -6.112735754733874, 31.032989390200044 -6.1764816382916266, 31.06257013270405 -6.239763526879214, 31.093728234176574 -6.302286269294523, 31.12669178151243 -6.363876424273689, 31.161558643067988 -6.424409814519055, 31.1983981867366 -6.483763255573631, 31.237289992788927 -6.541793226342117, 31.278297545719777 -6.598348227244008, 31.32147024209188 -6.653268330511504, 31.36684129540315 -6.70638716833998, 31.414423144469378 -6.757535638656957, 31.464204389293947 -6.806546381623201, 31.51614897534073 -6.853258320593207, 31.57019474558803 -6.897522852173397, 31.626253622467978 -6.9392089931380525, 31.68421898572455 -6.978201075747055, 31.743947634245277 -7.014433412910437, 31.805236805305707 -7.0479581701712615, 31.867814320758995 -7.079009896917986, 31.93144768002009 -7.107834092917811, 31.995945024333786 -7.134668124062024, 32.06114451331391 -7.159745498820541, 32.126913770628214 -7.183287320144344, 32.193142325224194 -7.205503092599897, 32.25973800248593 -7.226591057871728, 32.326624349833 -7.246737660016202, 32.39373591169697 -7.26612003473623, 32.46101632098841 -7.2849069769467505, 32.52841635848639 -7.3032599627928585, 32.5958911865424 -7.321335618047407, 32.66339924451805 -7.339286652933571, 32.73090041995973 -7.357263607252266, 32.79835451332484 -7.375416510864976, 32.86572000137798 -7.393896077957554, 32.932952036112034 -7.412855630989803, 33.00000146215279 -7.432451938390022, 33.06681258027952 -7.452846976503608, 33.1333208578175 -7.474209267590002, 33.199451742638765 -7.496714169111359, 33.265116759387446 -7.5205456036846545, 33.33021069983329 -7.545895897690496, 33.394609688384385 -7.572965016106784, 33.45816561232318 -7.601960167433116, 33.52070290429205 -7.6330922306480735, 33.58201674954445 -7.666571590822579, 33.64186853063881 -7.70260195435633, 33.69998585225696 -7.741369160106106, 33.7560648085555 -7.783031691105218, 33.80977608943655 -7.827707107257693, 33.860784896042034 -7.875449337141812, 33.908733416821256 -7.9262598935899184, 33.95340302932298 -7.979978672235814, 33.99496337644158 -8.036134173884516, 34.03375078872211 -8.094237978602806, 34.07015298267027 -8.153862638843693, 34.104551861846524 -8.214662848603377, 34.13732444237421 -8.27635440861699, 34.168835916926206 -8.33869838304788, 34.19943557039123 -8.40149403771418, 34.22945801603507 -8.464567580457762, 34.259227505072886 -8.527760539886454, 34.28905982543557 -8.590924046299731, 34.31926661573191 -8.653909480605373, 34.35015857132993 -8.716562082602207, 34.38204768350222 -8.778714379991069, 34.41525035810941 -8.840175028451537, 34.450084038568384 -8.900727644997147, 34.486864796951984 -8.96012198366984, 34.525912831210064 -9.018047039758137, 34.56737666300522 -9.07427198268096, 34.61104857739332 -9.128797991088202, 34.65666114429013 -9.181709676029222, 34.703945512626774 -9.233131530602694, 34.75264827607498 -9.283210694464085, 34.80252941919518 -9.332115760873295, 34.85336179852194 -9.38003025813139, 34.90493226384161 -9.42714864110112, 34.95703916737532 -9.473672891413035, 35.009488920349675 -9.519809784496987, 35.06209389254258 -9.565769501488363, 35.114668191944666 -9.611764396369576, 35.167024567129076 -9.658007249799429, 35.218971154500736 -9.704710491164946, 35.270304822575945 -9.75208739834645, 35.320814849556555 -9.800341589096616, 35.370315620693724 -9.849630630343178, 35.41878076523969 -9.899939144455482, 35.466236215146985 -9.951200491513163, 35.51270830139395 -10.003354817758956, 35.558229459807855 -10.0563411205208, 35.602836146044645 -10.1100993921334, 35.64656804243025 -10.164571473882598, 35.68946822187387 -10.219700870218738, 35.731582371493104 -10.275432959667194, 35.77295839388431 -10.33171505300219, 35.813646212243704 -10.388496565141036, 35.8536972993412 -10.44572892888733, 35.89316436942804 -10.50336546368933, 35.93210120716134 -10.561361439860724, 35.97056238453173 -10.619673913708544, 36.008603054459556 -10.678261501297875, 36.046278833971215 -10.737084343649071, 36.083645646676246 -10.796103917968322, 36.120759606447955 -10.85528278075186, 36.157676946074425 -10.914584467498532, 36.19445393161512 -10.973973292003075, 36.23114680599578 -11.033414103850987, 36.267811743990016 -11.09287214976671, 36.304504793239666 -11.152312855778758, 36.34128184544957 -11.21170162922136, 36.378198593875936 -11.271003701025421, 36.4153104518244 -11.330183867908746, 36.452672551609716 -11.389206411143958, 36.49033965680668 -11.448034894152546, 36.528365895545925 -11.506631640454795, 36.566805220697326 -11.564958631569702, 35.3742640891627 -12.213674504711646, 35.34822794081743 -12.15413075585866, 35.32223724825599 -12.094567168069625, 35.29625475553898 -12.034999994630782, 35.270243199581046 -11.975445503074138, 35.24416527946311 -11.915920038526782, 35.21798366952089 -11.856440100748232, 35.19166102458858 -11.797022423253237, 35.1651599860815 -11.737684089520773, 35.13844319494935 -11.678442563421305, 35.111473304879325 -11.619315801042662, 35.08421301045626 -11.560322355674526, 35.05662506790947 -11.501481381191246, 35.02867233680122 -11.442812785128599, 35.0003178340681 -11.384337291506899, 34.97152476629723 -11.326076434456725, 34.94225662458783 -11.268052741132, 34.91247725983328 -11.210289731172068, 34.88215093605526 -11.15281191413334, 34.851242504503126 -11.095644972669774, 34.81971747941665 -11.038815690686901, 34.78754213432567 -10.9823519561688, 34.75468379038931 -10.926282890554873, 34.72111079429735 -10.870638744686678, 34.686792728131394 -10.815450872322183, 34.651701111344885 -10.76075159643685, 34.61580830512527 -10.706574573690208, 34.57908821224249 -10.652954530178713, 34.54152294083375 -10.599923703607804, 34.50315287957119 -10.547471963207585, 34.46410372856682 -10.495524171512198, 34.424500236333294 -10.443997995561837, 34.38446216775166 -10.392808974469801, 34.34410677563509 -10.341869861121458, 34.303548522983505 -10.291092182087963, 34.26289997880498 -10.24038683142098, 34.22227259718034 -10.18966447159646, 34.18177774538311 -10.138836239335458, 34.141527259208075 -10.087814126373177, 34.101634393596264 -10.036511765274108, 34.062214665820626 -9.984844871786574, 34.02338605763302 -9.932731876412147, 33.985269305620335 -9.880095850043185, 33.94799005511157 -9.826863077183134, 33.911677774477994 -9.77296511671238, 33.87645346922439 -9.718351036086917, 33.84233448878183 -9.663038877021728, 33.80918349684108 -9.607141741963053, 33.77685442853448 -9.550765738193814, 33.745201249483095 -9.49400777031008, 33.71407376044146 -9.436959990825565, 33.68332012373837 -9.379709929165042, 33.65278693442388 -9.322342147449794, 33.62231834888361 -9.264939993886214, 33.59175591528142 -9.20758777009892, 33.56093840530003 -9.150372055345063, 33.529700916526 -9.09338434145581, 33.49787490366459 -9.036723102164194, 33.465288204158334 -8.980495386077534, 33.431764875497386 -8.924820588234615, 33.397126619266295 -8.869832328974319, 33.3611940124835 -8.815680121259613, 33.323789027565695 -8.762533005952161, 33.284740006484775 -8.710582495069678, 33.24393386457738 -8.659999373562394, 33.201414635726465 -8.610847379527204, 33.15726074381762 -8.563159007437703, 33.111556578077014 -8.516954411625852, 33.06439125968045 -8.472242701193135, 33.0158564475749 -8.429021624614494, 32.966044667039526 -8.387278893111722, 32.915047993605164 -8.346992767124847, 32.86295649049252 -8.308132833600839, 32.80985731117153 -8.27066176273004, 32.75583402223935 -8.234536250285183, 32.70096564889448 -8.199707874459854, 32.64532655647508 -8.166124633846863, 32.588986423731555 -8.133731720681908, 32.53200977342883 -8.102472097137468, 32.474456133182194 -8.072288274724873, 32.41638465265197 -8.04311365126766, 32.35786180741867 -8.014855581260466, 32.29895005131536 -7.987417841368657, 32.23970591146257 -7.9607059028554294, 32.18017999285343 -7.934628102103981, 32.120418457729855 -7.909095082709746, 32.0604636544629 -7.884019595583775, 32.00035444372812 -7.859316603776087, 31.940127297076394 -7.834902712449943, 31.87981662282838 -7.810696030627097, 31.819455307421205 -7.786615918426487, 31.75907540495457 -7.762582509024093, 31.69870845513567 -7.738516537651736, 31.63838609572926 -7.714338995465757, 31.578140472520158 -7.689970751918433, 31.518004891869364 -7.665332089073549, 31.458013890650484 -7.640343341430326, 31.398204021252962 -7.614923711589164, 31.33861600052464 -7.588988442514618, 31.279280436593115 -7.562480333662156, 31.220214540464372 -7.5353766220262735, 31.16143265515928 -7.507662340246192, 31.10294899293939 -7.479324102649455, 31.044778753417862 -7.450347880021926, 30.986937389561223 -7.4207205961074125, 30.929440601008956 -7.390429967478087, 30.87230443605911 -7.359464425872942, 30.81554517312634 -7.327813307276539, 30.759179262397073 -7.295466817722395, 30.703223303476594 -7.262416183096569, 30.647693928582378 -7.228653719723531, 30.59260779201626 -7.1941727504038715, 30.53798155941769 -7.158967710465688, 30.483831437429707 -7.123034598211744, 30.43017361202677 -7.086370336584472, 30.377024844009473 -7.048972109256394, 30.32438978892459 -7.010854137139322, 30.272260690297927 -6.972047266148791, 30.22062604120218 -6.932584936874429, 30.1694733455381 -6.8924999083772205, 30.1187898003601 -6.851823410223904, 30.06856176822935 -6.8105857825090785, 30.018775047038968 -6.7688164856638275, 29.96941495061014 -6.726543962484851, 29.920466329588617 -6.68379567404485, 29.87191367240557 -6.640598248952727, 29.823741111306003 -6.596977403634765, 29.775932525633614 -6.552957963277841, 29.728471520962252 -6.508564049899445, 29.68134133266532 -6.463819104865629, 29.634525470413056 -6.418745422845766, 29.588007073994195 -6.373364867836981, 29.54176700149922 -6.32770070793803, 29.49579122177066 -6.281770531842551, 29.450065488786915 -6.235591499268852, 29.404537567490525 -6.18921742464993, 29.359113473360473 -6.142741748191023, 29.313654669804357 -6.096299927333371, 29.2680260261153 -6.050024924446174, 29.222093898628184 -6.0040509197809815, 29.175719616165768 -5.958522513782708, 29.128762295171235 -5.913595524838423, 29.08107939184575 -5.869438609739196, 29.032526672794575 -5.8262390591798905, 28.982960491085507 -5.784205888351476, 28.93224020973301 -5.743571292764004, 28.880232689810658 -5.704595895590652, 28.826818085942215 -5.667572292762071, 28.771898364730852 -5.632817918844744, 28.715408994953243 -5.600671869930781, 28.657318161065916 -5.57152503715588, 28.597706922924157 -5.5456220633731075, 28.536802675849547 -5.522931534429185, 28.474858976735693 -5.503256610835187, 28.412102881695752 -5.486354655994149, 28.34872306571254 -5.471972790507046, 28.28487514231486 -5.459840924702543, 28.220683076449276 -5.4496887191255965, 28.156244042194142 -5.441251181181278, 28.09163140206536 -5.434272047067871, 28.026899351611377 -5.428506747960822, 27.962087922652124 -5.423721765780136, 27.897225276173472 -5.419695014455223, 27.832331087242757 -5.416214831941834, 27.767419590534153 -5.413077943598898, 27.702501120024003 -5.410088858829968, 27.63758471052659 -5.407056216656297, 27.57267934124475 -5.403794596365866, 27.5077953186871 -5.400125605184341, 27.44294857310269 -5.395852243959653, 27.378155811788265 -5.390821510867601, 27.313426260844572 -5.385035099320598, 27.24876153152045 -5.378564668073015, 27.184157677534774 -5.371514008973621, 27.119609298978112 -5.363972935204874, 27.05510920027107 -5.35602983882128, 26.990648324020835 -5.347775115986746, 26.926216354159962 -5.339297836324278, 26.861802170090666 -5.330686710505683, 26.797394007416404 -5.322030663240914, 26.732979893566153 -5.313419000843682, 26.668547971385337 -5.30494146578468, 26.6040868279677 -5.296688530808682, 26.5395858689624 -5.288752787806322, 26.47503567838569 -5.281227219414557, 26.41042876965761 -5.274203502243918, 26.34575885186237 -5.267786565194171, 26.28102309244974 -5.262069870852188, 26.21622798442101 -5.257072060668136, 26.151384133587626 -5.252751594924839, 26.086503415001822 -5.249028162698605, 26.021594695399752 -5.245831193043164, 25.956665167811746 -5.243089648013567, 25.891720754863943 -5.240729050570727, 25.826765948602088 -5.238674891846485, 25.761804263477973 -5.236852231006514, 25.696838418195632 -5.235185552901471, 25.631870562622 -5.233599202813873, 25.566902601298082 -5.232017540733818, 25.501936385128218 -5.230365040765968, 25.436974036964664 -5.2285664785787045, 25.372018154239107 -5.226547184609358, 25.307072036672395 -5.224233167410959, 25.24214008808524 -5.221550748783313, 25.17722774577686 -5.218428321106649, 25.11234175039297 -5.214796511903069, 25.04749127155719 -5.210579652326763, 24.982684616947818 -5.205733757072781, 24.9179261940704 -5.20028185619257, 24.853217435205888 -5.194269337950289, 24.788558072614368 -5.187747704566996, 24.72394711034618 -5.180763176946977, 24.659382632080394 -5.173361393249158, 24.594861919634713 -5.165587766982945, 24.530381541012126 -5.157486520929545, 24.46593750985174 -5.1491011800148865, 24.401525346088544 -5.140474696054481, 24.33714012600243 -5.1316494086481965, 24.27277661929053 -5.12266724389714, 24.208429321646484 -5.1135697669133195, 24.144092531698163 -5.10439828901564, 24.07976043481192 -5.095193991503108, 24.01542714632753 -5.085998001105958, 23.95108679852545 -5.076851528466532, 23.886733586827045 -5.067795936276756, 23.82236185251234 -5.058872878880816, 23.757966153506324 -5.050124401863382, 23.69354130718873 -5.041593000186374, 23.62908252231947 -5.033321810855665, 23.564585437448326 -5.025354635734651, 23.500046203125997 -5.017736041059669, 23.435461650503793 -5.010511545925912, 23.370829302917628 -5.003727578766227, 23.3061475343018 -4.997431632947831, 23.241415752641366 -4.991672390038697, 23.17663440478478 -4.986499636833513, 23.111805234607996 -4.98196444368865, 23.046931463124245 -4.978119201505465, 22.9820178061008 -4.9750174786117425, 22.91707083653034 -4.972714121056796, 22.85209916350795 -4.971265459234383, 22.78711344690032 -4.970728635929601, 22.7221268212283 -4.9711610140777145, 22.65715525897699 -4.972624410616065, 22.592217138432357 -4.97517502891167, 22.52733268358899 -4.9788452528396885, 22.46252220711762 -4.9836484972815995, 22.39780606428445 -4.989588914527559, 22.333205045601975 -4.996672404351266, 22.268740104559203 -5.004902847910535, 22.204432263004175 -5.014282117180305, 22.140302545860486 -5.024810580431193, 22.076371839428496 -5.036486804761072, 22.012660820753187 -5.049307714341169, 21.949189851934484 -5.063268540187929, 21.885978779404812 -5.078362594715089, 21.82304706383475 -5.094581971365681, 21.760413627441817 -5.111917374077509, 21.698095752447408 -5.130355327507248, 21.63611186397754 -5.149886426032579, 21.57447945237335 -5.170499579962488, 21.513197945999902 -5.192133264784304, 21.45224584389117 -5.214678145390086, 21.391582905107878 -5.2379890955654895, 21.331167390431094 -5.261933684177064, 21.27095520050642 -5.286384810122628, 21.210899223981066 -5.311216802669933, 21.150951059954597 -5.336307891748636, 21.09106165931953 -5.361538790179336, 21.031181685658932 -5.3867920602028825, 20.97126229004752 -5.411951706481081, 20.911255561944635 -5.4369024117905855, 20.851115011545815 -5.461529126196275, 20.790796398948643 -5.485716592215206, 20.73025792088888 -5.509348708523077, 20.669460934863157 -5.532308199425884, 20.60837150402309 -5.554478171334073, 20.546959255996278 -5.575738285309715, 20.485198105998386 -5.5959634953273225, 20.423076204437137 -5.615051543978204, 20.360599342026287 -5.632944371654409, 20.29779603399069 -5.649655553156157, 20.23469391323886 -5.665199658613858, 20.171317828618715 -5.679586057957427, 20.1076925859862 -5.6928270718463425, 20.043842060606266 -5.704934986402741, 19.979789119227057 -5.715921625966667, 19.915555773141126 -5.7257989397462925, 19.851163258401016 -5.7345787619269375, 19.78663203298487 -5.742272722411194, 19.721981763859826 -5.748892219863537, 19.65723146818749 -5.754448402330446, 19.59239949478763 -5.758952113388372, 19.527503549175456 -5.762413838062154, 19.46256080785578 -5.7648437178972465, 19.397587887173916 -5.766251479784382, 19.332600934767573 -5.766646449454615, 19.26761566656525 -5.766037519281145, 19.202647290914612 -5.764432984087157, 19.137710930378038 -5.761841037524534, 19.192387985481425 -3.906422373873654))