POLYGON ((15.6480175670021 -2.374212943162752, 15.71399967405809 -2.3932136087310667, 15.779838990442805 -2.4127042930910285, 15.845518513702919 -2.432726271150811, 15.911020906153068 -2.4533206768398523, 15.976327464868758 -2.474528064848606, 16.0414183813373 -2.4963884099345526, 16.106272774424454 -2.5189410319569, 16.170868488599957 -2.5422243398270163, 16.235182178533556 -2.5662757951669666, 16.299189341750154 -2.591131744757966, 16.36286429774788 -2.6168269432815565, 16.426179992691107 -2.6433951414537336, 16.489108390826527 -2.670868279605451, 16.55162163273519 -2.699273809959633, 16.61368747456186 -2.7286438576865377, 16.675276455939265 -2.7590012242980904, 16.73638967036713 -2.7903052240613753, 16.797048704480385 -2.8224803159182086, 16.85728843311192 -2.8554333283594677, 16.91714313495197 -2.889080463603377, 16.97664846599605 -2.9233415194374817, 17.035842394062257 -2.9581375715695577, 17.094764041031905 -2.993392658174461, 17.15345347106554 -3.0290328409484575, 17.211951700186777 -3.0649858653410793, 17.27030046892832 -3.101180918148357, 17.328542057077506 -3.137548105825273, 17.38671925016091 -3.174018193929889, 17.444875222285955 -3.210522106458824, 17.503053429557557 -3.2469905713307323, 17.56129756742054 -3.2833536993887034, 17.619651455265398 -3.319540462468336, 17.67815894721263 -3.355478445344966, 17.736863820169635 -3.391093215067029, 17.79580959640614 -3.4263078860361906, 17.85503941130347 -3.461042913554626, 17.914595729160173 -3.4952152932201406, 17.974520036270835 -3.5287382766075748, 18.0348525927657 -3.561521202982397, 18.09563183870128 -3.593468665663363, 18.156893870035983 -3.624480438027545, 18.218671996555884 -3.654451475223192, 18.280995706142548 -3.6832713312668988, 18.343889824588683 -3.7108243764778246, 18.40737383538143 -3.7369903924001364, 18.471460402267482 -3.761644764702561, 18.536154370049335 -3.784658290141769, 18.60145148265085 -3.805901281296267, 18.667337022898586 -3.825244351979291, 18.733787911529657 -3.8425447369401358, 18.8007589773248 -3.857709134845742, 18.868178487883952 -3.870733628846451, 18.935961715123245 -3.8817092744581254, 19.00403074260634 -3.8907416379505597, 19.072318614790866 -3.8979320550116747, 19.14076655263903 -3.903389547052873, 19.209324406056624 -3.9072244320049725, 19.277949882890905 -3.9095469129869134, 19.34660824343209 -3.9104667718345874, 19.41527165987505 -3.910092030320222, 19.483918114384323 -3.9085285726371857, 19.55253105231017 -3.9058797203010487, 19.621098815663565 -3.9022458359646515, 19.689613658184907 -3.8977244811742446, 19.758071418832863 -3.8924103522243882, 19.82647112705023 -3.886395423889191, 19.894814208679936 -3.87976888295255, 19.96310428350079 -3.8726176977397295, 20.03134722282857 -3.865030109926175, 20.099550645833556 -3.857095624962689, 20.16772366967108 -3.8489044808176325, 20.235876298399464 -3.840545401443245, 20.304019044682917 -3.832106306277916, 20.37216272601593 -3.823674711652161, 20.44031807921218 -3.8153378912587503, 20.508495476134247 -3.8071831826021842, 20.57670465796989 -3.7992982196663063, 20.644954302724507 -3.791771251401269, 20.713251817779668 -3.784691279362338, 20.781602978449513 -3.7781482667391497, 20.850011411629023 -3.772233378748261, 20.91847840955459 -3.7670389107676017, 20.987002440393784 -3.7626584029227446, 21.05557869241678 -3.7591867698835912, 21.12419850882733 -3.7567196610119855, 21.192848651194183 -3.7553383917447385, 21.261512201093634 -3.755025669924626, 21.33017269465357 -3.7557229517462534, 21.39881684416454 -3.757370507457125, 21.467433860150653 -3.7599074325403103, 21.53601518103253 -3.76327207134366, 21.604554557559744 -3.767402255877835, 21.673047914462938 -3.772235518833927, 21.741492998450415 -3.7777092851108156, 21.809889327487014 -3.783760991793321, 21.878238060444566 -3.790328222935715, 21.946541674181475 -3.7973487644587425, 22.01480387642183 -3.804760657281181, 22.083029460079675 -3.812502247714405, 22.151224034091445 -3.8205121613014312, 22.219393920377588 -3.8287293082609737, 22.287545993096817 -3.837092874130669, 22.355687467096143 -3.845542259167809, 22.423825783676662 -3.854017055898138, 22.49196842973303 -3.862457007455844, 22.560122779494534 -3.870801949181889, 22.628295966577657 -3.878991778368591, 22.69649467537284 -3.8869664102865893, 22.76472503062708 -3.8946657486397913, 22.832992450864673 -3.902029668828059, 22.90130140632677 -3.908998007329793, 22.969655354784372 -3.915510576000753, 23.038056573475124 -3.921507184564966, 23.106505885767614 -3.9269277190524337, 23.17500264768927 -3.931712163031176, 23.24354456253679 -3.9358007078881045, 23.312127400649267 -3.9391341810700324, 23.380745027890093 -3.941653433083407, 23.449389225980877 -3.943299822942808, 23.518049564027436 -3.94401908640607, 23.586713152066224 -3.9437514254719557, 23.655364701728455 -3.9424392465071376, 23.723989009504482 -3.9401011691021055, 23.79257396711895 -3.936807433744196, 23.861112473686692 -3.9326607100771347, 23.92960080369564 -3.927755721647331, 23.998037947588273 -3.922183176022821, 24.06642563099735 -3.9160344454235414, 24.134767775511975 -3.9093990552343474, 24.20306997389664 -3.902365172419834, 24.27133936138165 -3.8950200578491176, 24.33958417690184 -3.8874502048947295, 24.407813425943676 -3.8797416242486737, 24.476036676032546 -3.871980104048163, 24.544263669231473 -3.864251582963818, 24.612504093228143 -3.8566423693537044, 24.680767251191707 -3.8492395328783, 24.749061721586806 -3.842131210100199, 24.81739514504602 -3.835406778043176, 24.885773709793014 -3.8291573358615856, 24.95420184623769 -3.823475828088415, 25.02268194518281 -3.818457173460096, 25.091213607178293 -3.8141986873341387, 25.159793355611686 -3.81079994466607, 25.22841423723066 -3.8083627830313382, 25.29706481262371 -3.806991428858797, 25.365728896685543 -3.8067920041757644, 25.43438508208753 -3.807872223283274, 25.503005539723606 -3.8103408996211594, 25.571555880995312 -3.8143069604759914, 25.639994811182234 -3.819878628906955, 25.708273029797432 -3.827161956813257, 25.77633342865901 -3.836259333116284, 25.844111340836672 -3.8472680110949176, 25.91153419747491 -3.860277400545146, 25.978521810815675 -3.875368604676837, 26.044988783944934 -3.8926104361379297, 26.110846423541524 -3.9120541135830726, 26.17599422816881 -3.933753463644185, 26.24036318742421 -3.9576662747050046, 26.303971056362503 -3.9835332434481696, 26.366880734029525 -4.011053223314764, 26.42917793772026 -4.039930525649028, 26.49095646492885 -4.069900363594009, 26.552318244247537 -4.100713961082637, 26.613371108161658 -4.132134111171584, 26.67422667449138 -4.163934555531396, 26.734999073747716 -4.1958934267877765, 26.795804274631564 -4.227789900935948, 26.85675942083741 -4.259399318661044, 26.917981848373525 -4.290488049774324, 26.97958822264649 -4.320810137603302, 27.04169245460061 -4.350100297689091, 27.104403491747846 -4.378068220659228, 27.167821718718336 -4.404396220389194, 27.23202993652648 -4.428739060049842, 27.297093482700074 -4.450692093935458, 27.363034985602585 -4.469854588112927, 27.429775757929683 -4.486012701312943, 27.49718620977134 -4.499101156968953, 27.565118168601927 -4.509133697086423, 27.633428635224266 -4.516135700679695, 27.701978486128894 -4.520167185674796, 27.77063694445373 -4.521315775447517, 27.83928529420019 -4.519690385422714, 27.90781956729336 -4.515418564727106, 27.97615139092908 -4.508640349117702, 28.0442074959004 -4.499502997355739, 28.11192991378487 -4.48815696639145, 28.179276208028636 -4.474757533876769, 28.246213805564096 -4.459448350030669, 28.31271984215025 -4.4423623432578, 28.378800266412714 -4.4237030756757925, 28.44454476680402 -4.403893421714842, 28.5101537457111 -4.383640377185174, 28.575830396648474 -4.363609094318567, 28.641770703427095 -4.344460404871857, 28.708158321646938 -4.326910902804766, 28.77513665469514 -4.311768705458972, 28.842786788152463 -4.299960353394557, 28.911076703918592 -4.292573721482651, 28.979727923300803 -4.290812135424757, 29.048267619733288 -4.2953466317869164, 29.116131224458435 -4.30592340896179, 29.18288635345561 -4.322063907593136, 29.248233249065592 -4.343195540482677, 29.31199343323758 -4.368707182626478, 29.37410259489279 -4.398004506254878, 29.434576920597138 -4.430540989948017, 29.49348668985255 -4.46582728980081, 29.55093422015236 -4.50344478495521, 29.60701063289311 -4.543075910938037, 29.661809250999152 -4.584454877643599, 29.715434971938063 -4.627341449132767, 29.767998714996047 -4.671522848189271, 29.81961415552365 -4.716807636926449, 29.870396181199286 -4.763024317831066, 29.92045931643915 -4.810018579556375, 29.969917365252225 -4.857648671420572, 30.018883096624347 -4.905784465472917, 30.06746870674648 -4.9543037769268, 30.115785967386515 -5.003090058124912, 30.163946397199883 -5.052031172349394, 30.21206440475268 -5.101013899945112, 30.260255589152518 -5.149924638294959, 30.30863035515834 -5.198654209524318, 30.35732237081103 -5.247066636965851, 30.40647120439777 -5.29501548685865, 30.456075353486025 -5.342492763650785, 30.505931411096064 -5.389705385308035, 30.55561988405442 -5.437094825307446, 30.604722095801755 -5.485092854026559, 30.652786977517568 -5.534130027817098, 30.699306642565602 -5.584638207089342, 30.743745657820405 -5.636993848178343, 30.78546170235579 -5.691539931509914, 30.82388632730181 -5.748457549217602, 30.859065026741597 -5.807432953410262, 30.891482082635076 -5.867970405619203, 30.921820180274693 -5.92957048058998, 30.950689910445593 -5.991870722741181, 30.978702444860126 -6.054560759832743, 31.006469393405045 -6.117358957746887, 31.034593690171675 -6.179999799490463, 31.063732655346065 -6.242173925089265, 31.094409776984968 -6.303606092054846, 31.126834820341276 -6.364134066690369, 31.16109911058282 -6.423640557663763, 31.197268369688164 -6.482008738539158, 31.23541849878455 -6.539102471987369, 31.27561031519985 -6.594778126942321, 31.31789147045521 -6.648884289778725, 31.362294953792198 -6.70126325493915, 31.408834344431735 -6.751754429531255, 31.45750120210161 -6.800198542529251, 31.508264392606403 -6.846441613842844, 31.56106870885203 -6.890340088398067, 31.615833452638967 -6.9317674546689085, 31.67246082012601 -6.970610362353721, 31.730823524930855 -7.00679372813561, 31.790744430287578 -7.040331134855938, 31.851971461584004 -7.071420856744028, 31.914270260573534 -7.100300122698406, 31.977450020240568 -7.127195124990225, 32.04135023680907 -7.152329380130416, 32.10583720280791 -7.1759164748328805, 32.170799409760725 -7.19815918441081, 32.23614476580587 -7.219248846947279, 32.30179575479294 -7.239366280617436, 32.36768631704993 -7.258683186854043, 32.43376042545884 -7.2773622548943155, 32.499968703452026 -7.295559562503928, 32.5662669498152 -7.313425736322642, 32.632614753890444 -7.331106974644849, 32.698973436026705 -7.34874716000909, 32.76530515462784 -7.366488714704607, 32.831571137401255 -7.384474373506277, 32.897730633122116 -7.402848287400828, 32.96373938172279 -7.421757400145793, 33.029547663862445 -7.4413530368213205, 33.095099517855445 -7.461791329544882, 33.16032967976661 -7.483235193070177, 33.22516170957801 -7.505854705319312, 33.28950646835819 -7.529827260843411, 33.353257203624025 -7.555338716634304, 33.416287745233845 -7.582581705859677, 33.47844991403263 -7.611754399181378, 33.539567567760166 -7.643057808573432, 33.59943562202961 -7.676690199755748, 33.65781894692175 -7.712841374774077, 33.714450115663396 -7.751682058163612, 33.76903202871413 -7.793353431299171, 33.82125006834049 -7.837953740395186, 33.87078384395991 -7.885522149980832, 33.91729123715442 -7.936047743626301, 33.96063906522186 -7.989313421250774, 34.001027621047285 -8.044847967761122, 34.038792964225166 -8.102210554987817, 34.07430515913011 -8.160975527320552, 33.345030779625525 -8.792308211074316, 33.305953589494564 -8.738331475363324, 33.26504249016716 -8.685729863269637, 33.222320383206615 -8.634589504420019, 33.1778313481354 -8.584978235161563, 33.1316703740587 -8.53691891154204, 33.08393337553227 -8.490425159198866, 33.034716178730235 -8.445501303154952, 32.98411907071452 -8.402137969268729, 32.93224160797187 -8.360315078106485, 32.87918162608854 -8.320003138176357, 32.82503434913328 -8.281164320158517, 32.76989099447689 -8.243753551099342, 32.713838058093685 -8.207720029697775, 32.656957097913185 -8.173008641879743, 32.59932430162889 -8.13956085844976, 32.54101022762912 -8.107315564595035, 32.48208006593929 -8.076210808093286, 32.422596823829764 -8.046177858266624, 32.36263155058115 -8.01711939017222, 32.30225233010363 -7.9889315251461825, 32.24152048146898 -7.961512205601209, 32.18049080947498 -7.934762495957546, 32.119213173735076 -7.908586020482179, 32.0577331856894 -7.882888753345194, 31.996092658886877 -7.857579078005482, 31.93433074331968 -7.832567215448677, 31.87248440287375 -7.807764991374664, 31.810588948477996 -7.783085596428793, 31.748678837034955 -7.758443041965876, 31.686788056383513 -7.733751932452481, 31.624950755167124 -7.7089271317786805, 31.563201854858985 -7.683883194183729, 31.5015775043029 -7.658534145612454, 31.440115350773272 -7.63279412730663, 31.378856143519844 -7.606574607662893, 31.317842838468106 -7.579787756927931, 31.257101850153003 -7.552388794348105, 31.196650273439555 -7.524357064031802, 31.13650311188123 -7.495677914058184, 31.076676228289823 -7.466336483975833, 31.01718615693184 -7.436317976163209, 30.95804965489548 -7.405608742966137, 30.899283851331973 -7.374195939507508, 30.840906170388337 -7.3420675397539945, 30.78293426963836 -7.309212557076974, 30.72538598385401 -7.275621084278278, 30.668279234996223 -7.241284294242328, 30.61163196374852 -7.206194602900711, 30.555462150812804 -7.170345588281559, 30.499787493972075 -7.133732255813498, 30.444625260864424 -7.096351249988982, 30.3899937544783 -7.05819892632036, 30.335902976335948 -7.019283688409663, 30.282346259142656 -6.979636780035335, 30.229311887815676 -6.939293865269662, 30.176786443542543 -6.898290623314198, 30.124756201491884 -6.856660887484008, 30.073206582361973 -6.8144374866457635, 30.022122336976118 -6.771652302055802, 29.971487666898632 -6.728336063591993, 29.921286271911377 -6.684518438102937, 29.871501441230112 -6.640228155694849, 29.822116072146788 -6.595492941859603, 29.77311278214308 -6.550339540404285, 29.724473875812556 -6.504793918075377, 29.676181281622966 -6.458881286022202, 29.628217268775522 -6.412625532166416, 29.58056336485969 -6.366050410035122, 29.533199049116686 -6.319180790095551, 29.486110934047694 -6.272033782701823, 29.439277524259705 -6.224633790844971, 29.392633754228406 -6.177047232408685, 29.346062775370086 -6.129389456504271, 29.29941352992532 -6.081808244723899, 29.252542322897295 -6.034445473762874, 29.205303135223105 -5.987449631335667, 29.15754553985875 -5.940980136998432, 29.10911693491963 -5.8952098825962365, 29.05986282600157 -5.850328872693775, 29.009627739869575 -5.8065474408573285, 28.958257682338736 -5.764102447219575, 28.905604713268136 -5.7232590484148735, 28.851531353762297 -5.684313757158314, 28.795918632170896 -5.647598684386853, 28.738681814335568 -5.61346700764702, 28.679770150817944 -5.582315705066891, 28.61920244741041 -5.5545187493018835, 28.557184228325987 -5.530130783639119, 28.493984195606473 -5.508994338532429, 28.429861988151977 -5.490852294389841, 28.365031609363072 -5.475436546658711, 28.29966968280938 -5.462459768739856, 28.23391866342597 -5.451629671583166, 28.167889278961454 -5.442658822916212, 28.101664664644755 -5.435269220950999, 28.03530676756216 -5.429194922094511, 27.968860777192162 -5.424182358039494, 27.9023581738667 -5.419990957223763, 27.835821019138265 -5.4163914651325795, 27.769264977998333 -5.413164156815396, 27.702701311145766 -5.410098045779346, 27.636139782878022 -5.406986768449531, 27.569590089297208 -5.403630609912848, 27.50306348729911 -5.3998368378900565, 27.436577523394345 -5.39539206943991, 27.3701495234976 -5.390146370787566, 27.303788704474584 -5.384111940304846, 27.237495548447875 -5.377374672578263, 27.17126548832435 -5.370044752672119, 27.10509244554926 -5.362217515196865, 27.038968116833498 -5.353989001505846, 26.9728824207436 -5.345456444396072, 26.906823973737986 -5.3367155975468785, 26.840780536016368 -5.327862155452534, 26.77473934082849 -5.318992081832193, 26.708687457275985 -5.310201787066825, 26.642612276429524 -5.301588261851424, 26.576501765235285 -5.293249701781678, 26.510344936255215 -5.285286683670978, 26.444132618599546 -5.277798295154202, 26.377857336187258 -5.270887697269521, 26.311513311283235 -5.26467222463663, 26.24510286154412 -5.259210527673218, 26.178635742643625 -5.254489730344628, 26.112124881466563 -5.250431664264351, 26.045581182040028 -5.2469554918255055, 25.979013003529793 -5.243986402194361, 25.91242716784091 -5.241444808101554, 25.845829022402107 -5.239250354047766, 25.779222675780645 -5.2373224941663405, 25.71261123876046 -5.235579927137987, 25.645997177926205 -5.233941128473469, 25.579382583754317 -5.2323245416011455, 25.512769436733887 -5.230648716768274, 25.446159964215127 -5.228832498332035, 25.379556856264117 -5.226795263414442, 25.312963571125593 -5.224457192157123, 25.246384722680794 -5.221738815567413, 25.179826075001927 -5.218562645078182, 25.1132948191917 -5.214853913529222, 25.046800746580175 -5.21053133811455, 24.980352791691207 -5.205547829454159, 24.913955645198133 -5.199928652302205, 24.847610715260274 -5.193723503046879, 24.781317647761178 -5.1869874480175335, 24.7150752970255 -5.17977010009543, 24.648881459399554 -5.17212068459916, 24.582733086107677 -5.164087970398977, 24.51662638065697 -5.155719482694449, 24.45055691278296 -5.147061992485303, 24.38451974932275 -5.138161660237876, 24.31850949403578 -5.1290640049774305, 24.25252040934357 -5.119814090567791, 24.186546501155078 -5.110456644647428, 24.120581570197675 -5.1010361329317355, 24.054619315479048 -5.0915969190291825, 23.988653393033076 -5.08218335553653, 23.9226774942831 -5.072839917284476, 23.85668542953634 -5.063611328454773, 23.790671181036846 -5.0545426428083955, 23.724629018354946 -5.045679424773747, 23.65855356373007 -5.03706782666715, 23.59243985976339 -5.028754675407108, 23.52628353045983 -5.020787680711666, 23.46008083363326 -5.013215456119642, 23.393828761246127 -5.006087616952014, 23.327525256015715 -4.999454986866995, 23.261169258755412 -4.993369563355776, 23.194760853234158 -4.987884610188829, 23.128301551813326 -4.983054824504034, 23.061794346340367 -4.978936258651627, 22.995243896495 -4.975586356156535, 22.928656896562895 -4.973063967036259, 22.862042146941626 -4.971429462132711, 22.795410752127147 -4.970744415177964, 22.728776527071155 -4.971070507124367, 22.662156280901545 -4.972473652550315, 22.595569634484416 -4.975016115401751, 22.529038296330135 -4.9787342338472484, 22.462584174791587 -4.9836433590088935, 22.396229210954683 -4.989748035435697, 22.329995816590024 -4.99705458257462, 22.263906583115833 -5.0055670848589084, 22.197984173234286 -5.015287449704573, 22.132251243625245 -5.026215935817089, 22.066730288468563 -5.038350779273313, 22.0014435513563 -5.0516883943626, 21.936412909795436 -5.066223349321035, 21.87165966047942 -5.081948094447144, 21.807204700945654 -5.098853896775564, 21.743068077372545 -5.116929833664811, 21.67926826034838 -5.136161094796158, 21.615826054571727 -5.156540589872708, 21.55275525884532 -5.178042203645084, 21.49004860890467 -5.2005827554892265, 21.427672940460823 -5.224023799057608, 21.36558358320424 -5.248212216371634, 21.303734952208035 -5.273009221128082, 21.242077716138255 -5.298278300657722, 21.18056038733118 -5.323885824841767, 21.119130388657727 -5.349701988957378, 21.05773458817742 -5.375599392667274, 20.996320048071965 -5.401452285571366, 20.934834555154428 -5.427136142859235, 20.8732273795553 -5.45252688613959, 20.81144983245376 -5.477500382525896, 20.749455763202935 -5.501931964866064, 20.68720243437618 -5.525695449054348, 20.62465155789177 -5.548664659519674, 20.56176942892663 -5.570711857651121, 20.498526353858132 -5.591701769933523, 20.434905340992294 -5.611516965098102, 20.370907894117142 -5.630080616765442, 20.306561877402757 -5.64739813970154, 20.241897970221576 -5.663487231784319, 20.17694306328015 -5.678357923338351, 20.111723911810138 -5.692023247098279, 20.04626636361735 -5.704496517085256, 19.980595109548037 -5.715790485622112, 19.91473390150603 -5.725918029171799, 19.84870563056231 -5.734891904475872, 19.782532328550495 -5.742724642048792, 19.716235161873886 -5.749428518200818, 19.649834565641818 -5.7550155218832195, 19.583350259704744 -5.7594973105691505, 19.51680124844235 -5.762885137997973, 19.450205947084424 -5.765189864800831, 19.38358219383057 -5.766421918400815, 19.316947270914508 -5.766591229220266, 19.25031801282486 -5.765707264786297, 19.183710816506856 -5.763778983999729, 19.117141681456584 -5.760814789515036, 19.050626296222166 -5.756822574890562, 18.98418005248607 -5.751809670138649, 18.91781809862672 -5.745782813314813, 18.851555404719424 -5.738748201818723, 18.785406787045055 -5.730711429299856, 18.71938696815768 -5.721677477084276, 18.653510623985586 -5.711650762552958, 18.587792424462062 -5.700635069485545, 18.522247092739327 -5.688633559380079, 18.456889441426263 -5.675648809310931, 18.391734434588276 -5.66168273553213, 18.326797230292904 -5.646736649818085, 18.262093230396417 -5.6308112389405505, 18.19763818837967 -5.6139064277916075, 18.13344807610801 -5.596021881141837, 18.0695393986471 -5.577156294098844, 18.005929327964267 -5.55730743663896, 17.942628942512552 -5.536491911219311, 17.879643840975454 -5.514741296096264, 17.816976687244946 -5.492091067642875, 17.754628373810874 -5.46857747075145, 17.69259819981215 -5.444237181422276, 17.630883589983934 -5.419107672141816, 17.56948030240312 -5.393226823578247, 17.50838258680514 -5.366632779228334, 17.447583129310818 -5.339363869034298, 17.38707319082953 -5.311458455155342, 17.326842778488825 -5.282954847289287, 17.266880643175348 -5.253891218119354, 17.20717439365082 -5.224305516328638, 17.14771066396852 -5.194235435365572, 17.088475137671306 -5.163718356443331, 17.029452639731456 -5.13279130284147, 16.970627286100033 -5.101490951834189, 16.91198252170352 -5.069853606807873, 16.85350119492975 -5.037915180297977, 16.79516568221848 -5.00571123484805, 16.736957931725915 -4.973276979455074, 16.678859527479286 -4.940647273378576, 16.620851787942726 -4.907856681371293, 16.56291581085687 -4.874939487602469, 16.505032534158303 -4.841929715749216, 16.44718281293924 -4.808861183316563, 16.38934746248679 -4.775767527985681, 16.33150731641799 -4.74268225179875, 16.273643310880207 -4.709638720658042, 16.215736504741177 -4.676670234681431, 16.157768051134433 -4.643810257037241, 16.099719639632738 -4.611091717676083, 16.0415731685419 -4.578547718274236, 15.983309535532664 -4.546213956764635, 15.924916993592372 -4.514113540512472, 15.866392727842497 -4.482253917149961, 15.807738957643672 -4.450633339500099, 15.748958207313477 -4.419249450489437, 15.690052223473316 -4.388101254589518, 15.631022986070832 -4.35718727394619, 15.57187245492569 -4.326506016224242, 15.51260250325321 -4.29605609693557, 15.453214987301452 -4.2658361093373145, 15.393711731739888 -4.235844657243633, 15.334094525395564 -4.206080363848522, 15.274365123484795 -4.17654186399162, 15.214525251866513 -4.1472278046571445, 15.15457660532157 -4.118136846581525, 15.094520839104273 -4.0892676680848865, 15.034359599016755 -4.060618951692972, 15.6480175670021 -2.374212943162752))