POLYGON ((21.545696104484666 -3.7638103026640883, 21.61574131398926 -3.768145043380628, 21.685737509703756 -3.773203569391608, 21.75568341198661 -3.778919061195992, 21.82557842212041 -3.7852247475883765, 21.895424158594366 -3.792054025222592, 21.965223672395 -3.799340539808301, 22.034981184255983 -3.807018216505893, 22.10470208305795 -3.8150213106530537, 22.17439263469439 -3.82328439968696, 22.244059778536425 -3.8317423513155573, 22.31371100409575 -3.8403303179211568, 22.383354131886882 -3.8489836880495085, 22.45299713433588 -3.8576380289081738, 22.522647986971055 -3.8662290524374083, 22.592314457749147 -3.8746925588243886, 22.662003959149423 -3.8829643882907394, 22.731723386775887 -3.890980389187579, 22.80147888376962 -3.898676382205011, 22.8712757252313 -3.9059881524090736, 22.941118155751024 -3.912851448627311, 23.011009108281062 -3.919201999464578, 23.08095012035434 -3.924975585584152, 23.15094118825659 -3.9301080804562383, 23.22098043846342 -3.9345355129807458, 23.291064085428626 -3.938194465852416, 23.361186319708295 -3.941021879260777, 23.43133893660273 -3.9429546272686204, 23.501511473982546 -3.9439335149959294, 23.5716909776067 -3.943897851220341, 23.641861429414607 -3.9427799542883775, 23.712006495056393 -3.940581117566838, 23.78211219709469 -3.937367692048293, 23.852170320935205 -3.9332468499872233, 23.92217637681673 -3.928321524258357, 23.992128917985188 -3.9226885194583283, 24.062029569667466 -3.91644540882542, 24.131882330398568 -3.9096879627385315, 24.20169308376221 -3.902510369924742, 24.271469406689345 -3.8950058215832972, 24.341220080074752 -3.887266676222812, 24.41095472962004 -3.879384761436115, 24.480683578481916 -3.8714516730462787, 24.550417034317526 -3.8635591805309715, 24.620165410654092 -3.8557994962072644, 24.689938590245458 -3.8482656642335074, 24.75974561264284 -3.8410519551783957, 24.829594421779532 -3.834254052284695, 24.89949138439639 -3.8279694872863907, 24.96944079716329 -3.8222979367485475, 25.039444616667346 -3.817341264090113, 25.109501790360227 -3.8132038669566963, 25.17960759351396 -3.8099927656514043, 25.24975333083227 -3.807817386393686, 25.31992550512334 -3.806789596206639, 25.390104915761512 -3.807023378119092, 25.460266401483437 -3.8086341686261114, 25.530378026450165 -3.811738311287744, 25.600400008980742 -3.8164519757543602, 25.670284736318745 -3.822889823670822, 25.739976347324227 -3.831163760063404, 25.80940989850526 -3.841380847768678, 25.878512206952575 -3.8536408790178567, 25.94720206373482 -3.868035328349761, 26.01539015379261 -3.8846451458652425, 26.08298378507701 -3.9035320188661893, 26.14988215741982 -3.924750778815685, 26.215984275347974 -3.94832972492142, 26.281278301177945 -3.9740645431776733, 26.34581465096117 -4.001640659591478, 26.409680086114985 -4.03073460022844, 26.47297228442967 -4.0610547916281154, 26.53579711497019 -4.092330673976042, 26.598268451654608 -4.124305872896992, 26.660504579037283 -4.156736345108958, 26.722626683607047 -4.189384292679487, 26.784758291929037 -4.2220142845101085, 26.847024278017134 -4.254387353453814, 26.909549932611686 -4.286256296878365, 26.97246005491527 -4.317360661098088, 27.035876674678182 -4.3474198806943205, 27.099916861076956 -4.376127539642539, 27.16468879621766 -4.403146440739582, 27.230282037110754 -4.428109980462588, 27.296767152642484 -4.450589401243534, 27.364169003287387 -4.470156372820348, 27.432403707790733 -4.486582892270371, 27.50133188617933 -4.499803036515415, 27.57079559050015 -4.509832110693947, 27.64064244095533 -4.5166991860462415, 27.71072440656415 -4.520471693667372, 27.780903363152397 -4.521246187153951, 27.851054681357848 -4.519141844154877, 27.921069692015678 -4.514297171314258, 27.9908572380119 -4.506863767327027, 28.06034263276176 -4.49699959211179, 28.129467366556213 -4.484866275526826, 28.19818966869043 -4.4706295219255585, 28.26647682645542 -4.454434776840324, 28.334311510823323 -4.436439476138692, 28.40171602316021 -4.416902389013813, 28.46883764323108 -4.396410342419069, 28.535897164769388 -4.37572116961304, 28.60310882940148 -4.355527953120221, 28.670677652368003 -4.336560333768566, 28.738785294927233 -4.319618151924144, 28.807560994881726 -4.305613149600721, 28.877040344239983 -4.295622288584702, 28.94707688459358 -4.290871847527235, 29.017252973829294 -4.292520950156021, 29.08698294192725 -4.300649868626316, 29.15573301512412 -4.314822672651872, 29.22312227139181 -4.3344638280962045, 29.288911774116613 -4.35892645517152, 29.3529916137106 -4.387566958001336, 29.415349478348936 -4.419780832075338, 29.47604415751373 -4.455022840619157, 29.535179422390744 -4.492822612024305, 29.592857212734884 -4.532808896488333, 29.64917385230168 -4.5746887138717245, 29.704239254556576 -4.618199800758565, 29.758170528592707 -4.663108357773463, 29.81108866631712 -4.709205275357107, 29.863116235664116 -4.756304530269404, 29.9143756014872 -4.804238411691138, 29.964988417132442 -4.852853843616561, 30.01507517032984 -4.902010876909917, 30.06475570669431 -4.951578243003043, 30.114149389865247 -5.001431192360897, 30.1633752808715 -5.051449839608483, 30.212555422287345 -5.10151337084096, 30.261813172548738 -5.151500547691409, 30.311266626794882 -5.201294542567865, 30.361060528448647 -5.250747873827934, 30.4113368218757 -5.299711067940514, 30.4620797756749 -5.348189890502627, 30.513037995381726 -5.396442613651895, 30.563757656993996 -5.444946252026343, 30.613792146332496 -5.494158559909849, 30.66264639734 -5.54454240032402, 30.709772184952186 -5.596549667045002, 30.754584656809676 -5.650572033986144, 30.796363999780276 -5.706964765627721, 30.834665812761383 -5.76578391210549, 30.869677807424797 -5.826611286209248, 30.90203690685502 -5.8888909161514, 30.932446901186502 -5.952141033026409, 30.96155298235106 -6.0159997817509, 30.99001170955926 -6.080149482418966, 31.018468816788317 -6.144299994306218, 31.047585976048303 -6.208154305337353, 31.078055582623268 -6.2713749336291, 31.110257219433148 -6.333732347589613, 31.14434339788174 -6.395080190500268, 31.18038385421756 -6.4553011564865255, 31.218458091968635 -6.514257374615788, 31.258639058520526 -6.571798730722855, 31.300983592961405 -6.627767508465032, 31.34553393944434 -6.6819973811843765, 31.392312387997848 -6.734317642685476, 31.441318802968524 -6.784557406713237, 31.49252872053421 -6.832549695012242, 31.545891246317737 -6.878136818371436, 31.601327451219174 -6.921178715047241, 31.658737786201492 -6.961550267604384, 31.71799716095528 -6.999155976607371, 31.778930257060335 -7.033981090250948, 31.841282058866216 -7.066199556584424, 31.904791687889208 -7.096067274415826, 31.969249691135502 -7.123826623560881, 32.034480712234995 -7.149716793962132, 32.10033831889635 -7.173967456492188, 32.16670147979429 -7.19679620082982, 32.233470604868046 -7.21840809094525, 32.300562044900424 -7.238996853763007, 32.36790499120963 -7.258746047691905, 32.43543951212916 -7.277829471092718, 32.50311298943184 -7.296413661865679, 32.57087838057275 -7.314659266895153, 32.63869269088179 -7.332722196268713, 32.7065147412691 -7.350755887471561, 32.774304079442295 -7.36891239445504, 32.84201915339852 -7.387344192252266, 32.90961588338063 -7.40620564095677, 32.9770463213707 -7.4256541840409405, 33.04425613938004 -7.445852381478262, 33.111183484036175 -7.466968482687319, 33.17775654974697 -7.489177860824644, 33.24389005184344 -7.512664383658656, 33.309483779912824 -7.5376199323153825, 33.37441865564091 -7.564245001363258, 33.438551889700356 -7.592747740328261, 33.50171526991409 -7.623340942970152, 33.56371087947106 -7.6562390126137005, 33.62430618899673 -7.6916511795875895, 33.68323573958441 -7.729772215751961, 33.7402012119674 -7.770773127379812, 33.79487304217095 -7.8147864754884715, 33.84691357743466 -7.861885272436118, 33.89596860462907 -7.912086232450516, 33.94173142252463 -7.965302973065011, 33.98428915344812 -8.021117567244376, 34.02394731003152 -8.079025213602192, 34.06109730239777 -8.138569637680716, 34.09612764882719 -8.199384003113389, 34.12942201075256 -8.261165027325235, 34.161355069359395 -8.323658879285924, 34.1922841747036 -8.386655143158228, 34.222552110099635 -8.449971402376569, 34.25249013009372 -8.513443879610557, 34.282419715123616 -8.576920526023976, 34.31265773669307 -8.640250813383194, 34.34351910335503 -8.703280262392722, 34.37531974600943 -8.765842027619044, 34.40837944355335 -8.827747810060481, 34.443020425092286 -8.888784397550529, 34.47956305908458 -8.94870533202332, 34.51833192983537 -9.007208431921361, 34.55954547728623 -9.064017576296218, 34.60303513433073 -9.119104194519462, 34.64853337070293 -9.172541673814761, 34.69576525311628 -9.224451454400421, 34.74447162876486 -9.274979450264158, 34.79440674170968 -9.324292803647726, 34.84533780125508 -9.372575523836309, 34.89704691094247 -9.4200234975104, 34.94932778766451 -9.466840385863145, 35.00198301870241 -9.513235250703042, 35.054821838110676 -9.55942086449461, 35.107655585247485 -9.60561227191198, 35.160294850773994 -9.652025311564744, 35.21254595363146 -9.698875351987374, 35.26420441880409 -9.746378668579634, 35.315057370769416 -9.794743935953232, 35.36490677523568 -9.844142501778213, 35.41370827420088 -9.89457767828539, 35.46148797438991 -9.945981156572508, 35.50827222499469 -9.998292060206055, 35.55409333576991 -10.051448644951252, 35.59898792305954 -10.105389851460329, 35.64299594658984 -10.160056564680414, 35.6861608295447 -10.215391362995508, 35.7285286779052 -10.271338681659651, 35.77014791136605 -10.32784494176346, 35.81106903468691 -10.38485871853272, 35.85134413408525 -10.44233061586434, 35.89102659197245 -10.50021317747141, 35.93017089918921 -10.558460954103403, 35.96883235021675 -10.617030300186087, 36.00706684574835 -10.675879174616231, 36.04493076751149 -10.734967107151567, 36.08248081112736 -10.794254982125462, 36.11977387157265 -10.853704794570923, 36.156866967509686 -10.913279547335467, 36.193817152774464 -10.972943035408813, 36.23068145938542 -11.03265960615061, 36.2675168502845 -11.092394015351001, 36.30438016001116 -11.152111204580255, 36.341328064094654 -11.211776094763028, 36.37841703566012 -11.271353426399978, 36.41570326629536 -11.33080752433545, 36.45324265300535 -11.390102123451207, 36.49109071565959 -11.44920023272272, 36.52930237118929 -11.508063952175517, 36.56793225031714 -11.566654078444214, 36.60703417801754 -11.624930311422562, 36.64665970900838 -11.68285194935377, 36.686863744190305 -11.740373446537589, 36.727683132520795 -11.797460003014699, 36.76908745667149 -11.854123719634906, 36.811025909184174 -11.910393182859051, 36.85344347750983 -11.966302268439188, 36.89628855160191 -12.021884363922599, 36.939510256003814 -12.077174064679804, 36.983058206601626 -12.132207104215643, 37.02688296095785 -12.187019930754802, 37.07093567588316 -12.241649698888148, 37.11516795983607 -12.296134140266812, 37.15953180798651 -12.350511489839333, 37.203979411433515 -12.40482039483983, 37.24846300449136 -12.459099814146494, 37.29293472788484 -12.513388964793783, 37.33734642684785 -12.567727237122956, 37.38164951592841 -12.622154106473085, 37.42579482226185 -12.676709066448934, 37.46973235668928 -12.731431522885176, 37.51341121273409 -12.786360697505438, 37.55677942312667 -12.841535533352808, 37.599783710541246 -12.89699452922594, 37.64236943093138 -12.952775610008516, 37.684480481613186 -13.008915993723429, 37.726059071288255 -13.065451934009642, 37.76704571093549 -13.1224185152973, 37.807379223699016 -13.179849486192293, 37.84699661079147 -13.237776907680658, 37.885833093285505 -13.296230759215211, 37.92382231338467 -13.355238892426273, 37.96089637324852 -13.414826587557622, 37.99698581263042 -13.47501516479381, 38.032020636937084 -13.535824541903471, 36.48713699186887 -14.339547387886856, 36.45585934989848 -14.284053117684852, 36.4245010324671 -14.22860442121204, 36.39307735358978 -14.173192725940385, 36.36160361920779 -14.117809451453647, 36.33009508666946 -14.062445969921901, 36.29856698489757 -14.00709363060855, 36.26703452395105 -13.951743774131339, 36.235512902013056 -13.89638774432917, 36.20401731301705 -13.84101689713928, 36.172562954788454 -13.785622615368506, 36.141165038353016 -13.730196321545865, 36.1098387923046 -13.674729483833328, 36.078599474674526 -13.619213638019579, 36.04746237692112 -13.56364039279208, 36.016442829322564 -13.508001440202055, 35.985556213320436 -13.452288581329467, 35.95481795916768 -13.396493723206058, 35.92424355514045 -13.340608900650075, 35.893848555110885 -13.284626297237168, 35.86364857198087 -13.228538239043301, 35.8336592887979 -13.17233723173401, 35.803896464546064 -13.1160159646348, 35.774375919516594 -13.059567314074187, 35.745113521137824 -13.002984404037806, 35.71612527483078 -12.94626054536554, 35.687427256239936 -12.889389283569177, 35.65903519291704 -12.832364654282415, 35.630965616760705 -12.775180582809192, 35.60323583329218 -12.717830938786376, 35.575857453789524 -12.6603127437668, 35.548826260224224 -12.60263057080008, 35.52210810418936 -12.544802743459986, 35.495667299696365 -12.486847616433622, 35.4694699259086 -12.428782076483214, 35.44348108800529 -12.3706229075527, 35.417665787311606 -12.312386520667426, 35.391989146635886 -12.254088883200565, 35.36641618540706 -12.195745693467238, 35.340911874612175 -12.137372471233222, 35.31544116604544 -12.078984580433179, 35.28996897764842 -12.020597335773635, 35.264460199808056 -11.962226064095015, 35.2388796962698 -11.903886181054872, 35.21319230902184 -11.845593277353325, 35.18736286271592 -11.78736315929388, 35.1613561705097 -11.729211974920938, 35.13513704836448 -11.671156247096798, 35.108670325451314 -11.613212941394355, 35.08192087199497 -11.555399602442234, 35.05485361942554 -11.497734334577714, 35.02743359484714 -11.440235930020663, 34.99962597686151 -11.382923957063959, 34.97139611965245 -11.325818722882756, 34.94270964184458 -11.268941456771918, 34.913532495801064 -11.212314305755497, 34.883831009858085 -11.155960323732158, 34.85357205926022 -11.099903660633817, 34.82272311309545 -11.044169460543715, 34.79125233772711 -10.98878390398994, 34.75912886360011 -10.933774311980821, 34.726322728552084 -10.879169013361052, 34.692805093510415 -10.824997424600275, 34.658548862954234 -10.77128984027805, 34.62352792264776 -10.718077633416412, 34.587717000815424 -10.665393571475512, 34.55109681578328 -10.613269066953393, 34.51368190519804 -10.561712160315894, 34.475580138432385 -10.510660695707868, 34.436911570449624 -10.460037623020105, 34.39778985152608 -10.409764195037976, 34.35832606459506 -10.359758848837952, 34.318629032982926 -10.30993862940631, 34.27880522130456 -10.260219739813243, 34.23895990698509 -10.210518080729974, 34.199197940925146 -10.160749698817858, 34.15962433557049 -10.110831283318836, 34.12034516409243 -10.06068082350092, 34.081467981141344 -10.010217831683367, 34.043102943112245 -9.959364192145266, 34.00536241696505 -9.90804523049503, 33.968361658584456 -9.856189945568934, 33.932221966634565 -9.803730475132943, 33.89706299886706 -9.750608418103948, 33.86298107407761 -9.696789893166699, 33.82991632419197 -9.64233951252081, 33.79772891388605 -9.587367021956293, 33.76628238542399 -9.531967719535746, 33.73543764770641 -9.476231172381842, 33.70505264947025 -9.420243019871824, 33.67498398634362 -9.364084394273826, 33.645086520545206 -9.30783454771019, 33.61521297354046 -9.251571980033313, 33.58521341515462 -9.195376463108925, 33.55493526556 -9.139330470251316, 33.52422263745828 -9.083521087025424, 33.49291603411748 -9.028042626178822, 33.460852764027265 -8.972997576731283, 33.42786673254521 -8.918499912112209, 33.39378974219895 -8.864677564105232, 33.3584528638534 -8.811673016957057, 33.32168862370957 -8.759646922467121, 33.28333596825858 -8.708781280708148, 33.24329363956544 -8.659233592897703, 33.201606400864456 -8.611061622673546, 33.15834817218425 -8.564295856631288, 33.11359834818026 -8.518955462587144, 33.06744078055008 -8.475049326966904, 33.019961696306815 -8.432575886489044, 32.9712482413238 -8.391524324325541, 32.92138724598724 -8.351874856564342, 32.87046376777118 -8.313599684232177, 32.81856036315098 -8.276664561264004, 32.76575628678692 -8.241029411328535, 32.71212665519882 -8.206649340839448, 32.65774248347132 -8.173476031374488, 32.602670321976824 -8.141458324071333, 32.54697194678423 -8.110542860136214, 32.49070476663107 -8.08067551627352, 32.43392324169526 -8.051798599556236, 32.376688613092576 -8.023830415212762, 32.319061892962694 -7.996679929336326, 32.26109793918375 -7.970257459562613, 32.202846180455474 -7.944475806187237, 32.14435179787514 -7.919249909099355, 32.08565579265566 -7.894496938898505, 32.026796067949675 -7.870135972823768, 31.967807977524686 -7.846087753549973, 31.908724592181915 -7.822274656008295, 31.849577576780195 -7.798620157132437, 31.790397419957724 -7.775048728177132, 31.73121400593037 -7.751485483786832, 31.672057041732828 -7.727855889683113, 31.612956434049114 -7.704085582621648, 31.553942955278963 -7.6800997662895485, 31.495048353635486 -7.6558233145978365, 31.43630571541261 -7.631181204815537, 31.377751006888587 -7.6060956932012385, 31.319421807613786 -7.580490079585357, 31.26134106497086 -7.5543255740183, 31.203523837628747 -7.527583789099976, 31.145983244036547 -7.500251803197525, 31.088732993656684 -7.472316749833028, 31.03178749011685 -7.443765521675766, 30.975161330159317 -7.414586032042344, 30.91886937868027 -7.384766864143159, 30.862926790897355 -7.354297243600538, 30.807348935560384 -7.323167290804429, 30.752151329614996 -7.2913679308586286, 30.697349616694463 -7.258891006881114, 30.642959463051202 -7.225729419541122, 30.588996557516793 -7.191876971532606, 30.53547658875263 -7.157328495399, 30.4824147848618 -7.122080328534933, 30.429826413122402 -7.086129570042161, 30.37772728908713 -7.0494735438288005, 30.326121850139305 -7.012125570261063, 30.275002873594076 -6.974114644126269, 30.22435960720896 -6.935472223784932, 30.17418029560049 -6.896229285143155, 30.1244529252631 -6.856415309695129, 30.075164726447653 -6.816058949446676, 30.02630238855422 -6.7751880865565335, 29.977852129383635 -6.733829613686997, 29.92979975273019 -6.6920095469505, 29.882130715164333 -6.649753128016349, 29.83483012022761 -6.607084713195504, 29.7878828415439 -6.564027892116749, 29.7412735177965 -6.520605522216011, 29.69498641262522 -6.476839842713682, 29.649005867686608 -6.432752245693885, 29.603316386135244 -6.388363139911401, 29.557900441504902 -6.343694182464058, 29.512741954867842 -6.298764992674622, 29.467831535041224 -6.253587951600138, 29.423134862057335 -6.208199381636586, 29.378582389022032 -6.162669405239972, 29.334054867353753 -6.117114958185529, 29.289421346757948 -6.071664375568694, 29.244557026839466 -6.026441313677174, 29.19933324310842 -5.981577635271127, 29.15361826650823 -5.937214088592633, 29.107278602854038 -5.8935028795496, 29.06017915099592 -5.850611198976576, 29.01218405607248 -5.808722894757652, 28.963158663591866 -5.76804442511079, 28.912973208290893 -5.728805447791241, 28.86150589569513 -5.6912610989280745, 28.808649698813895 -5.655698069249247, 28.754323705808925 -5.622421111044758, 28.6984758221457 -5.591762377077299, 28.641092328488952 -5.564088265412177, 28.582301128545595 -5.539540943432913, 28.522328540252012 -5.518045233663568, 28.46141299176391 -5.499392837780801, 28.39975850857541 -5.483353760449211, 28.337536166406505 -5.46968629044822, 28.274887677699557 -5.458134783932367, 28.21192466783545 -5.44844519360467, 28.148735054688693 -5.440369127801148, 28.08538582029235 -5.43366626863783, 28.021926123405176 -5.4281075213862096, 27.95839256443629 -5.4234739747289975, 27.89481114704325 -5.419557018121122, 27.831200012800004 -5.416157800276878, 27.76757245871472 -5.413085080731969, 27.703938186287548 -5.410154798207707, 27.640305710493053 -5.407186688684986, 27.57668345655321 -5.404005777928068, 27.51308098603366 -5.40044435886728, 27.449512855071305 -5.396318425312797, 27.385995357852142 -5.391471280315519, 27.322537823030366 -5.385893774287897, 27.259142901938915 -5.379645540530268, 27.19580718676395 -5.3728246323337725, 27.132525792910897 -5.365517506151024, 27.069292383872742 -5.357806809709756, 27.00609867042831 -5.349777661885535, 26.942935192375074 -5.341514255194361, 26.879791663603953 -5.333100102340874, 26.816657100359606 -5.324618898708988, 26.753520275007148 -5.316154638970213, 26.69036992099135 -5.307791684996288, 26.62719515161479 -5.299614973873145, 26.563985664252055 -5.291710852054082, 26.500732064661534 -5.284167316485877, 26.437426689538423 -5.2770705465387415, 26.374063138704184 -5.2705122386122465, 26.310636522823984 -5.264595146204214, 26.247149257215852 -5.259367423922023, 26.18360984137439 -5.254818848691193, 26.12002958018787 -5.250881943314559, 26.05641831291181 -5.247484911193983, 25.992783546715632 -5.244562802933501, 25.92913144713888 -5.242046600221203, 25.8654670235605 -5.2398660607142205, 25.801794108908858 -5.23795095577737, 25.738115646813796 -5.236230413425402, 25.674433998636488 -5.234633249197549, 25.610751066756386 -5.233088192970065, 25.54706860063221 -5.231524033452784, 25.48338840210241 -5.229869710773855, 25.41971255934104 -5.228054475922088, 25.356043707268363 -5.226008228635592, 25.29238516527056 -5.223661359824898, 25.22874131418835 -5.220944628031538, 25.16511753456105 -5.217791417022955, 25.101520492236503 -5.2141358107626266, 25.037959164396646 -5.209906319814694, 24.97444074779027 -5.205072891917841, 24.91096904670513 -5.1996615829444455, 24.84754507335717 -5.1937170898471985, 24.78416850338061 -5.1872874894647545, 24.720838352983606 -5.180416095700244, 24.657552754423115 -5.173145906343328, 24.594309125465728 -5.165519664525816, 24.531104221644366 -5.157578999281749, 24.467934289151277 -5.149364904033006, 24.404795117220846 -5.14091784374511, 24.341682081257865 -5.132277712275998, 24.27859027530768 -5.123484023033149, 24.215514528591466 -5.1145759402346265, 24.15244948883673 -5.105592394038856, 24.08938968957981 -5.096572178744943, 24.02632959200726 -5.087554028162643, 23.96326366496002 -5.078576738020508, 23.90018642180967 -5.069679223999936, 23.837092507441454 -5.0609006673130885, 23.773976737589354 -5.052280562718968, 23.710834168344707 -5.0438588280470595, 23.647660195270582 -5.035675940842479, 23.584450565134446 -5.027772933380697, 23.521201522047008 -5.0201915904015175, 23.4579098677005 -5.0129744848971916, 23.394573002797898 -5.006165003701532, 23.33118914540682 -4.99980757158333, 23.26775732906912 -4.993947571729473, 23.204277544300883 -4.988631456420044, 23.140750974212267 -4.9839068787063, 23.077179960485488 -4.979822570720605, 23.013568284090734 -4.976428506589801, 22.949921354335142 -4.973775800802967, 22.88624619741411 -4.971916711827669, 22.822551881206696 -4.970904899433913, 22.758849566905162 -4.970794124258144, 22.69515261857059 -4.971639635075988, 22.631477247223714 -4.973500731351896, 22.567841565770046 -4.9764208600280995, 22.504264811598098 -4.980424131609633, 22.44076605085665 -4.9855173372736195, 22.37736460891838 -4.991705003836686, 22.314080133108792 -4.998992491971549, 22.25093238934137 -5.0073826884195505, 22.187941183584055 -5.016876932650906, 22.125126298108285 -5.027475206920228, 22.062507359323956 -5.039175721071729, 22.000103785283116 -5.051975217792538, 21.937934682288343 -5.065868907152761, 21.876018588629268 -5.080850007403412, 21.8143739044 -5.096911256839476, 21.545696104484666 -3.7638103026640883))