POLYGON ((0.3574188561996676 0.873767820068819, 0.4244364478169571 0.8814610541602471, 0.4915842222462671 0.8879015770354961, 0.5588325247851612 0.8932034223336683, 0.6261532774200022 0.8974805240287155, 0.6935255193344552 0.9008463479693921, 0.7609328673397352 0.9034135051256093, 0.8283626777537629 0.9052935168769618, 0.8958060486828688 0.9065966181112101, 0.9632567414757721 0.9074319577203289, 1.0307108431345262 0.9079076141166941, 1.0981662365173537 0.9081307623613494, 1.1656219092946627 0.9082080353669506, 1.2330776187928878 0.9082456992567096, 1.300533265684477 0.9083499016682423, 1.3679884490051797 0.9086272116019235, 1.435441967240442 0.9091850379614841, 1.5028912058450896 0.9101301467874837, 1.5703317654221827 0.911572088548833, 1.637756627328048 0.9136263632821864, 1.7051561039060883 0.9163883527703371, 1.772520663852769 0.9199016504006947, 1.8398456371889678 0.9241062789088971, 1.9071286368246327 0.9289341004924574, 1.9743689570456597 0.934323048100964, 2.0415677493629394 0.9402069368901851, 2.1087276193663227 0.946519125271647, 2.1758524335581275 0.9531931773511886, 2.2429472417841794 0.960162255721271, 2.310017931591514 0.9673595398750208, 2.3770710595163225 0.9747183795087381, 2.4441136703063133 0.9821724154438892, 2.511153020350121 0.9896556454303078, 2.578196422633228 0.9971025456026456, 2.6452509839265654 1.0044484060863124, 2.7123234740135382 1.0116287906331964, 2.77942014146676 1.0185799827978173, 2.8465462047570473 1.0252416088681153, 2.913706603681824 1.0315479765476179, 2.9809062597536413 1.0374225590566533, 3.048149446160287 1.0427762235576679, 3.1154388386887346 1.0475155749274272, 3.1827744455092275 1.0515481360180585, 3.250153319962625 1.054779155555219, 3.3175694869178844 1.057111635765544, 3.38501298405959 1.058446148826995, 3.452469354518198 1.058680518904949, 3.519919476167141 1.057709947891943, 3.587338141638922 1.055426695964272, 3.6546937016151952 1.0517205756669445, 3.7219476847202717 1.046479383876324, 3.7890530495251507 1.0395895402880708, 3.8559541400413204 1.0309368154822636, 3.9225862773250855 1.020407797841259, 3.9888746029253475 1.0078940328714117, 4.054733453249281 0.9932862242404492, 4.12006743705595 0.9764821102458467, 4.184779467634258 0.9574281489008093, 4.24881744748351 0.93621524485341, 4.312186699402972 0.9130850434592068, 4.374911903481248 0.8882630944654542, 4.43703243265124 0.8619652794926648, 4.49860177713293 0.8344034322170866, 4.5596840124552465 0.805778729849889, 4.620350531860357 0.7762840885966501, 4.68067902780724 0.7461047850184164, 4.7407515659797195 0.7154193240726033, 4.800653018060769 0.6844016551153025, 4.860470376051348 0.6532221790381739, 4.920291459071947 0.6220498515677987, 4.9802043019474596 0.5910541156323634, 5.04029644535631 0.5604071638970599, 5.100652681650978 0.5302832619076541, 5.161355872038272 0.5008637082823223, 5.222486426329702 0.4723432354830614, 5.28408123208793 0.444838542405983, 5.346137265308204 0.4183910322915828, 5.408642201926234 0.3930226308684431, 5.471582277018251 0.3687539153807315, 5.5349437000912545 0.3456074502216208, 5.598710964507323 0.3236036687645433, 5.662867403256565 0.3027618123338481, 5.727395330081749 0.2831001149937258, 5.792275879206844 0.2646352576875193, 5.857489210847049 0.2473824399655601, 5.923014572251944 0.231355323336779, 5.988830309542484 0.2165657938701002, 6.054914047561998 0.2030238738461802, 6.121242775707359 0.190737816471786, 6.18779295824343 0.179714485118844, 6.254540575971893 0.1699571362256621, 6.3214613358351155 0.1614674398363678, 6.3885312196578 0.1542531030580753, 6.455722447831306 0.1482711246340899, 6.523004069146792 0.1434160471375994, 6.590350261700942 0.1395602453370862, 6.657740473521222 0.1365753071649511, 6.725159461536846 0.1343390596879605, 6.792596306885213 0.1327306960289719, 6.860043235473388 0.131631187908162, 6.927495322120895 0.130923848498408, 6.994949725569429 0.1304936431108535, 7.062404914209033 0.1302266920489358, 7.129860289750772 0.1300101068807582, 7.197315436904988 0.1297314194166004, 7.264769675075702 0.1292781821476914, 7.332221450069248 0.1285375150534129, 7.399667649067566 0.1273958877602799, 7.467103294113089 0.1257386097265989, 7.5345206242776275 0.1234486702564442, 7.601908309648796 0.1204098461014852, 7.669252788048523 0.1165279991923431, 7.736543113483578 0.1117976130858847, 7.803769654927621 0.106235209060575, 7.8709235764304815 0.0998558780288861, 7.937996635856106 0.0926760461105831, 8.004981171097679 0.0847128099999996, 8.071870169058293 0.0759836292441209, 8.138657287558779 0.0665064935164543, 8.205336782858385 0.0562997874452626, 8.27190355541674 0.0453822492370563, 8.338353162429422 0.0337729323608039, 8.40468174157152 0.0214911289404833, 8.470886053718145 0.0085563477804858, 8.536963473116597 -0.005011737367, 8.602911915815334 -0.0191933371052986, 8.668729879015924 -0.0339685701983304, 8.734416413320439 -0.0493175074865108, 8.799971059690911 -0.0652202007425607, 8.86539388419257 -0.0816567087212383, 8.930685437883334 -0.0986071280272643, 8.995846704379023 -0.1160516071609809, 9.06087912915269 -0.1339703731320163, 9.12578457217131 -0.1523437477263412, 9.190565266794488 -0.1711521519576001, 9.255223843041868 -0.1903761312455408, 9.319763277473259 -0.2099963574545906, 9.384186862938353 -0.2299936284917932, 9.448498225137186 -0.2503488906152946, 9.512701274721227 -0.271043224826804, 9.576800185241524 -0.2920578488658822, 9.640799398558357 -0.3133741462322863, 9.70470359953329 -0.3349735917771959, 9.768517685168556 -0.3568378001462722, 9.832246694352065 -0.3789487390919433, 9.895896035639975 -0.4012879637069088, 9.959471158328522 -0.4238375135450679, 10.022975785789669 -0.4465848284092804, 10.086412605998161 -0.4695205535059527, 10.149783708556985 -0.4926372245716117, 10.213091408054462 -0.5159269694320464, 10.276338120894808 -0.5393818185629744, 10.339526276929359 -0.5629939583615449, 10.402658373979829 -0.5867555747719012, 10.465736962803376 -0.6106588668770658, 10.52876464142356 -0.6346960701566969, 10.591744055916447 -0.6588594444361106, 10.654677893137196 -0.6831412713510829, 10.717568881921746 -0.7075338578634731, 10.780419788986787 -0.7320295336604722, 10.84323341368009 -0.7566206484078488, 10.906012589219156 -0.7812995732009159, 10.968760177781697 -0.8060586978803407, 11.031479066773818 -0.8308904288567688, 11.09417216925991 -0.855787189738305, 11.156842419030733 -0.8807414182771827, 11.219492768021588 -0.9057455647342838, 11.282126185699408 -0.9307920916309497, 11.344745654598674 -0.955873470728089, 11.407354168453736 -0.9809821817552032, 11.469954730495713 -1.0061107112550443, 11.532550349820593 -1.0312515499935548, 11.595144039750343 -1.0563971917848236, 11.65773881517316 -1.0815401315643651, 11.72033768994128 -1.10667286349944, 11.782943674971952 -1.131787879610786, 11.845559774933204 -1.156877667379383, 11.908188986681981 -1.1819347086519199, 11.970834296662927 -1.2069514778026968, 12.033498677354304 -1.2319204392857386, 12.096185086599368 -1.2568340472711867, 12.15889646393366 -1.2816847431838168, 12.221635727266273 -1.3064649536455037, 12.284405772829116 -1.3311670906565183, 12.347209470162012 -1.3557835484773821, 12.410049659515039 -1.3803067023650788, 12.472929152038285 -1.4047289090408666, 12.535850723281012 -1.4290425030334577, 12.598817111761758 -1.453239796504733, 12.661831018942836 -1.477313079729018, 12.724895101258692 -1.5012546171681886, 12.788011970210198 -1.5250566485261732, 12.85118419161309 -1.5487113890043516, 12.914414276363688 -1.5722110255111783, 12.977704682271089 -1.5955477189033842, 13.041057812037153 -1.6187136038741499, 13.104476003196652 -1.6417007857878239, 13.16796153169768 -1.664501343885655, 13.23151660809743 -1.6871073308120497, 13.295143367312058 -1.7095107705617425, 13.358843873750223 -1.73170366230184, 13.422620115301024 -1.7536779797234718, 13.486473993619438 -1.7754256704960227, 13.550407330506678 -1.79693866027072, 13.614421859357707 -1.8182088522149047, 13.678519216681833 -1.8392281285240608, 13.742700949518056 -1.8599883534305832, 13.806968504166925 -1.8804813732892482, 13.871323218455666 -1.900699025134453, 13.93576633237496 -1.9206331280225644, 14.000298975348827 -1.9402754792913524, 14.064922141914836 -1.9596179394402904, 14.12963673788064 -1.9786522853644573, 14.194443595045287 -1.9973700931410234, 14.259343182800814 -2.0157638512258766, 14.324336077667692 -2.0338251845109143, 14.38942336005862 -2.051543244825571, 14.454600267144183 -2.0689288143426023, 14.51985686868126 -2.0860126620334207, 14.585181177890902 -2.1028357162419797, 14.650561673611273 -2.1194390086544583, 14.715987635823517 -2.1358621417417956, 14.781448561316992 -2.1521453393662795, 14.846934190274958 -2.168328868946701, 14.91243448991441 -2.1844528920984927, 14.977939537591798 -2.200557619823419, 15.043439435536053 -2.2166832741011055, 15.108924257712156 -2.2328700731555546, 15.174383944824458 -2.2491582421797403, 15.239808243812947 -2.265588007198376, 15.30518663610116 -2.282199589813079, 15.370508222387222 -2.2990331970053974, 15.435761694818083 -2.3161290091355635, 15.500935239750048 -2.333527163005426, 15.566016426739012 -2.351267718829786, 15.630992209403258 -2.3693906381006684, 15.695848798946114 -2.387935738933177, 15.760571576493627 -2.406942632071647, 15.825145116428398 -2.426450688255918, 15.8895530349951 -2.4464989453134796, 15.953777946569629 -2.467126011098642, 16.017801502850865 -2.488370021415723, 16.08160423055392 -2.510268476899259, 16.145165556815666 -2.532858111778713, 16.208463851068984 -2.5561748575380547, 16.271476264132627 -2.5802536164055687, 16.334178918796812 -2.6051279656761506, 16.396546852368456 -2.630830313591023, 16.458553657450423 -2.6573920596928517, 16.520172915807166 -2.6848411076498824, 16.581377025682368 -2.7132041573875596, 16.6421331439132 -2.742514088571248, 16.70242636632466 -2.77276524002378, 16.762266873102163 -2.8039017579071204, 16.821683098101534 -2.8358404545451052, 16.880708256078876 -2.8684958551567337, 16.93937486486005 -2.9017908113657986, 16.997717814717014 -2.935649669517179, 17.055773518113213 -2.9699984835373496, 17.11357936537753 -3.004765997979719, 17.17117370137154 -3.0398827302663682, 17.228595613825938 -3.075280555507689, 17.285884851777432 -3.11089266671708, 17.343081656134743 -3.146653006567862, 17.400226679831878 -3.1824959914499504, 17.45736094249491 -3.218356138518133, 17.514525704280988 -3.254167641425432, 17.571762422294306 -3.2898640898243694, 17.629112663947275 -3.3253778974668817, 17.686618000751068 -3.360640085390819, 17.74431992147783 -3.395579819173352, 17.802259649181728 -3.430123824419836, 17.86047801661107 -3.464196319463289, 17.919015224834393 -3.4977183209556415, 17.97791051269479 -3.5306072255004417, 18.0372019577162 -3.562776810668997, 18.09692593103678 -3.594136429107019, 18.15711657250286 -3.624590882987359, 18.217805438623472 -3.654040530534417, 18.279020506145223 -3.682380665672262, 18.340785420585693 -3.709501764077579, 18.403118932590743 -3.7352900227266, 18.466033388120728 -3.7596274952005553, 18.52953398010461 -3.782391987732456, 18.59361771449376 -3.803460249541734, 18.658271450024 -3.8227103637191497, 18.723474530407014 -3.840007653479528, 18.789188798127636 -3.855250550300074, 18.85534884382031 -3.868422053634644, 18.921875690537814 -3.879595623993585, 18.988692774138674 -3.8888735589992516, 19.055734855420322 -3.8963510418522134, 19.12294456629273 -3.90213018273795, 19.19027208865959 -3.9063155929681974, 19.257675328152907 -3.9090118172237043, 19.3251196744855 -3.9103231027041443, 19.392576543962193 -3.91035254294066, 19.46002318054624 -3.9092013533638985, 19.52744337877764 -3.9069676593953675, 19.594822518259498 -3.903748828698942, 19.74560181963871 -5.746598891502039, 19.678656324538927 -5.752727762992747, 19.611617167738952 -5.757726745062095, 19.544503877400988 -5.76160740285306, 19.47733578700094 -5.764381167794931, 19.41013140973555 -5.766058904546663, 19.34290870473274 -5.766651011248213, 19.27568515778272 -5.766167424010737, 19.20847774894325 -5.7646175176236705, 19.141303064771073 -5.7620101469001686, 19.074177332695555 -5.758353627053741, 19.007116446549677 -5.753655664816456, 18.940136052175163 -5.747923408267918, 18.873251578227794 -5.741163422676592, 18.806478279548763 -5.733381630628436, 18.73983130459505 -5.724583370010152, 18.6733257297175 -5.714773365893224, 18.606976616269765 -5.703955677416082, 18.540799060984632 -5.69213376152091, 18.474808237986917 -5.679310441023099, 18.40901947160226 -5.665487849196676, 18.343448263219457 -5.650667519160962, 18.278110347672808 -5.634850340126506, 18.213021824659076 -5.618036389835778, 18.14819903912675 -5.600225371642642, 18.08365871837688 -5.581416393935527, 18.019418643531054 -5.561606516707877, 17.955492062064994 -5.540807061311542, 17.891885480400923 -5.51904895028555, 17.828602113010515 -5.496368064438177, 17.76564321732287 -5.472801573734549, 17.70300839779049 -5.4483870076878125, 17.64069529323567 -5.423162735033956, 17.578699850112724 -5.3971675892812945, 17.517016410037506 -5.3704407021579454, 17.455637658984173 -5.343021413526638, 17.39455483756244 -5.314949112919641, 17.333757855485675 -5.286263152019296, 17.273235288182633 -5.257002744469634, 17.2129745477299 -5.227206884877143, 17.152962015760764 -5.196914309764196, 17.093183065097534 -5.166163429033122, 17.03362218956586 -5.134992291108214, 16.974263136280697 -5.103438586973699, 16.91508894273169 -5.071539615027987, 16.856082032679947 -5.039332274115838, 16.79722433436464 -5.006853099411127, 16.738497325620475 -4.974138255790326, 16.679882108224813 -4.941223548202079, 16.621359505740156 -4.9081444750732475, 16.56291011137538 -4.874936242591579, 16.504514353078733 -4.841633788064916, 16.44615257241342 -4.808271834399559, 16.3878050705447 -4.774884919158343, 16.3294521683497 -4.741507439801051, 16.271074296056444 -4.708173651373565, 16.21265200800909 -4.674917752220419, 16.154165962998494 -4.641774099478063, 16.09559740838089 -4.608776451042335, 16.036927687470246 -4.575958969920474, 15.978137318060456 -4.543358123910509, 15.919215272520617 -4.510995839040353, 15.860159193515987 -4.478878799409648, 15.800971644795526 -4.447004687148567, 15.741655068342137 -4.415371347913153, 15.682211267445751 -4.383977734844659, 15.622642293216108 -4.352822291285795, 15.562950139640709 -4.321903510177609, 15.503136726332391 -4.291219969253159, 15.443203956417635 -4.260770222430734, 15.383153696084705 -4.230552840517711, 15.322987776352722 -4.200566411937224, 15.262707994859651 -4.170809536595771, 15.202316115818855 -4.141280828734418, 15.14181387260585 -4.111978916207086, 15.081202965915121 -4.082902441305102, 15.020485064870034 -4.054050060930498, 14.959661809672367 -4.025420445711519, 14.898734809696652 -3.9970122812685447, 14.837705644408107 -3.968824268266123, 14.776575866015294 -3.940855121410687, 14.715346997736845 -3.9131035707070154, 14.65402053447334 -3.885568361576227, 14.592597945431557 -3.8582482537491276, 14.53108067257073 -3.831142022477091, 14.469470131051676 -3.804248458749005, 14.407767711824937 -3.7775663680552087, 14.34597478025116 -3.751094571540924, 14.28409267625645 -3.724831906576056, 14.222122717100111 -3.6987772248164625, 14.160066196168199 -3.672929393281324, 14.097924381485686 -3.6472872987449048, 14.035698521993146 -3.621849836657532, 13.973389846273436 -3.5966159127383506, 13.910999540768051 -3.571584498421579, 13.848528826916569 -3.546754440540631, 13.78597901909318 -3.52212431127599, 13.723351496626142 -3.4976924648920784, 13.660647645374791 -3.4734571885002588, 13.597868823927218 -3.4494167843958885, 13.53501637979504 -3.4255695272888755, 13.472091648355503 -3.401913672051369, 13.409095950151599 -3.378447458256884, 13.346030591269617 -3.3551691068966703, 13.282896864382497 -3.3320768229209676, 13.219696048002882 -3.309168795337878, 13.156429405652528 -3.286443196668865, 13.093098187132327 -3.263898184940607, 13.029703628030653 -3.241531903630337, 12.966246948728955 -3.2193424812615934, 12.902729355726477 -3.1973280332120897, 12.839152041299174 -3.1754866617735154, 12.775516182424528 -3.153816455724684, 12.711822942124023 -3.1323154919764282, 12.648073469270429 -3.1109818357441443, 12.584268897452377 -3.089813540108465, 12.520410346306482 -3.068808647493128, 12.456498921474045 -3.0479651899302946, 12.392535713426106 -3.027281188629631, 12.328521798756993 -3.006754655286071, 12.264458240288356 -2.9863835924171234, 12.200346085878667 -2.9661659929591155, 12.136186369650378 -2.9460998414052817, 12.07198011223682 -2.9261831141957404, 12.007728319600007 -2.9064137793544154, 11.943431984167267 -2.8867897974630967, 11.879092085213891 -2.8673091220859375, 11.814709587710988 -2.847969699455364, 11.75028544335303 -2.828769469292403, 11.685820591066085 -2.809706365248917, 11.621315955905047 -2.7907783146463787, 11.556772449959116 -2.771983239156098, 11.492190972973013 -2.753319055244195, 11.427572411309866 -2.734783673963482, 11.36291763872732 -2.7163750015093173, 11.2982275170972 -2.6980909396543797, 11.233502895446975 -2.6799293855911075, 11.168744610604556 -2.661888232379829, 11.103953488000434 -2.6439653693626886, 11.039130340797426 -2.6261586820520724, 10.974275970406763 -2.6084660524876147, 10.90939116735616 -2.5908853596209847, 10.844476710514106 -2.5734144792444127, 10.779533367484097 -2.5560512842724035, 10.714561895521573 -2.538793645091338, 10.649563040856297 -2.52163942952156, 10.584537538974612 -2.5045865030382917, 10.519486115568588 -2.4876327290821223, 10.45440948595731 -2.470775969047914, 10.389308355269387 -2.4540140824580723, 10.324183419408588 -2.4373449272311047, 10.259035364572489 -2.4207663596907807, 10.193864867347994 -2.4042762347080693, 10.128672595681627 -2.3878724059143903, 10.063459208491958 -2.371552725725906, 9.998225355675164 -2.355315045538092, 9.932971679112143 -2.339157215693558, 9.867698812361049 -2.3230770855522342, 9.802407380341066 -2.3070725047786698, 9.73709800102767 -2.2911413202953086, 9.671771285020455 -2.2752813772239113, 9.606427831521058 -2.259490535468545, 9.541068240284881 -2.24376662365069, 9.475693106084806 -2.2281074616906444, 9.410302954215771 -2.2125111300399034, 9.344898207387798 -2.1969761183986836, 9.279479186494159 -2.1815013266959586, 9.214046222687474 -2.1660855971802233, 9.148599647421296 -2.150727757520478, 9.08313978444903 -2.135426653925771, 9.01766695525514 -2.1201811279773595, 8.952181478449374 -2.104990020726574, 8.886683669210107 -2.0898521749036325, 8.821173839538622 -2.0747664332902103, 8.755652298552532 -2.0597316389833615, 8.690119352446958 -2.04474663553822, 8.624575304381562 -2.029810266861614, 8.559020454821644 -2.0149213771842183, 8.493455101552719 -2.000078811061049, 8.427879539544678 -1.9852814133672718, 8.36229406127431 -1.9705280292505336, 8.296698956760034 -1.9558175041178543, 8.231094513430728 -1.9411486836322487, 8.165481016424028 -1.92652041366666, 8.09985874863659 -1.9119315402865664, 8.034227990602473 -1.8973809097393313, 7.9685890207664185 -1.8828673684119408, 7.902942115546995 -1.8683897628108264, 7.837287549227429 -1.8539469395425676, 7.771625594203767 -1.8395377452759525, 7.705956521058526 -1.8251610267201124, 7.640280598466196 -1.8108156305957877, 7.5745980934167605 -1.7965004036018686, 7.508909271297413 -1.7822141923929926, 7.4432143958146115 -1.7679558435407905, 7.377513729193752 -1.7537242035047704, 7.311807532266622 -1.7395181186106252, 7.246096064411439 -1.7253364350010556, 7.180379583729896 -1.7111779986105675, 7.114658347138004 -1.697041655145822, 7.048932610325171 -1.6829262500258364, 6.983202627910276 -1.6688306283599712, 6.917468653533497 -1.654753634931726, 6.851730939835148 -1.640694114128334, 6.785989738592813 -1.6266509099209254, 6.720245300811735 -1.6126228658532105, 6.654497876723828 -1.5986088249607655, 6.5887477159082035 -1.5846076297520084, 6.522995067377768 -1.5706181222032822, 6.457240179598356 -1.5566391436683809, 6.39148330059552 -1.542669534858683, 6.325724678034866 -1.5287081358461447, 6.259964559260882 -1.5147537859639295, 6.194203191393285 -1.500805323783748, 6.128440821398642 -1.4868615871282056, 6.06267769614807 -1.4729214129637223, 5.996914062506745 -1.458983637373145, 5.9311501673945655 -1.445047095578187, 5.8653862578614335 -1.431110621825867, 5.799622581173065 -1.4171730493588168, 5.733859384860556 -1.4032332104387826, 5.668096916812096 -1.3892899362250848, 5.6023354253447755 -1.3753420568094497, 5.5365751592737915 -1.3613884010882047, 5.4708163680234785 -1.3474277966100399, 5.40505930148276 -1.333459070639287, 5.339304210579359 -1.319481047605876, 5.273551347404942 -1.3054925489349645, 5.207800961991925 -1.2914924085034747, 5.142053310594249 -1.277479434090101, 5.0763086545996545 -1.2634524128917917, 5.010567214805996 -1.2494103251670945, 4.944829293710528 -1.2353517741400888, 4.879095188966294 -1.2212753901882525, 4.813364280719348 -1.2071840870888981, 4.747635265655342 -1.193083956634255, 4.681906398977621 -1.1789831344156299, 4.616176028743029 -1.164889322193977, 4.550442525121965 -1.1508101309556438, 4.484704235224934 -1.136753302564344, 4.418959520153409 -1.122726554501157, 4.353206750959136 -1.1087376087877527, 4.287444308054689 -1.0947942060833333, 4.221670587776461 -1.0809040958188567, 4.155884003602941 -1.067075037769854, 4.0900829882759195 -1.0533148030181905, 4.0242659989691205 -1.0396311741892241, 3.9584315185067123 -1.0260319447134036, 3.8925780574035085 -1.0125249187281427, 3.8267041597029197 -0.9991179118379802, 3.760808403955595 -0.9858187500690043, 3.694889404817057 -0.9726352694002753, 3.6289458196568365 -0.9595753162425268, 3.5629763495229065 -0.9466467462288467, 3.49697974007772 -0.9338574233978443, 3.430954788873105 -0.9212152201925149, 3.364900346608888 -0.9087280160530253, 3.2988153172033456 -0.896403696267542, 3.232698665546962 -0.8842501513463648, 3.166549419392756 -0.8722752753206071, 3.100366668378765 -0.860486964313626, 3.0341495720103193 -0.8488931151778412, 2.967897362513977 -0.8375016233371766, 2.901609342667454 -0.8263203811715207, 2.835284893712704 -0.8153572758509824, 2.7689234794612942 -0.804620186489383, 2.7025246428415817 -0.7941169824680847, 2.6360880134184117 -0.7838555204641615, 2.5696133129537366 -0.7738436406188816, 2.503100350648693 -0.7640891649489588, 2.4365490299438677 -0.7545998936355959, 2.3699593556195975 -0.7453835998701371, 2.3033314277846397 -0.7364480285050529, 2.2366654476553993 -0.7278008917423306, 2.169961726137487 -0.7194498623109823, 2.1032206766816506 -0.7114025724954182, 2.0364428197896385 -0.7036666094257404, 1.9696287928718577 -0.6962495062750627, 1.9027793421400974 -0.6891587417746684, 1.8358953256582426 -0.682401735357419, 1.768977724144234 -0.6759858361328361, 1.702027632082162 -0.6699183229713075, 1.6350462592231525 -0.6642063997780163, 1.5680349419160229 -0.6588571820937971, 1.5009951335869172 -0.6538776978296341, 1.4339284046944136 -0.6492748829456575, 1.366836454148155 -0.6450555656072479, 1.299721099217044 -0.6412264677132528, 1.232584274054243 -0.6377942012083873, 1.1654280407972717 -0.6347652497595091, 1.0982545788146116 -0.6321459714282289, 1.031066182081992 -0.6299425956680345, 0.963865269669383 -0.6281612023598179, 0.8966543737516629 -0.626807726955012, 0.8294361367018463 -0.6258879571454652, 0.7622133218281911 -0.6254075069410447, 0.6949887942537125 -0.625371836001254, 0.627765524496251 -0.625786233603671, 0.5605466170741866 -0.6266557535511788, 0.4933352067515477 -0.6279853963714855, 0.3574188561996676 0.873767820068819))